<?xml version="1.0" encoding="UTF-8"?>
<gpx creator="StravaGPX" version="1.1" xmlns="http://www.topografix.com/GPX/1/1" xmlns:xsi="http://www.w3.org/2001/XMLSchema-instance" xsi:schemaLocation="http://www.topografix.com/GPX/1/1 http://www.topografix.com/GPX/1/1/gpx.xsd">
 <metadata>
  <time>2021-09-05T11:01:18Z</time>
 </metadata>
 <trk>
  <name>Hike with Emma</name>
  <type>hiking</type>
  <trkseg>
   <trkpt lat="46.4544610" lon="6.1120020">
    <ele>1210.5</ele>
    <time>2021-09-05T11:01:18Z</time>
   </trkpt>
   <trkpt lat="46.4544670" lon="6.1122840">
    <ele>1210.9</ele>
    <time>2021-09-05T11:01:31Z</time>
   </trkpt>
   <trkpt lat="46.4544840" lon="6.1122880">
    <ele>1211.0</ele>
    <time>2021-09-05T11:01:35Z</time>
   </trkpt>
   <trkpt lat="46.4545390" lon="6.1122480">
    <ele>1211.4</ele>
    <time>2021-09-05T11:01:40Z</time>
   </trkpt>
   <trkpt lat="46.4545790" lon="6.1121180">
    <ele>1211.8</ele>
    <time>2021-09-05T11:01:48Z</time>
   </trkpt>
   <trkpt lat="46.4546450" lon="6.1118500">
    <ele>1213.3</ele>
    <time>2021-09-05T11:02:10Z</time>
   </trkpt>
   <trkpt lat="46.4548160" lon="6.1113520">
    <ele>1215.7</ele>
    <time>2021-09-05T11:02:45Z</time>
   </trkpt>
   <trkpt lat="46.4549050" lon="6.1107600">
    <ele>1219.2</ele>
    <time>2021-09-05T11:03:24Z</time>
   </trkpt>
   <trkpt lat="46.4550050" lon="6.1104500">
    <ele>1221.2</ele>
    <time>2021-09-05T11:03:46Z</time>
   </trkpt>
   <trkpt lat="46.4553570" lon="6.1100940">
    <ele>1224.4</ele>
    <time>2021-09-05T11:04:29Z</time>
   </trkpt>
   <trkpt lat="46.4556760" lon="6.1098420">
    <ele>1227.5</ele>
    <time>2021-09-05T11:05:08Z</time>
   </trkpt>
   <trkpt lat="46.4559040" lon="6.1097080">
    <ele>1229.6</ele>
    <time>2021-09-05T11:05:34Z</time>
   </trkpt>
   <trkpt lat="46.4561680" lon="6.1096760">
    <ele>1231.7</ele>
    <time>2021-09-05T11:06:05Z</time>
   </trkpt>
   <trkpt lat="46.4563940" lon="6.1097180">
    <ele>1234.1</ele>
    <time>2021-09-05T11:06:31Z</time>
   </trkpt>
   <trkpt lat="46.4572250" lon="6.1100000">
    <ele>1243.8</ele>
    <time>2021-09-05T11:08:19Z</time>
   </trkpt>
   <trkpt lat="46.4573610" lon="6.1100820">
    <ele>1245.4</ele>
    <time>2021-09-05T11:08:37Z</time>
   </trkpt>
   <trkpt lat="46.4575210" lon="6.1102420">
    <ele>1247.5</ele>
    <time>2021-09-05T11:09:07Z</time>
   </trkpt>
   <trkpt lat="46.4578560" lon="6.1106920">
    <ele>1252.1</ele>
    <time>2021-09-05T11:10:16Z</time>
   </trkpt>
   <trkpt lat="46.4581830" lon="6.1111560">
    <ele>1255.6</ele>
    <time>2021-09-05T11:11:30Z</time>
   </trkpt>
   <trkpt lat="46.4582890" lon="6.1112680">
    <ele>1256.5</ele>
    <time>2021-09-05T11:11:52Z</time>
   </trkpt>
   <trkpt lat="46.4585620" lon="6.1115040">
    <ele>1259.2</ele>
    <time>2021-09-05T11:12:44Z</time>
   </trkpt>
   <trkpt lat="46.4589060" lon="6.1118920">
    <ele>1261.9</ele>
    <time>2021-09-05T11:13:58Z</time>
   </trkpt>
   <trkpt lat="46.4593950" lon="6.1122200">
    <ele>1263.8</ele>
    <time>2021-09-05T11:15:20Z</time>
   </trkpt>
   <trkpt lat="46.4601570" lon="6.1126840">
    <ele>1268.5</ele>
    <time>2021-09-05T11:17:22Z</time>
   </trkpt>
   <trkpt lat="46.4606190" lon="6.1129380">
    <ele>1272.6</ele>
    <time>2021-09-05T11:18:32Z</time>
   </trkpt>
   <trkpt lat="46.4610790" lon="6.1131980">
    <ele>1276.3</ele>
    <time>2021-09-05T11:19:37Z</time>
   </trkpt>
   <trkpt lat="46.4613680" lon="6.1133860">
    <ele>1277.8</ele>
    <time>2021-09-05T11:20:16Z</time>
   </trkpt>
   <trkpt lat="46.4615180" lon="6.1134360">
    <ele>1278.1</ele>
    <time>2021-09-05T11:20:33Z</time>
   </trkpt>
   <trkpt lat="46.4622530" lon="6.1135560">
    <ele>1279.5</ele>
    <time>2021-09-05T11:21:51Z</time>
   </trkpt>
   <trkpt lat="46.4623270" lon="6.1135940">
    <ele>1279.9</ele>
    <time>2021-09-05T11:22:00Z</time>
   </trkpt>
   <trkpt lat="46.4623850" lon="6.1136500">
    <ele>1280.2</ele>
    <time>2021-09-05T11:22:09Z</time>
   </trkpt>
   <trkpt lat="46.4625390" lon="6.1138680">
    <ele>1281.6</ele>
    <time>2021-09-05T11:22:26Z</time>
   </trkpt>
   <trkpt lat="46.4628350" lon="6.1144000">
    <ele>1285.6</ele>
    <time>2021-09-05T11:23:09Z</time>
   </trkpt>
   <trkpt lat="46.4631480" lon="6.1149560">
    <ele>1290.3</ele>
    <time>2021-09-05T11:23:53Z</time>
   </trkpt>
   <trkpt lat="46.4632010" lon="6.1150320">
    <ele>1291.0</ele>
    <time>2021-09-05T11:24:02Z</time>
   </trkpt>
   <trkpt lat="46.4634140" lon="6.1152380">
    <ele>1293.3</ele>
    <time>2021-09-05T11:24:28Z</time>
   </trkpt>
   <trkpt lat="46.4635320" lon="6.1153940">
    <ele>1294.6</ele>
    <time>2021-09-05T11:24:41Z</time>
   </trkpt>
   <trkpt lat="46.4636790" lon="6.1157280">
    <ele>1297.0</ele>
    <time>2021-09-05T11:25:15Z</time>
   </trkpt>
   <trkpt lat="46.4637450" lon="6.1158400">
    <ele>1297.9</ele>
    <time>2021-09-05T11:25:28Z</time>
   </trkpt>
   <trkpt lat="46.4640610" lon="6.1162820">
    <ele>1301.4</ele>
    <time>2021-09-05T11:26:25Z</time>
   </trkpt>
   <trkpt lat="46.4644670" lon="6.1168740">
    <ele>1305.7</ele>
    <time>2021-09-05T11:27:43Z</time>
   </trkpt>
   <trkpt lat="46.4646770" lon="6.1173740">
    <ele>1309.4</ele>
    <time>2021-09-05T11:28:44Z</time>
   </trkpt>
   <trkpt lat="46.4647540" lon="6.1177080">
    <ele>1311.6</ele>
    <time>2021-09-05T11:29:23Z</time>
   </trkpt>
   <trkpt lat="46.4648250" lon="6.1183500">
    <ele>1315.2</ele>
    <time>2021-09-05T11:30:37Z</time>
   </trkpt>
   <trkpt lat="46.4649070" lon="6.1190040">
    <ele>1319.9</ele>
    <time>2021-09-05T11:31:51Z</time>
   </trkpt>
   <trkpt lat="46.4649490" lon="6.1194280">
    <ele>1323.1</ele>
    <time>2021-09-05T11:32:34Z</time>
   </trkpt>
   <trkpt lat="46.4649690" lon="6.1200480">
    <ele>1327.7</ele>
    <time>2021-09-05T11:33:44Z</time>
   </trkpt>
   <trkpt lat="46.4649230" lon="6.1202960">
    <ele>1329.3</ele>
    <time>2021-09-05T11:34:10Z</time>
   </trkpt>
   <trkpt lat="46.4646710" lon="6.1213120">
    <ele>1334.5</ele>
    <time>2021-09-05T11:36:07Z</time>
   </trkpt>
   <trkpt lat="46.4646570" lon="6.1215840">
    <ele>1335.7</ele>
    <time>2021-09-05T11:36:37Z</time>
   </trkpt>
   <trkpt lat="46.4646940" lon="6.1219480">
    <ele>1337.0</ele>
    <time>2021-09-05T11:37:16Z</time>
   </trkpt>
   <trkpt lat="46.4649480" lon="6.1228260">
    <ele>1340.3</ele>
    <time>2021-09-05T11:39:01Z</time>
   </trkpt>
   <trkpt lat="46.4650170" lon="6.1230340">
    <ele>1341.1</ele>
    <time>2021-09-05T11:39:27Z</time>
   </trkpt>
   <trkpt lat="46.4651280" lon="6.1232360">
    <ele>1342.0</ele>
    <time>2021-09-05T11:39:48Z</time>
   </trkpt>
   <trkpt lat="46.4652770" lon="6.1234440">
    <ele>1342.8</ele>
    <time>2021-09-05T11:40:19Z</time>
   </trkpt>
   <trkpt lat="46.4654280" lon="6.1236160">
    <ele>1343.2</ele>
    <time>2021-09-05T11:40:40Z</time>
   </trkpt>
   <trkpt lat="46.4657310" lon="6.1238420">
    <ele>1343.8</ele>
    <time>2021-09-05T11:41:15Z</time>
   </trkpt>
   <trkpt lat="46.4658220" lon="6.1239340">
    <ele>1343.9</ele>
    <time>2021-09-05T11:41:28Z</time>
   </trkpt>
   <trkpt lat="46.4659540" lon="6.1241380">
    <ele>1343.9</ele>
    <time>2021-09-05T11:41:46Z</time>
   </trkpt>
   <trkpt lat="46.4660360" lon="6.1243220">
    <ele>1343.7</ele>
    <time>2021-09-05T11:41:54Z</time>
   </trkpt>
   <trkpt lat="46.4660550" lon="6.1244300">
    <ele>1343.7</ele>
    <time>2021-09-05T11:42:03Z</time>
   </trkpt>
   <trkpt lat="46.4660640" lon="6.1246780">
    <ele>1343.7</ele>
    <time>2021-09-05T11:42:16Z</time>
   </trkpt>
   <trkpt lat="46.4658720" lon="6.1256840">
    <ele>1345.2</ele>
    <time>2021-09-05T11:43:17Z</time>
   </trkpt>
   <trkpt lat="46.4658690" lon="6.1258280">
    <ele>1345.5</ele>
    <time>2021-09-05T11:43:21Z</time>
   </trkpt>
   <trkpt lat="46.4659380" lon="6.1265160">
    <ele>1346.6</ele>
    <time>2021-09-05T11:44:00Z</time>
   </trkpt>
   <trkpt lat="46.4658860" lon="6.1271820">
    <ele>1347.2</ele>
    <time>2021-09-05T11:44:39Z</time>
   </trkpt>
   <trkpt lat="46.4659110" lon="6.1280020">
    <ele>1345.9</ele>
    <time>2021-09-05T11:45:23Z</time>
   </trkpt>
   <trkpt lat="46.4659590" lon="6.1282880">
    <ele>1345.5</ele>
    <time>2021-09-05T11:45:40Z</time>
   </trkpt>
   <trkpt lat="46.4661840" lon="6.1290480">
    <ele>1344.5</ele>
    <time>2021-09-05T11:46:28Z</time>
   </trkpt>
   <trkpt lat="46.4663690" lon="6.1297980">
    <ele>1344.3</ele>
    <time>2021-09-05T11:47:16Z</time>
   </trkpt>
   <trkpt lat="46.4665450" lon="6.1305400">
    <ele>1344.2</ele>
    <time>2021-09-05T11:48:03Z</time>
   </trkpt>
   <trkpt lat="46.4666450" lon="6.1312100">
    <ele>1343.6</ele>
    <time>2021-09-05T11:48:38Z</time>
   </trkpt>
   <trkpt lat="46.4667530" lon="6.1318960">
    <ele>1344.7</ele>
    <time>2021-09-05T11:49:22Z</time>
   </trkpt>
   <trkpt lat="46.4669150" lon="6.1326700">
    <ele>1345.3</ele>
    <time>2021-09-05T11:50:05Z</time>
   </trkpt>
   <trkpt lat="46.4671450" lon="6.1335000">
    <ele>1344.4</ele>
    <time>2021-09-05T11:50:57Z</time>
   </trkpt>
   <trkpt lat="46.4673890" lon="6.1343480">
    <ele>1344.4</ele>
    <time>2021-09-05T11:51:54Z</time>
   </trkpt>
   <trkpt lat="46.4674440" lon="6.1352680">
    <ele>1344.5</ele>
    <time>2021-09-05T11:52:46Z</time>
   </trkpt>
   <trkpt lat="46.4675080" lon="6.1361860">
    <ele>1344.2</ele>
    <time>2021-09-05T11:53:42Z</time>
   </trkpt>
   <trkpt lat="46.4675560" lon="6.1366320">
    <ele>1344.0</ele>
    <time>2021-09-05T11:54:08Z</time>
   </trkpt>
   <trkpt lat="46.4675810" lon="6.1368520">
    <ele>1343.3</ele>
    <time>2021-09-05T11:54:21Z</time>
   </trkpt>
   <trkpt lat="46.4677610" lon="6.1375620">
    <ele>1338.6</ele>
    <time>2021-09-05T11:55:05Z</time>
   </trkpt>
   <trkpt lat="46.4677840" lon="6.1377280">
    <ele>1338.1</ele>
    <time>2021-09-05T11:55:13Z</time>
   </trkpt>
   <trkpt lat="46.4677830" lon="6.1381260">
    <ele>1338.2</ele>
    <time>2021-09-05T11:55:35Z</time>
   </trkpt>
   <trkpt lat="46.4677160" lon="6.1384720">
    <ele>1339.1</ele>
    <time>2021-09-05T11:55:57Z</time>
   </trkpt>
   <trkpt lat="46.4677640" lon="6.1388080">
    <ele>1340.7</ele>
    <time>2021-09-05T11:56:14Z</time>
   </trkpt>
   <trkpt lat="46.4677720" lon="6.1394740">
    <ele>1345.0</ele>
    <time>2021-09-05T11:56:49Z</time>
   </trkpt>
   <trkpt lat="46.4677460" lon="6.1397420">
    <ele>1346.5</ele>
    <time>2021-09-05T11:57:02Z</time>
   </trkpt>
   <trkpt lat="46.4676830" lon="6.1400360">
    <ele>1348.6</ele>
    <time>2021-09-05T11:57:19Z</time>
   </trkpt>
   <trkpt lat="46.4676850" lon="6.1403000">
    <ele>1351.1</ele>
    <time>2021-09-05T11:57:37Z</time>
   </trkpt>
   <trkpt lat="46.4677180" lon="6.1405760">
    <ele>1353.7</ele>
    <time>2021-09-05T11:57:54Z</time>
   </trkpt>
   <trkpt lat="46.4676150" lon="6.1409700">
    <ele>1357.7</ele>
    <time>2021-09-05T11:58:24Z</time>
   </trkpt>
   <trkpt lat="46.4675560" lon="6.1410120">
    <ele>1358.6</ele>
    <time>2021-09-05T11:58:33Z</time>
   </trkpt>
   <trkpt lat="46.4675050" lon="6.1410600">
    <ele>1359.3</ele>
    <time>2021-09-05T11:58:42Z</time>
   </trkpt>
   <trkpt lat="46.4673640" lon="6.1411280">
    <ele>1361.2</ele>
    <time>2021-09-05T11:59:08Z</time>
   </trkpt>
   <trkpt lat="46.4672790" lon="6.1411480">
    <ele>1362.9</ele>
    <time>2021-09-05T11:59:25Z</time>
   </trkpt>
   <trkpt lat="46.4671710" lon="6.1410820">
    <ele>1364.8</ele>
    <time>2021-09-05T12:00:00Z</time>
   </trkpt>
   <trkpt lat="46.4670970" lon="6.1410640">
    <ele>1365.8</ele>
    <time>2021-09-05T12:00:26Z</time>
   </trkpt>
   <trkpt lat="46.4669450" lon="6.1411000">
    <ele>1367.7</ele>
    <time>2021-09-05T12:01:44Z</time>
   </trkpt>
   <trkpt lat="46.4666720" lon="6.1411440">
    <ele>1372.7</ele>
    <time>2021-09-05T12:04:16Z</time>
   </trkpt>
   <trkpt lat="46.4664860" lon="6.1412120">
    <ele>1376.7</ele>
    <time>2021-09-05T12:06:13Z</time>
   </trkpt>
   <trkpt lat="46.4661570" lon="6.1411740">
    <ele>1382.7</ele>
    <time>2021-09-05T12:09:38Z</time>
   </trkpt>
   <trkpt lat="46.4660560" lon="6.1412420">
    <ele>1384.5</ele>
    <time>2021-09-05T12:10:47Z</time>
   </trkpt>
   <trkpt lat="46.4660070" lon="6.1414740">
    <ele>1387.4</ele>
    <time>2021-09-05T12:12:31Z</time>
   </trkpt>
   <trkpt lat="46.4660660" lon="6.1419120">
    <ele>1393.4</ele>
    <time>2021-09-05T12:15:42Z</time>
   </trkpt>
   <trkpt lat="46.4660270" lon="6.1421340">
    <ele>1396.5</ele>
    <time>2021-09-05T12:17:18Z</time>
   </trkpt>
   <trkpt lat="46.4659710" lon="6.1422820">
    <ele>1398.5</ele>
    <time>2021-09-05T12:18:27Z</time>
   </trkpt>
   <trkpt lat="46.4660080" lon="6.1424960">
    <ele>1400.0</ele>
    <time>2021-09-05T12:20:03Z</time>
   </trkpt>
   <trkpt lat="46.4657190" lon="6.1435580">
    <ele>1397.2</ele>
    <time>2021-09-05T12:28:09Z</time>
   </trkpt>
   <trkpt lat="46.4657250" lon="6.1436600">
    <ele>1395.7</ele>
    <time>2021-09-05T12:28:35Z</time>
   </trkpt>
   <trkpt lat="46.4656830" lon="6.1439360">
    <ele>1391.3</ele>
    <time>2021-09-05T12:29:23Z</time>
   </trkpt>
   <trkpt lat="46.4656230" lon="6.1440460">
    <ele>1390.1</ele>
    <time>2021-09-05T12:29:40Z</time>
   </trkpt>
   <trkpt lat="46.4655180" lon="6.1444860">
    <ele>1387.0</ele>
    <time>2021-09-05T12:30:28Z</time>
   </trkpt>
   <trkpt lat="46.4654460" lon="6.1449420">
    <ele>1383.4</ele>
    <time>2021-09-05T12:31:03Z</time>
   </trkpt>
   <trkpt lat="46.4652940" lon="6.1450780">
    <ele>1381.8</ele>
    <time>2021-09-05T12:31:20Z</time>
   </trkpt>
   <trkpt lat="46.4650830" lon="6.1451360">
    <ele>1381.4</ele>
    <time>2021-09-05T12:31:42Z</time>
   </trkpt>
   <trkpt lat="46.4649780" lon="6.1451060">
    <ele>1381.4</ele>
    <time>2021-09-05T12:31:46Z</time>
   </trkpt>
   <trkpt lat="46.4648930" lon="6.1451160">
    <ele>1381.2</ele>
    <time>2021-09-05T12:31:55Z</time>
   </trkpt>
   <trkpt lat="46.4646160" lon="6.1452920">
    <ele>1378.6</ele>
    <time>2021-09-05T12:32:12Z</time>
   </trkpt>
   <trkpt lat="46.4645510" lon="6.1453520">
    <ele>1377.7</ele>
    <time>2021-09-05T12:32:17Z</time>
   </trkpt>
   <trkpt lat="46.4644720" lon="6.1453840">
    <ele>1376.6</ele>
    <time>2021-09-05T12:32:21Z</time>
   </trkpt>
   <trkpt lat="46.4644220" lon="6.1453840">
    <ele>1375.9</ele>
    <time>2021-09-05T12:32:25Z</time>
   </trkpt>
   <trkpt lat="46.4642760" lon="6.1452920">
    <ele>1373.4</ele>
    <time>2021-09-05T12:32:38Z</time>
   </trkpt>
   <trkpt lat="46.4641730" lon="6.1452760">
    <ele>1371.8</ele>
    <time>2021-09-05T12:32:43Z</time>
   </trkpt>
   <trkpt lat="46.4639960" lon="6.1453120">
    <ele>1369.2</ele>
    <time>2021-09-05T12:32:56Z</time>
   </trkpt>
   <trkpt lat="46.4637090" lon="6.1452980">
    <ele>1363.2</ele>
    <time>2021-09-05T12:33:13Z</time>
   </trkpt>
   <trkpt lat="46.4635020" lon="6.1453140">
    <ele>1359.3</ele>
    <time>2021-09-05T12:33:26Z</time>
   </trkpt>
   <trkpt lat="46.4631930" lon="6.1454060">
    <ele>1356.8</ele>
    <time>2021-09-05T12:33:44Z</time>
   </trkpt>
   <trkpt lat="46.4631140" lon="6.1454080">
    <ele>1356.5</ele>
    <time>2021-09-05T12:33:48Z</time>
   </trkpt>
   <trkpt lat="46.4630480" lon="6.1453860">
    <ele>1356.2</ele>
    <time>2021-09-05T12:33:52Z</time>
   </trkpt>
   <trkpt lat="46.4629230" lon="6.1453060">
    <ele>1355.4</ele>
    <time>2021-09-05T12:34:01Z</time>
   </trkpt>
   <trkpt lat="46.4624660" lon="6.1451120">
    <ele>1349.3</ele>
    <time>2021-09-05T12:34:27Z</time>
   </trkpt>
   <trkpt lat="46.4623560" lon="6.1449920">
    <ele>1346.5</ele>
    <time>2021-09-05T12:34:36Z</time>
   </trkpt>
   <trkpt lat="46.4622290" lon="6.1447380">
    <ele>1343.1</ele>
    <time>2021-09-05T12:34:49Z</time>
   </trkpt>
   <trkpt lat="46.4620080" lon="6.1445460">
    <ele>1341.8</ele>
    <time>2021-09-05T12:35:02Z</time>
   </trkpt>
   <trkpt lat="46.4619060" lon="6.1444120">
    <ele>1341.7</ele>
    <time>2021-09-05T12:35:10Z</time>
   </trkpt>
   <trkpt lat="46.4618420" lon="6.1442340">
    <ele>1341.0</ele>
    <time>2021-09-05T12:35:19Z</time>
   </trkpt>
   <trkpt lat="46.4617950" lon="6.1439600">
    <ele>1339.2</ele>
    <time>2021-09-05T12:35:32Z</time>
   </trkpt>
   <trkpt lat="46.4616640" lon="6.1436080">
    <ele>1337.7</ele>
    <time>2021-09-05T12:35:45Z</time>
   </trkpt>
   <trkpt lat="46.4616310" lon="6.1435720">
    <ele>1337.6</ele>
    <time>2021-09-05T12:35:50Z</time>
   </trkpt>
   <trkpt lat="46.4615960" lon="6.1435720">
    <ele>1337.4</ele>
    <time>2021-09-05T12:35:54Z</time>
   </trkpt>
   <trkpt lat="46.4615430" lon="6.1436460">
    <ele>1337.1</ele>
    <time>2021-09-05T12:35:58Z</time>
   </trkpt>
   <trkpt lat="46.4614980" lon="6.1443660">
    <ele>1334.3</ele>
    <time>2021-09-05T12:36:33Z</time>
   </trkpt>
   <trkpt lat="46.4614530" lon="6.1446260">
    <ele>1332.5</ele>
    <time>2021-09-05T12:36:42Z</time>
   </trkpt>
   <trkpt lat="46.4614550" lon="6.1447500">
    <ele>1331.8</ele>
    <time>2021-09-05T12:36:50Z</time>
   </trkpt>
   <trkpt lat="46.4616310" lon="6.1457920">
    <ele>1325.7</ele>
    <time>2021-09-05T12:37:38Z</time>
   </trkpt>
   <trkpt lat="46.4616920" lon="6.1463040">
    <ele>1321.8</ele>
    <time>2021-09-05T12:38:00Z</time>
   </trkpt>
   <trkpt lat="46.4618290" lon="6.1468180">
    <ele>1319.5</ele>
    <time>2021-09-05T12:38:22Z</time>
   </trkpt>
   <trkpt lat="46.4612750" lon="6.1459700">
    <ele>1316.3</ele>
    <time>2021-09-05T12:39:14Z</time>
   </trkpt>
   <trkpt lat="46.4611910" lon="6.1457520">
    <ele>1315.1</ele>
    <time>2021-09-05T12:39:27Z</time>
   </trkpt>
   <trkpt lat="46.4610940" lon="6.1452980">
    <ele>1312.3</ele>
    <time>2021-09-05T12:39:48Z</time>
   </trkpt>
   <trkpt lat="46.4608810" lon="6.1447420">
    <ele>1308.7</ele>
    <time>2021-09-05T12:40:14Z</time>
   </trkpt>
   <trkpt lat="46.4607430" lon="6.1442960">
    <ele>1306.0</ele>
    <time>2021-09-05T12:40:36Z</time>
   </trkpt>
   <trkpt lat="46.4606140" lon="6.1441180">
    <ele>1304.6</ele>
    <time>2021-09-05T12:40:45Z</time>
   </trkpt>
   <trkpt lat="46.4604910" lon="6.1440120">
    <ele>1303.4</ele>
    <time>2021-09-05T12:40:54Z</time>
   </trkpt>
   <trkpt lat="46.4602950" lon="6.1437200">
    <ele>1300.8</ele>
    <time>2021-09-05T12:41:11Z</time>
   </trkpt>
   <trkpt lat="46.4602570" lon="6.1436240">
    <ele>1300.1</ele>
    <time>2021-09-05T12:41:15Z</time>
   </trkpt>
   <trkpt lat="46.4600640" lon="6.1428580">
    <ele>1295.5</ele>
    <time>2021-09-05T12:41:50Z</time>
   </trkpt>
   <trkpt lat="46.4599920" lon="6.1424340">
    <ele>1293.0</ele>
    <time>2021-09-05T12:42:07Z</time>
   </trkpt>
   <trkpt lat="46.4599490" lon="6.1422580">
    <ele>1292.0</ele>
    <time>2021-09-05T12:42:16Z</time>
   </trkpt>
   <trkpt lat="46.4596950" lon="6.1417400">
    <ele>1288.3</ele>
    <time>2021-09-05T12:42:42Z</time>
   </trkpt>
   <trkpt lat="46.4595340" lon="6.1412880">
    <ele>1285.1</ele>
    <time>2021-09-05T12:43:04Z</time>
   </trkpt>
   <trkpt lat="46.4595230" lon="6.1412760">
    <ele>1285.0</ele>
    <time>2021-09-05T12:43:08Z</time>
   </trkpt>
   <trkpt lat="46.4593080" lon="6.1406260">
    <ele>1280.5</ele>
    <time>2021-09-05T12:43:39Z</time>
   </trkpt>
   <trkpt lat="46.4590790" lon="6.1401880">
    <ele>1277.1</ele>
    <time>2021-09-05T12:44:00Z</time>
   </trkpt>
   <trkpt lat="46.4589610" lon="6.1397720">
    <ele>1274.2</ele>
    <time>2021-09-05T12:44:22Z</time>
   </trkpt>
   <trkpt lat="46.4587860" lon="6.1395320">
    <ele>1272.2</ele>
    <time>2021-09-05T12:44:35Z</time>
   </trkpt>
   <trkpt lat="46.4584790" lon="6.1389580">
    <ele>1267.9</ele>
    <time>2021-09-05T12:45:05Z</time>
   </trkpt>
   <trkpt lat="46.4582790" lon="6.1387280">
    <ele>1265.9</ele>
    <time>2021-09-05T12:45:23Z</time>
   </trkpt>
   <trkpt lat="46.4582320" lon="6.1384940">
    <ele>1266.2</ele>
    <time>2021-09-05T12:45:31Z</time>
   </trkpt>
   <trkpt lat="46.4581280" lon="6.1382760">
    <ele>1267.1</ele>
    <time>2021-09-05T12:45:45Z</time>
   </trkpt>
   <trkpt lat="46.4580960" lon="6.1381720">
    <ele>1267.5</ele>
    <time>2021-09-05T12:45:49Z</time>
   </trkpt>
   <trkpt lat="46.4580690" lon="6.1375080">
    <ele>1270.6</ele>
    <time>2021-09-05T12:46:19Z</time>
   </trkpt>
   <trkpt lat="46.4580950" lon="6.1372000">
    <ele>1272.2</ele>
    <time>2021-09-05T12:46:32Z</time>
   </trkpt>
   <trkpt lat="46.4582390" lon="6.1365780">
    <ele>1275.6</ele>
    <time>2021-09-05T12:47:03Z</time>
   </trkpt>
   <trkpt lat="46.4582880" lon="6.1364260">
    <ele>1276.5</ele>
    <time>2021-09-05T12:47:11Z</time>
   </trkpt>
   <trkpt lat="46.4585030" lon="6.1359760">
    <ele>1279.2</ele>
    <time>2021-09-05T12:47:42Z</time>
   </trkpt>
   <trkpt lat="46.4587180" lon="6.1358160">
    <ele>1280.4</ele>
    <time>2021-09-05T12:47:59Z</time>
   </trkpt>
   <trkpt lat="46.4588220" lon="6.1356940">
    <ele>1281.0</ele>
    <time>2021-09-05T12:48:12Z</time>
   </trkpt>
   <trkpt lat="46.4590730" lon="6.1353060">
    <ele>1282.7</ele>
    <time>2021-09-05T12:48:43Z</time>
   </trkpt>
   <trkpt lat="46.4591780" lon="6.1352060">
    <ele>1283.2</ele>
    <time>2021-09-05T12:48:56Z</time>
   </trkpt>
   <trkpt lat="46.4598830" lon="6.1347560">
    <ele>1285.2</ele>
    <time>2021-09-05T12:50:01Z</time>
   </trkpt>
   <trkpt lat="46.4600060" lon="6.1346120">
    <ele>1285.4</ele>
    <time>2021-09-05T12:50:14Z</time>
   </trkpt>
   <trkpt lat="46.4604230" lon="6.1337760">
    <ele>1286.8</ele>
    <time>2021-09-05T12:51:19Z</time>
   </trkpt>
   <trkpt lat="46.4604590" lon="6.1336780">
    <ele>1287.0</ele>
    <time>2021-09-05T12:51:23Z</time>
   </trkpt>
   <trkpt lat="46.4604320" lon="6.1333640">
    <ele>1287.4</ele>
    <time>2021-09-05T12:51:41Z</time>
   </trkpt>
   <trkpt lat="46.4603110" lon="6.1322520">
    <ele>1288.9</ele>
    <time>2021-09-05T12:52:37Z</time>
   </trkpt>
   <trkpt lat="46.4603530" lon="6.1320960">
    <ele>1289.1</ele>
    <time>2021-09-05T12:52:46Z</time>
   </trkpt>
   <trkpt lat="46.4605170" lon="6.1318740">
    <ele>1289.5</ele>
    <time>2021-09-05T12:53:03Z</time>
   </trkpt>
   <trkpt lat="46.4605710" lon="6.1316420">
    <ele>1289.8</ele>
    <time>2021-09-05T12:53:16Z</time>
   </trkpt>
   <trkpt lat="46.4605640" lon="6.1314880">
    <ele>1290.0</ele>
    <time>2021-09-05T12:53:21Z</time>
   </trkpt>
   <trkpt lat="46.4605020" lon="6.1313340">
    <ele>1290.2</ele>
    <time>2021-09-05T12:53:29Z</time>
   </trkpt>
   <trkpt lat="46.4603010" lon="6.1309820">
    <ele>1290.6</ele>
    <time>2021-09-05T12:53:47Z</time>
   </trkpt>
   <trkpt lat="46.4602450" lon="6.1309200">
    <ele>1290.7</ele>
    <time>2021-09-05T12:53:51Z</time>
   </trkpt>
   <trkpt lat="46.4601270" lon="6.1308640">
    <ele>1290.9</ele>
    <time>2021-09-05T12:54:00Z</time>
   </trkpt>
   <trkpt lat="46.4598510" lon="6.1308420">
    <ele>1291.5</ele>
    <time>2021-09-05T12:54:17Z</time>
   </trkpt>
   <trkpt lat="46.4597880" lon="6.1308160">
    <ele>1291.6</ele>
    <time>2021-09-05T12:54:21Z</time>
   </trkpt>
   <trkpt lat="46.4597160" lon="6.1307320">
    <ele>1291.8</ele>
    <time>2021-09-05T12:54:30Z</time>
   </trkpt>
   <trkpt lat="46.4593190" lon="6.1300280">
    <ele>1292.7</ele>
    <time>2021-09-05T12:55:09Z</time>
   </trkpt>
   <trkpt lat="46.4590090" lon="6.1295780">
    <ele>1293.4</ele>
    <time>2021-09-05T12:55:35Z</time>
   </trkpt>
   <trkpt lat="46.4589040" lon="6.1293680">
    <ele>1293.7</ele>
    <time>2021-09-05T12:55:48Z</time>
   </trkpt>
   <trkpt lat="46.4588120" lon="6.1290940">
    <ele>1294.1</ele>
    <time>2021-09-05T12:56:01Z</time>
   </trkpt>
   <trkpt lat="46.4587860" lon="6.1288620">
    <ele>1294.3</ele>
    <time>2021-09-05T12:56:10Z</time>
   </trkpt>
   <trkpt lat="46.4587720" lon="6.1283040">
    <ele>1294.8</ele>
    <time>2021-09-05T12:56:36Z</time>
   </trkpt>
   <trkpt lat="46.4586850" lon="6.1280800">
    <ele>1295.1</ele>
    <time>2021-09-05T12:56:45Z</time>
   </trkpt>
   <trkpt lat="46.4585710" lon="6.1279620">
    <ele>1295.3</ele>
    <time>2021-09-05T12:56:53Z</time>
   </trkpt>
   <trkpt lat="46.4584950" lon="6.1279100">
    <ele>1295.4</ele>
    <time>2021-09-05T12:57:02Z</time>
   </trkpt>
   <trkpt lat="46.4581640" lon="6.1278080">
    <ele>1296.7</ele>
    <time>2021-09-05T12:57:19Z</time>
   </trkpt>
   <trkpt lat="46.4578620" lon="6.1278240">
    <ele>1297.4</ele>
    <time>2021-09-05T12:57:41Z</time>
   </trkpt>
   <trkpt lat="46.4577760" lon="6.1277820">
    <ele>1297.3</ele>
    <time>2021-09-05T12:57:45Z</time>
   </trkpt>
   <trkpt lat="46.4572460" lon="6.1269220">
    <ele>1294.7</ele>
    <time>2021-09-05T12:58:38Z</time>
   </trkpt>
   <trkpt lat="46.4567170" lon="6.1260740">
    <ele>1292.6</ele>
    <time>2021-09-05T12:59:30Z</time>
   </trkpt>
   <trkpt lat="46.4561880" lon="6.1252260">
    <ele>1290.0</ele>
    <time>2021-09-05T13:00:22Z</time>
   </trkpt>
   <trkpt lat="46.4560970" lon="6.1249940">
    <ele>1289.5</ele>
    <time>2021-09-05T13:00:35Z</time>
   </trkpt>
   <trkpt lat="46.4560410" lon="6.1247920">
    <ele>1289.1</ele>
    <time>2021-09-05T13:00:48Z</time>
   </trkpt>
   <trkpt lat="46.4560050" lon="6.1244200">
    <ele>1288.3</ele>
    <time>2021-09-05T13:01:05Z</time>
   </trkpt>
   <trkpt lat="46.4560450" lon="6.1234300">
    <ele>1286.2</ele>
    <time>2021-09-05T13:01:53Z</time>
   </trkpt>
   <trkpt lat="46.4560920" lon="6.1224440">
    <ele>1282.5</ele>
    <time>2021-09-05T13:02:41Z</time>
   </trkpt>
   <trkpt lat="46.4561230" lon="6.1222260">
    <ele>1281.3</ele>
    <time>2021-09-05T13:02:54Z</time>
   </trkpt>
   <trkpt lat="46.4563140" lon="6.1215180">
    <ele>1277.0</ele>
    <time>2021-09-05T13:03:28Z</time>
   </trkpt>
   <trkpt lat="46.4564720" lon="6.1211640">
    <ele>1274.7</ele>
    <time>2021-09-05T13:03:50Z</time>
   </trkpt>
   <trkpt lat="46.4564840" lon="6.1210780">
    <ele>1274.3</ele>
    <time>2021-09-05T13:03:55Z</time>
   </trkpt>
   <trkpt lat="46.4564680" lon="6.1209160">
    <ele>1273.7</ele>
    <time>2021-09-05T13:04:03Z</time>
   </trkpt>
   <trkpt lat="46.4562890" lon="6.1206480">
    <ele>1272.5</ele>
    <time>2021-09-05T13:04:21Z</time>
   </trkpt>
   <trkpt lat="46.4561740" lon="6.1203480">
    <ele>1271.5</ele>
    <time>2021-09-05T13:04:34Z</time>
   </trkpt>
   <trkpt lat="46.4561420" lon="6.1200840">
    <ele>1270.8</ele>
    <time>2021-09-05T13:04:47Z</time>
   </trkpt>
   <trkpt lat="46.4561940" lon="6.1198280">
    <ele>1270.0</ele>
    <time>2021-09-05T13:04:55Z</time>
   </trkpt>
   <trkpt lat="46.4563330" lon="6.1195160">
    <ele>1268.6</ele>
    <time>2021-09-05T13:05:13Z</time>
   </trkpt>
   <trkpt lat="46.4563490" lon="6.1192480">
    <ele>1267.6</ele>
    <time>2021-09-05T13:05:26Z</time>
   </trkpt>
   <trkpt lat="46.4560810" lon="6.1185120">
    <ele>1263.5</ele>
    <time>2021-09-05T13:06:00Z</time>
   </trkpt>
   <trkpt lat="46.4560540" lon="6.1183580">
    <ele>1262.7</ele>
    <time>2021-09-05T13:06:09Z</time>
   </trkpt>
   <trkpt lat="46.4560590" lon="6.1182480">
    <ele>1262.2</ele>
    <time>2021-09-05T13:06:14Z</time>
   </trkpt>
   <trkpt lat="46.4562260" lon="6.1175120">
    <ele>1258.0</ele>
    <time>2021-09-05T13:06:48Z</time>
   </trkpt>
   <trkpt lat="46.4563960" lon="6.1171320">
    <ele>1255.7</ele>
    <time>2021-09-05T13:07:10Z</time>
   </trkpt>
   <trkpt lat="46.4566620" lon="6.1167640">
    <ele>1252.9</ele>
    <time>2021-09-05T13:07:32Z</time>
   </trkpt>
   <trkpt lat="46.4567760" lon="6.1165720">
    <ele>1251.4</ele>
    <time>2021-09-05T13:07:45Z</time>
   </trkpt>
   <trkpt lat="46.4568360" lon="6.1164520">
    <ele>1250.6</ele>
    <time>2021-09-05T13:07:49Z</time>
   </trkpt>
   <trkpt lat="46.4568780" lon="6.1162960">
    <ele>1249.7</ele>
    <time>2021-09-05T13:07:58Z</time>
   </trkpt>
   <trkpt lat="46.4569270" lon="6.1158940">
    <ele>1247.3</ele>
    <time>2021-09-05T13:08:15Z</time>
   </trkpt>
   <trkpt lat="46.4569140" lon="6.1156480">
    <ele>1245.9</ele>
    <time>2021-09-05T13:08:24Z</time>
   </trkpt>
   <trkpt lat="46.4567860" lon="6.1147220">
    <ele>1241.6</ele>
    <time>2021-09-05T13:09:07Z</time>
   </trkpt>
   <trkpt lat="46.4567610" lon="6.1143020">
    <ele>1239.9</ele>
    <time>2021-09-05T13:09:25Z</time>
   </trkpt>
   <trkpt lat="46.4568120" lon="6.1137740">
    <ele>1238.2</ele>
    <time>2021-09-05T13:09:46Z</time>
   </trkpt>
   <trkpt lat="46.4568120" lon="6.1136340">
    <ele>1237.8</ele>
    <time>2021-09-05T13:09:51Z</time>
   </trkpt>
   <trkpt lat="46.4567770" lon="6.1134340">
    <ele>1237.2</ele>
    <time>2021-09-05T13:09:59Z</time>
   </trkpt>
   <trkpt lat="46.4567110" lon="6.1132920">
    <ele>1236.7</ele>
    <time>2021-09-05T13:10:08Z</time>
   </trkpt>
   <trkpt lat="46.4566440" lon="6.1131680">
    <ele>1236.3</ele>
    <time>2021-09-05T13:10:17Z</time>
   </trkpt>
   <trkpt lat="46.4564780" lon="6.1129560">
    <ele>1235.4</ele>
    <time>2021-09-05T13:10:30Z</time>
   </trkpt>
   <trkpt lat="46.4562740" lon="6.1128180">
    <ele>1234.5</ele>
    <time>2021-09-05T13:10:43Z</time>
   </trkpt>
   <trkpt lat="46.4558170" lon="6.1125940">
    <ele>1231.9</ele>
    <time>2021-09-05T13:11:13Z</time>
   </trkpt>
   <trkpt lat="46.4557030" lon="6.1124860">
    <ele>1231.1</ele>
    <time>2021-09-05T13:11:22Z</time>
   </trkpt>
   <trkpt lat="46.4556670" lon="6.1124240">
    <ele>1230.7</ele>
    <time>2021-09-05T13:11:26Z</time>
   </trkpt>
   <trkpt lat="46.4556020" lon="6.1122040">
    <ele>1229.8</ele>
    <time>2021-09-05T13:11:39Z</time>
   </trkpt>
   <trkpt lat="46.4554850" lon="6.1113800">
    <ele>1227.2</ele>
    <time>2021-09-05T13:12:14Z</time>
   </trkpt>
   <trkpt lat="46.4553780" lon="6.1105760">
    <ele>1224.6</ele>
    <time>2021-09-05T13:12:53Z</time>
   </trkpt>
   <trkpt lat="46.4553150" lon="6.1104400">
    <ele>1223.8</ele>
    <time>2021-09-05T13:13:02Z</time>
   </trkpt>
   <trkpt lat="46.4552550" lon="6.1103700">
    <ele>1223.3</ele>
    <time>2021-09-05T13:13:06Z</time>
   </trkpt>
   <trkpt lat="46.4551730" lon="6.1103360">
    <ele>1222.7</ele>
    <time>2021-09-05T13:13:10Z</time>
   </trkpt>
   <trkpt lat="46.4551050" lon="6.1103300">
    <ele>1222.2</ele>
    <time>2021-09-05T13:13:15Z</time>
   </trkpt>
   <trkpt lat="46.4550040" lon="6.1104580">
    <ele>1221.1</ele>
    <time>2021-09-05T13:13:23Z</time>
   </trkpt>
   <trkpt lat="46.4549010" lon="6.1107620">
    <ele>1219.1</ele>
    <time>2021-09-05T13:13:36Z</time>
   </trkpt>
   <trkpt lat="46.4548140" lon="6.1113580">
    <ele>1215.7</ele>
    <time>2021-09-05T13:14:07Z</time>
   </trkpt>
   <trkpt lat="46.4546480" lon="6.1118560">
    <ele>1213.3</ele>
    <time>2021-09-05T13:14:29Z</time>
   </trkpt>
   <trkpt lat="46.4545730" lon="6.1121160">
    <ele>1211.8</ele>
    <time>2021-09-05T13:14:42Z</time>
   </trkpt>
   <trkpt lat="46.4545380" lon="6.1122460">
    <ele>1211.4</ele>
    <time>2021-09-05T13:14:46Z</time>
   </trkpt>
   <trkpt lat="46.4544880" lon="6.1122860">
    <ele>1211.2</ele>
    <time>2021-09-05T13:14:50Z</time>
   </trkpt>
   <trkpt lat="46.4544640" lon="6.1122880">
    <ele>1211.0</ele>
    <time>2021-09-05T13:14:55Z</time>
   </trkpt>
   <trkpt lat="46.4544680" lon="6.1119660">
    <ele>1210.4</ele>
    <time>2021-09-05T13:15:12Z</time>
   </trkpt>
  </trkseg>
 </trk>
</gpx>
