<gpx version="1.1" creator="Trainlog.me"><trk><name>Trip Path</name><trkseg><trkpt lat="47.04895" lon="8.54963" /><trkpt lat="47.04882" lon="8.55247" /><trkpt lat="47.0488" lon="8.55291" /><trkpt lat="47.04875" lon="8.554" /><trkpt lat="47.04874" lon="8.55437" /><trkpt lat="47.0487" lon="8.55513" /><trkpt lat="47.04869" lon="8.55546" /><trkpt lat="47.04868" lon="8.55557" /><trkpt lat="47.04865" lon="8.55634" /><trkpt lat="47.04864" lon="8.55645" /><trkpt lat="47.04864" lon="8.55645" /><trkpt lat="47.04858" lon="8.55776" /><trkpt lat="47.04857" lon="8.55811" /><trkpt lat="47.04854" lon="8.55872" /><trkpt lat="47.04851" lon="8.55927" /><trkpt lat="47.0485" lon="8.55951" /><trkpt lat="47.0485" lon="8.55977" /><trkpt lat="47.0485" lon="8.56009" /><trkpt lat="47.0485" lon="8.56026" /><trkpt lat="47.04851" lon="8.56048" /><trkpt lat="47.04851" lon="8.56061" /><trkpt lat="47.04853" lon="8.56078" /><trkpt lat="47.04855" lon="8.56099" /><trkpt lat="47.04857" lon="8.56115" /><trkpt lat="47.04859" lon="8.5613" /><trkpt lat="47.04861" lon="8.56146" /><trkpt lat="47.04862" lon="8.5615" /><trkpt lat="47.04866" lon="8.56171" /><trkpt lat="47.04867" lon="8.56179" /><trkpt lat="47.04875" lon="8.56212" /><trkpt lat="47.04884" lon="8.56247" /><trkpt lat="47.04893" lon="8.56276" /><trkpt lat="47.04904" lon="8.56307" /><trkpt lat="47.04916" lon="8.56337" /><trkpt lat="47.04928" lon="8.56366" /><trkpt lat="47.04942" lon="8.56393" /><trkpt lat="47.04962" lon="8.56426" /><trkpt lat="47.04981" lon="8.56457" /><trkpt lat="47.0499" lon="8.5647" /><trkpt lat="47.05019" lon="8.56508" /><trkpt lat="47.05127" lon="8.56654" /><trkpt lat="47.05137" lon="8.56669" /><trkpt lat="47.05146" lon="8.56681" /><trkpt lat="47.05154" lon="8.56694" /><trkpt lat="47.05161" lon="8.56707" /><trkpt lat="47.0517" lon="8.56722" /><trkpt lat="47.05174" lon="8.5673" /><trkpt lat="47.05178" lon="8.56738" /><trkpt lat="47.05183" lon="8.5675" /><trkpt lat="47.05188" lon="8.56762" /><trkpt lat="47.05192" lon="8.56775" /><trkpt lat="47.05196" lon="8.56787" /><trkpt lat="47.05202" lon="8.56804" /><trkpt lat="47.05205" lon="8.56815" /><trkpt lat="47.05207" lon="8.56825" /><trkpt lat="47.05211" lon="8.56842" /><trkpt lat="47.05213" lon="8.56853" /><trkpt lat="47.05215" lon="8.56865" /><trkpt lat="47.05217" lon="8.56876" /><trkpt lat="47.05219" lon="8.56892" /><trkpt lat="47.0522" lon="8.56905" /><trkpt lat="47.05221" lon="8.56919" /><trkpt lat="47.05222" lon="8.56933" /><trkpt lat="47.05222" lon="8.56945" /><trkpt lat="47.05222" lon="8.5696" /><trkpt lat="47.05222" lon="8.56971" /><trkpt lat="47.05221" lon="8.56988" /><trkpt lat="47.0522" lon="8.57002" /><trkpt lat="47.05219" lon="8.57016" /><trkpt lat="47.05205" lon="8.57219" /><trkpt lat="47.05199" lon="8.57277" /><trkpt lat="47.05192" lon="8.57318" /><trkpt lat="47.05182" lon="8.57356" /><trkpt lat="47.05173" lon="8.57386" /><trkpt lat="47.0516" lon="8.57415" /><trkpt lat="47.05153" lon="8.5743" /><trkpt lat="47.05139" lon="8.57456" /><trkpt lat="47.0512" lon="8.57484" /><trkpt lat="47.05096" lon="8.57515" /><trkpt lat="47.05075" lon="8.57535" /><trkpt lat="47.0506" lon="8.57547" /><trkpt lat="47.05038" lon="8.57563" /><trkpt lat="47.04956" lon="8.57616" /><trkpt lat="47.04877" lon="8.57669" /><trkpt lat="47.04849" lon="8.5769" /><trkpt lat="47.04824" lon="8.57713" /><trkpt lat="47.04802" lon="8.5774" /><trkpt lat="47.04783" lon="8.57769" /><trkpt lat="47.04764" lon="8.57801" /><trkpt lat="47.04746" lon="8.57838" /><trkpt lat="47.04728" lon="8.57883" /><trkpt lat="47.04716" lon="8.57924" /><trkpt lat="47.04705" lon="8.57972" /><trkpt lat="47.04698" lon="8.58019" /><trkpt lat="47.04695" lon="8.58066" /><trkpt lat="47.04695" lon="8.58119" /><trkpt lat="47.04699" lon="8.58162" /><trkpt lat="47.04704" lon="8.58202" /><trkpt lat="47.04714" lon="8.58248" /><trkpt lat="47.04728" lon="8.58294" /><trkpt lat="47.04753" lon="8.58358" /><trkpt lat="47.04808" lon="8.58493" /><trkpt lat="47.0483" lon="8.5855" /><trkpt lat="47.04844" lon="8.5859" /><trkpt lat="47.04857" lon="8.58642" /><trkpt lat="47.04864" lon="8.58684" /><trkpt lat="47.04893" lon="8.5887" /><trkpt lat="47.04902" lon="8.58934" /><trkpt lat="47.04906" lon="8.58989" /><trkpt lat="47.04906" lon="8.59041" /><trkpt lat="47.04904" lon="8.59085" /><trkpt lat="47.0489" lon="8.59205" /><trkpt lat="47.04888" lon="8.59228" /><trkpt lat="47.04886" lon="8.59245" /><trkpt lat="47.04885" lon="8.59263" /><trkpt lat="47.04884" lon="8.59279" /><trkpt lat="47.04884" lon="8.59291" /><trkpt lat="47.04884" lon="8.59304" /><trkpt lat="47.04884" lon="8.59318" /><trkpt lat="47.04884" lon="8.59329" /><trkpt lat="47.04885" lon="8.59341" /><trkpt lat="47.04886" lon="8.59351" /><trkpt lat="47.04887" lon="8.59362" /><trkpt lat="47.04888" lon="8.59373" /><trkpt lat="47.0489" lon="8.59385" /><trkpt lat="47.04892" lon="8.59399" /><trkpt lat="47.04895" lon="8.59415" /><trkpt lat="47.04899" lon="8.59433" /><trkpt lat="47.04903" lon="8.59445" /><trkpt lat="47.04907" lon="8.59459" /><trkpt lat="47.0491" lon="8.59469" /><trkpt lat="47.04914" lon="8.59482" /><trkpt lat="47.0492" lon="8.59497" /><trkpt lat="47.04925" lon="8.59508" /><trkpt lat="47.04931" lon="8.59522" /><trkpt lat="47.04942" lon="8.59545" /><trkpt lat="47.04963" lon="8.59585" /><trkpt lat="47.04973" lon="8.59606" /><trkpt lat="47.04982" lon="8.59624" /><trkpt lat="47.0499" lon="8.59641" /><trkpt lat="47.04998" lon="8.59659" /><trkpt lat="47.05005" lon="8.59676" /><trkpt lat="47.05011" lon="8.59696" /><trkpt lat="47.05016" lon="8.59712" /><trkpt lat="47.0502" lon="8.59726" /><trkpt lat="47.05024" lon="8.59744" /><trkpt lat="47.05027" lon="8.59759" /><trkpt lat="47.05029" lon="8.59774" /><trkpt lat="47.05032" lon="8.59799" /><trkpt lat="47.05035" lon="8.59826" /><trkpt lat="47.05041" lon="8.59889" /><trkpt lat="47.05058" lon="8.60101" /><trkpt lat="47.05059" lon="8.60113" /><trkpt lat="47.05059" lon="8.60126" /><trkpt lat="47.0506" lon="8.60141" /><trkpt lat="47.05061" lon="8.60157" /><trkpt lat="47.05061" lon="8.60171" /><trkpt lat="47.05061" lon="8.60185" /><trkpt lat="47.05061" lon="8.60202" /><trkpt lat="47.0506" lon="8.60217" /><trkpt lat="47.05059" lon="8.60232" /><trkpt lat="47.05058" lon="8.60245" /><trkpt lat="47.05055" lon="8.60264" /><trkpt lat="47.05052" lon="8.60284" /><trkpt lat="47.05049" lon="8.60299" /><trkpt lat="47.05045" lon="8.60315" /><trkpt lat="47.05041" lon="8.60329" /><trkpt lat="47.05037" lon="8.60343" /><trkpt lat="47.05032" lon="8.60357" /><trkpt lat="47.05026" lon="8.60374" /><trkpt lat="47.05019" lon="8.60391" /><trkpt lat="47.05012" lon="8.60406" /><trkpt lat="47.05003" lon="8.60422" /><trkpt lat="47.04995" lon="8.60437" /><trkpt lat="47.04986" lon="8.60451" /><trkpt lat="47.04978" lon="8.60462" /><trkpt lat="47.04968" lon="8.60476" /><trkpt lat="47.04951" lon="8.605" /><trkpt lat="47.04887" lon="8.6058" /><trkpt lat="47.04867" lon="8.60605" /><trkpt lat="47.04848" lon="8.6063" /><trkpt lat="47.04832" lon="8.60649" /><trkpt lat="47.04824" lon="8.60659" /><trkpt lat="47.04787" lon="8.60706" /><trkpt lat="47.0475" lon="8.60752" /><trkpt lat="47.04722" lon="8.60785" /><trkpt lat="47.04695" lon="8.60818" /><trkpt lat="47.04656" lon="8.60864" /><trkpt lat="47.04621" lon="8.60907" /><trkpt lat="47.04589" lon="8.60947" /><trkpt lat="47.0458" lon="8.60959" /><trkpt lat="47.04565" lon="8.60978" /><trkpt lat="47.04443" lon="8.61132" /><trkpt lat="47.04435" lon="8.61141" /><trkpt lat="47.03947" lon="8.61757" /><trkpt lat="47.03722" lon="8.6204" /><trkpt lat="47.03714" lon="8.62049" /><trkpt lat="47.03686" lon="8.62082" /><trkpt lat="47.0365" lon="8.6212" /><trkpt lat="47.03618" lon="8.62149" /><trkpt lat="47.03578" lon="8.62182" /><trkpt lat="47.0354" lon="8.6221" /><trkpt lat="47.03501" lon="8.62233" /><trkpt lat="47.03424" lon="8.62271" /><trkpt lat="47.03411" lon="8.62277" /><trkpt lat="47.03324" lon="8.62316" /><trkpt lat="47.033" lon="8.62328" /><trkpt lat="47.03259" lon="8.62349" /><trkpt lat="47.03225" lon="8.62371" /><trkpt lat="47.03197" lon="8.62395" /><trkpt lat="47.03164" lon="8.62428" /><trkpt lat="47.03126" lon="8.62474" /><trkpt lat="47.03097" lon="8.62518" /><trkpt lat="47.03079" lon="8.62553" /><trkpt lat="47.03075" lon="8.6256" /><trkpt lat="47.03059" lon="8.62594" /><trkpt lat="47.03051" lon="8.62613" /><trkpt lat="47.03044" lon="8.62631" /><trkpt lat="47.03037" lon="8.62651" /><trkpt lat="47.03031" lon="8.62669" /><trkpt lat="47.03026" lon="8.62685" /><trkpt lat="47.03009" lon="8.62739" /><trkpt lat="47.0299" lon="8.62797" /><trkpt lat="47.02983" lon="8.62816" /><trkpt lat="47.02977" lon="8.62832" /><trkpt lat="47.02971" lon="8.62847" /><trkpt lat="47.02965" lon="8.62861" /><trkpt lat="47.02957" lon="8.62877" /><trkpt lat="47.02949" lon="8.62893" /><trkpt lat="47.0294" lon="8.62911" /><trkpt lat="47.02932" lon="8.62925" /><trkpt lat="47.02928" lon="8.62932" /><trkpt lat="47.02918" lon="8.62948" /><trkpt lat="47.0291" lon="8.62961" /><trkpt lat="47.02891" lon="8.62987" /><trkpt lat="47.02881" lon="8.63" /><trkpt lat="47.02871" lon="8.63011" /><trkpt lat="47.02861" lon="8.63023" /><trkpt lat="47.0285" lon="8.63035" /><trkpt lat="47.02832" lon="8.63054" /><trkpt lat="47.0281" lon="8.63077" /><trkpt lat="47.02788" lon="8.63099" /><trkpt lat="47.02775" lon="8.63112" /><trkpt lat="47.02761" lon="8.63124" /><trkpt lat="47.02749" lon="8.63134" /><trkpt lat="47.02721" lon="8.63155" /><trkpt lat="47.02705" lon="8.63167" /><trkpt lat="47.02683" lon="8.63181" /><trkpt lat="47.02651" lon="8.63198" /><trkpt lat="47.02626" lon="8.6321" /><trkpt lat="47.02605" lon="8.63218" /><trkpt lat="47.02582" lon="8.63226" /><trkpt lat="47.02563" lon="8.63231" /><trkpt lat="47.02545" lon="8.63235" /><trkpt lat="47.02521" lon="8.6324" /><trkpt lat="47.02503" lon="8.63242" /><trkpt lat="47.02483" lon="8.63244" /><trkpt lat="47.02462" lon="8.63244" /><trkpt lat="47.02442" lon="8.63243" /><trkpt lat="47.02423" lon="8.63242" /><trkpt lat="47.02399" lon="8.63239" /><trkpt lat="47.02375" lon="8.63234" /><trkpt lat="47.02363" lon="8.63232" /><trkpt lat="47.0235" lon="8.63228" /><trkpt lat="47.02335" lon="8.63223" /><trkpt lat="47.02297" lon="8.63209" /><trkpt lat="47.02251" lon="8.63187" /><trkpt lat="47.02224" lon="8.6317" /><trkpt lat="47.02209" lon="8.6316" /><trkpt lat="47.02185" lon="8.63142" /><trkpt lat="47.02168" lon="8.63129" /><trkpt lat="47.02136" lon="8.63102" /><trkpt lat="47.01988" lon="8.62983" /><trkpt lat="47.01968" lon="8.62968" /><trkpt lat="47.01944" lon="8.62949" /><trkpt lat="47.01921" lon="8.62931" /><trkpt lat="47.01888" lon="8.62906" /><trkpt lat="47.01871" lon="8.62893" /><trkpt lat="47.01854" lon="8.6288" /><trkpt lat="47.01796" lon="8.62835" /><trkpt lat="47.01764" lon="8.62809" /><trkpt lat="47.01725" lon="8.62777" /><trkpt lat="47.01686" lon="8.62744" /><trkpt lat="47.01654" lon="8.62716" /><trkpt lat="47.01648" lon="8.62711" /><trkpt lat="47.01634" lon="8.62698" /><trkpt lat="47.0162" lon="8.62686" /><trkpt lat="47.01591" lon="8.62658" /><trkpt lat="47.01578" lon="8.62646" /><trkpt lat="47.01566" lon="8.62635" /><trkpt lat="47.01502" lon="8.62574" /><trkpt lat="47.01499" lon="8.62571" /><trkpt lat="47.01474" lon="8.62548" /><trkpt lat="47.01435" lon="8.6251" /><trkpt lat="47.01425" lon="8.62501" /><trkpt lat="47.01418" lon="8.62494" /><trkpt lat="47.01394" lon="8.62471" /><trkpt lat="47.01354" lon="8.62431" /><trkpt lat="47.01351" lon="8.62428" /><trkpt lat="47.01316" lon="8.62392" /><trkpt lat="47.01277" lon="8.62353" /><trkpt lat="47.01236" lon="8.62313" /><trkpt lat="47.01212" lon="8.6229" /><trkpt lat="47.01165" lon="8.62244" /><trkpt lat="47.01127" lon="8.62207" /><trkpt lat="47.01107" lon="8.62189" /><trkpt lat="47.01101" lon="8.62183" /><trkpt lat="47.01002" lon="8.62091" /><trkpt lat="47.00989" lon="8.62079" /><trkpt lat="47.00976" lon="8.62067" /><trkpt lat="47.00953" lon="8.62045" /><trkpt lat="47.00916" lon="8.6201" /><trkpt lat="47.00901" lon="8.61995" /><trkpt lat="47.00882" lon="8.61976" /><trkpt lat="47.00827" lon="8.61923" /><trkpt lat="47.00802" lon="8.61899" /><trkpt lat="47.00789" lon="8.61886" /><trkpt lat="47.00762" lon="8.6186" /><trkpt lat="47.00748" lon="8.61846" /><trkpt lat="47.00673" lon="8.61773" /><trkpt lat="47.00635" lon="8.61737" /><trkpt lat="47.00594" lon="8.61697" /><trkpt lat="47.00518" lon="8.61623" /><trkpt lat="47.00441" lon="8.61549" /><trkpt lat="47.00417" lon="8.61526" /><trkpt lat="47.00368" lon="8.61479" /><trkpt lat="47.00288" lon="8.61404" /><trkpt lat="47.00212" lon="8.61331" /><trkpt lat="47.00171" lon="8.61292" /><trkpt lat="47.00153" lon="8.61275" /><trkpt lat="47.00134" lon="8.61258" /><trkpt lat="47.00075" lon="8.61202" /><trkpt lat="46.99932" lon="8.61067" /><trkpt lat="46.99813" lon="8.60954" /><trkpt lat="46.99794" lon="8.60935" /><trkpt lat="46.99765" lon="8.60906" /><trkpt lat="46.99751" lon="8.60893" /><trkpt lat="46.99712" lon="8.60863" /><trkpt lat="46.99673" lon="8.60839" /><trkpt lat="46.99666" lon="8.60836" /><trkpt lat="46.99632" lon="8.60822" /><trkpt lat="46.99595" lon="8.60812" /><trkpt lat="46.99553" lon="8.60804" /><trkpt lat="46.99533" lon="8.60802" /><trkpt lat="46.9951" lon="8.608" /><trkpt lat="46.99494" lon="8.608" /><trkpt lat="46.99476" lon="8.60801" /><trkpt lat="46.99461" lon="8.60803" /><trkpt lat="46.99446" lon="8.60806" /><trkpt lat="46.99409" lon="8.60817" /><trkpt lat="46.99386" lon="8.60829" /><trkpt lat="46.99363" lon="8.60842" /><trkpt lat="46.99342" lon="8.60858" /><trkpt lat="46.99321" lon="8.60876" /><trkpt lat="46.99281" lon="8.60918" /><trkpt lat="46.99246" lon="8.6096" /><trkpt lat="46.99208" lon="8.60999" /><trkpt lat="46.99187" lon="8.61016" /><trkpt lat="46.99166" lon="8.61031" /><trkpt lat="46.98817" lon="8.61227" /><trkpt lat="46.98741" lon="8.61256" /><trkpt lat="46.98663" lon="8.61277" /><trkpt lat="46.98598" lon="8.61283" /><trkpt lat="46.98535" lon="8.61284" /><trkpt lat="46.98477" lon="8.61279" /><trkpt lat="46.98422" lon="8.61267" /><trkpt lat="46.98289" lon="8.61224" /><trkpt lat="46.98255" lon="8.61211" /><trkpt lat="46.98219" lon="8.61195" /><trkpt lat="46.98147" lon="8.61163" /><trkpt lat="46.98112" lon="8.6115" /><trkpt lat="46.98074" lon="8.61142" /><trkpt lat="46.98035" lon="8.61137" /><trkpt lat="46.97999" lon="8.61141" /><trkpt lat="46.97973" lon="8.61145" /><trkpt lat="46.97939" lon="8.61154" /><trkpt lat="46.97923" lon="8.61159" /><trkpt lat="46.9792" lon="8.6116" /><trkpt lat="46.97915" lon="8.61162" /><trkpt lat="46.97906" lon="8.61165" /><trkpt lat="46.97852" lon="8.61184" /><trkpt lat="46.97765" lon="8.61206" /><trkpt lat="46.97673" lon="8.61213" /><trkpt lat="46.97546" lon="8.61205" /><trkpt lat="46.97483" lon="8.61205" /><trkpt lat="46.97425" lon="8.61212" /><trkpt lat="46.9736" lon="8.61224" /><trkpt lat="46.97281" lon="8.6125" /><trkpt lat="46.97204" lon="8.61284" /><trkpt lat="46.95941" lon="8.61899" /><trkpt lat="46.95861" lon="8.61934" /><trkpt lat="46.95802" lon="8.61953" /><trkpt lat="46.95749" lon="8.61964" /><trkpt lat="46.95687" lon="8.61969" /><trkpt lat="46.95608" lon="8.61968" /><trkpt lat="46.95563" lon="8.61963" /><trkpt lat="46.95528" lon="8.61963" /><trkpt lat="46.95501" lon="8.61967" /><trkpt lat="46.9548" lon="8.61972" /><trkpt lat="46.95469" lon="8.61976" /><trkpt lat="46.9546" lon="8.6198" /><trkpt lat="46.95448" lon="8.61985" /><trkpt lat="46.95437" lon="8.61992" /><trkpt lat="46.95423" lon="8.62" /><trkpt lat="46.95411" lon="8.62008" /><trkpt lat="46.95394" lon="8.62021" /><trkpt lat="46.95335" lon="8.62065" /><trkpt lat="46.95317" lon="8.62078" /><trkpt lat="46.95302" lon="8.62087" /><trkpt lat="46.95293" lon="8.62092" /><trkpt lat="46.95284" lon="8.62097" /><trkpt lat="46.95273" lon="8.62102" /><trkpt lat="46.95261" lon="8.62106" /><trkpt lat="46.95251" lon="8.62109" /><trkpt lat="46.9524" lon="8.62112" /><trkpt lat="46.95229" lon="8.62114" /><trkpt lat="46.95218" lon="8.62115" /><trkpt lat="46.9521" lon="8.62116" /><trkpt lat="46.95202" lon="8.62116" /><trkpt lat="46.95194" lon="8.62116" /><trkpt lat="46.95185" lon="8.62116" /><trkpt lat="46.95177" lon="8.62115" /><trkpt lat="46.95169" lon="8.62114" /><trkpt lat="46.95158" lon="8.62112" /><trkpt lat="46.95119" lon="8.62104" /><trkpt lat="46.9511" lon="8.62102" /><trkpt lat="46.94999" lon="8.62077" /><trkpt lat="46.94973" lon="8.62072" /><trkpt lat="46.94958" lon="8.62069" /><trkpt lat="46.94951" lon="8.62068" /><trkpt lat="46.94942" lon="8.62067" /><trkpt lat="46.94933" lon="8.62066" /><trkpt lat="46.94921" lon="8.62065" /><trkpt lat="46.9491" lon="8.62065" /><trkpt lat="46.94899" lon="8.62065" /><trkpt lat="46.94888" lon="8.62066" /><trkpt lat="46.94876" lon="8.62068" /><trkpt lat="46.94857" lon="8.62072" /><trkpt lat="46.94846" lon="8.62075" /><trkpt lat="46.94842" lon="8.62076" /><trkpt lat="46.94832" lon="8.6208" /><trkpt lat="46.94821" lon="8.62084" /><trkpt lat="46.94803" lon="8.62093" /><trkpt lat="46.9478" lon="8.62107" /><trkpt lat="46.94759" lon="8.62121" /><trkpt lat="46.94738" lon="8.62136" /><trkpt lat="46.94704" lon="8.62158" /><trkpt lat="46.94666" lon="8.6218" /><trkpt lat="46.94627" lon="8.62193" /><trkpt lat="46.94589" lon="8.62201" /><trkpt lat="46.94523" lon="8.62207" /><trkpt lat="46.93117" lon="8.6231" /><trkpt lat="46.91713" lon="8.62414" /><trkpt lat="46.91687" lon="8.62417" /><trkpt lat="46.91667" lon="8.62419" /><trkpt lat="46.91659" lon="8.62419" /><trkpt lat="46.91651" lon="8.6242" /><trkpt lat="46.91642" lon="8.62421" /><trkpt lat="46.91632" lon="8.62421" /><trkpt lat="46.91623" lon="8.62421" /><trkpt lat="46.91617" lon="8.62421" /><trkpt lat="46.91608" lon="8.6242" /><trkpt lat="46.91599" lon="8.6242" /><trkpt lat="46.91592" lon="8.62419" /><trkpt lat="46.91574" lon="8.62415" /><trkpt lat="46.91565" lon="8.62412" /><trkpt lat="46.91555" lon="8.62409" /><trkpt lat="46.91519" lon="8.62392" /><trkpt lat="46.91497" lon="8.62377" /><trkpt lat="46.91472" lon="8.62358" /><trkpt lat="46.91452" lon="8.62338" /><trkpt lat="46.91402" lon="8.62277" /><trkpt lat="46.91388" lon="8.62262" /><trkpt lat="46.91379" lon="8.62252" /><trkpt lat="46.9137" lon="8.62242" /><trkpt lat="46.9136" lon="8.62234" /><trkpt lat="46.91351" lon="8.62225" /><trkpt lat="46.91341" lon="8.62218" /><trkpt lat="46.91332" lon="8.62212" /><trkpt lat="46.91324" lon="8.62207" /><trkpt lat="46.91315" lon="8.62202" /><trkpt lat="46.91304" lon="8.62196" /><trkpt lat="46.91295" lon="8.62191" /><trkpt lat="46.91285" lon="8.62188" /><trkpt lat="46.91275" lon="8.62185" /><trkpt lat="46.91266" lon="8.62182" /><trkpt lat="46.91254" lon="8.62179" /><trkpt lat="46.91243" lon="8.62178" /><trkpt lat="46.91233" lon="8.62176" /><trkpt lat="46.91224" lon="8.62176" /><trkpt lat="46.91214" lon="8.62176" /><trkpt lat="46.91206" lon="8.62176" /><trkpt lat="46.91196" lon="8.62177" /><trkpt lat="46.91187" lon="8.62178" /><trkpt lat="46.9116" lon="8.62182" /><trkpt lat="46.91125" lon="8.62192" /><trkpt lat="46.91078" lon="8.62212" /><trkpt lat="46.91032" lon="8.62234" /><trkpt lat="46.90997" lon="8.62256" /><trkpt lat="46.90991" lon="8.62261" /><trkpt lat="46.90969" lon="8.62279" /><trkpt lat="46.90946" lon="8.62302" /><trkpt lat="46.90924" lon="8.62331" /><trkpt lat="46.90894" lon="8.62371" /><trkpt lat="46.90872" lon="8.62398" /><trkpt lat="46.90872" lon="8.62399" /><trkpt lat="46.90855" lon="8.62418" /><trkpt lat="46.90836" lon="8.62435" /><trkpt lat="46.90822" lon="8.62447" /><trkpt lat="46.90799" lon="8.62462" /><trkpt lat="46.90775" lon="8.62475" /><trkpt lat="46.90755" lon="8.62483" /><trkpt lat="46.90731" lon="8.62491" /><trkpt lat="46.90713" lon="8.62496" /><trkpt lat="46.90696" lon="8.62501" /><trkpt lat="46.90679" lon="8.62504" /><trkpt lat="46.90661" lon="8.62508" /><trkpt lat="46.9064" lon="8.62511" /><trkpt lat="46.90624" lon="8.62513" /><trkpt lat="46.90579" lon="8.62518" /><trkpt lat="46.90553" lon="8.62521" /><trkpt lat="46.90513" lon="8.62523" /><trkpt lat="46.90504" lon="8.62523" /><trkpt lat="46.90498" lon="8.62523" /><trkpt lat="46.90492" lon="8.62523" /><trkpt lat="46.90484" lon="8.62522" /><trkpt lat="46.90478" lon="8.62522" /><trkpt lat="46.90471" lon="8.62521" /><trkpt lat="46.90465" lon="8.6252" /><trkpt lat="46.90459" lon="8.62519" /><trkpt lat="46.90455" lon="8.62518" /><trkpt lat="46.90442" lon="8.62515" /><trkpt lat="46.90433" lon="8.62512" /><trkpt lat="46.90424" lon="8.62509" /><trkpt lat="46.90415" lon="8.62506" /><trkpt lat="46.904" lon="8.62499" /><trkpt lat="46.90388" lon="8.62494" /><trkpt lat="46.90375" lon="8.62489" /><trkpt lat="46.9036" lon="8.62484" /><trkpt lat="46.90344" lon="8.62478" /><trkpt lat="46.90334" lon="8.62473" /><trkpt lat="46.90316" lon="8.62465" /><trkpt lat="46.90304" lon="8.6246" /><trkpt lat="46.90298" lon="8.62457" /><trkpt lat="46.90293" lon="8.62455" /><trkpt lat="46.90282" lon="8.62452" /><trkpt lat="46.90277" lon="8.62449" /><trkpt lat="46.9027" lon="8.62448" /><trkpt lat="46.90261" lon="8.62445" /><trkpt lat="46.9026" lon="8.62445" /><trkpt lat="46.90252" lon="8.62444" /><trkpt lat="46.90242" lon="8.62442" /><trkpt lat="46.90231" lon="8.62441" /><trkpt lat="46.90218" lon="8.6244" /><trkpt lat="46.90194" lon="8.62439" /><trkpt lat="46.90169" lon="8.62439" /><trkpt lat="46.90166" lon="8.62439" /><trkpt lat="46.90166" lon="8.62439" /></trkseg></trk></gpx>