<gpx version="1.1" creator="Trainlog.me"><trk><name>Trip Path</name><trkseg><trkpt lat="47.54568" lon="7.59342" /><trkpt lat="47.54556" lon="7.59375" /><trkpt lat="47.54542" lon="7.59422" /><trkpt lat="47.54537" lon="7.59453" /><trkpt lat="47.54518" lon="7.59511" /><trkpt lat="47.54511" lon="7.59532" /><trkpt lat="47.54489" lon="7.59596" /><trkpt lat="47.54484" lon="7.59618" /><trkpt lat="47.54474" lon="7.59654" /><trkpt lat="47.54466" lon="7.59682" /><trkpt lat="47.54458" lon="7.59711" /><trkpt lat="47.54453" lon="7.59726" /><trkpt lat="47.54447" lon="7.59751" /><trkpt lat="47.54444" lon="7.59763" /><trkpt lat="47.54442" lon="7.59775" /><trkpt lat="47.54441" lon="7.59782" /><trkpt lat="47.54439" lon="7.59791" /><trkpt lat="47.54437" lon="7.59801" /><trkpt lat="47.54433" lon="7.5983" /><trkpt lat="47.54428" lon="7.59868" /><trkpt lat="47.54424" lon="7.59893" /><trkpt lat="47.54421" lon="7.59924" /><trkpt lat="47.5442" lon="7.5995" /><trkpt lat="47.54419" lon="7.59967" /><trkpt lat="47.54419" lon="7.59984" /><trkpt lat="47.54419" lon="7.60001" /><trkpt lat="47.54419" lon="7.60019" /><trkpt lat="47.54419" lon="7.60026" /><trkpt lat="47.5442" lon="7.60036" /><trkpt lat="47.54421" lon="7.60054" /><trkpt lat="47.54423" lon="7.60072" /><trkpt lat="47.54424" lon="7.6009" /><trkpt lat="47.54427" lon="7.6011" /><trkpt lat="47.5443" lon="7.60124" /><trkpt lat="47.54432" lon="7.60141" /><trkpt lat="47.54436" lon="7.60158" /><trkpt lat="47.5444" lon="7.60178" /><trkpt lat="47.54445" lon="7.60197" /><trkpt lat="47.54447" lon="7.60205" /><trkpt lat="47.54448" lon="7.60208" /><trkpt lat="47.54452" lon="7.6022" /><trkpt lat="47.54455" lon="7.6023" /><trkpt lat="47.54459" lon="7.60241" /><trkpt lat="47.54463" lon="7.60254" /><trkpt lat="47.54469" lon="7.60271" /><trkpt lat="47.54476" lon="7.60288" /><trkpt lat="47.54491" lon="7.60324" /><trkpt lat="47.54512" lon="7.60378" /><trkpt lat="47.5452" lon="7.604" /><trkpt lat="47.54529" lon="7.60427" /><trkpt lat="47.54539" lon="7.60457" /><trkpt lat="47.54548" lon="7.60488" /><trkpt lat="47.54551" lon="7.60499" /><trkpt lat="47.54556" lon="7.60518" /><trkpt lat="47.54559" lon="7.6053" /><trkpt lat="47.5456" lon="7.60531" /><trkpt lat="47.54564" lon="7.6055" /><trkpt lat="47.54568" lon="7.60567" /><trkpt lat="47.54576" lon="7.60607" /><trkpt lat="47.54582" lon="7.60647" /><trkpt lat="47.54585" lon="7.60669" /><trkpt lat="47.54587" lon="7.60688" /><trkpt lat="47.54591" lon="7.60728" /><trkpt lat="47.54594" lon="7.60769" /><trkpt lat="47.54596" lon="7.60809" /><trkpt lat="47.54597" lon="7.6085" /><trkpt lat="47.54596" lon="7.6089" /><trkpt lat="47.54596" lon="7.60916" /><trkpt lat="47.54595" lon="7.6094" /><trkpt lat="47.54593" lon="7.6098" /><trkpt lat="47.54591" lon="7.61015" /><trkpt lat="47.54587" lon="7.6105" /><trkpt lat="47.54587" lon="7.61052" /><trkpt lat="47.54585" lon="7.61073" /><trkpt lat="47.5458" lon="7.61107" /><trkpt lat="47.54574" lon="7.61141" /><trkpt lat="47.5457" lon="7.61168" /><trkpt lat="47.54561" lon="7.61207" /><trkpt lat="47.54554" lon="7.61236" /><trkpt lat="47.54546" lon="7.61267" /><trkpt lat="47.54538" lon="7.61297" /><trkpt lat="47.54529" lon="7.61326" /><trkpt lat="47.54521" lon="7.61353" /><trkpt lat="47.54512" lon="7.61381" /><trkpt lat="47.54503" lon="7.61408" /><trkpt lat="47.54493" lon="7.61435" /><trkpt lat="47.54489" lon="7.61447" /><trkpt lat="47.54483" lon="7.61464" /><trkpt lat="47.54472" lon="7.61491" /><trkpt lat="47.54449" lon="7.61547" /><trkpt lat="47.54437" lon="7.61577" /><trkpt lat="47.54426" lon="7.61606" /><trkpt lat="47.54404" lon="7.61659" /><trkpt lat="47.54392" lon="7.61691" /><trkpt lat="47.5438" lon="7.61723" /><trkpt lat="47.54355" lon="7.61793" /><trkpt lat="47.54337" lon="7.61845" /><trkpt lat="47.54331" lon="7.61863" /><trkpt lat="47.54318" lon="7.61901" /><trkpt lat="47.54294" lon="7.61974" /><trkpt lat="47.54293" lon="7.61976" /><trkpt lat="47.54263" lon="7.62067" /><trkpt lat="47.54222" lon="7.62185" /><trkpt lat="47.5418" lon="7.62308" /><trkpt lat="47.54168" lon="7.6235" /><trkpt lat="47.54157" lon="7.62389" /><trkpt lat="47.54124" lon="7.62524" /><trkpt lat="47.54106" lon="7.62588" /><trkpt lat="47.54102" lon="7.62603" /><trkpt lat="47.54092" lon="7.62636" /><trkpt lat="47.54084" lon="7.62661" /><trkpt lat="47.54038" lon="7.62795" /><trkpt lat="47.53981" lon="7.62965" /><trkpt lat="47.53924" lon="7.63136" /><trkpt lat="47.53905" lon="7.63191" /><trkpt lat="47.53886" lon="7.63247" /><trkpt lat="47.53879" lon="7.63267" /><trkpt lat="47.53878" lon="7.63269" /><trkpt lat="47.53845" lon="7.63359" /><trkpt lat="47.53828" lon="7.63407" /><trkpt lat="47.53808" lon="7.63467" /><trkpt lat="47.53745" lon="7.63655" /><trkpt lat="47.53721" lon="7.63728" /><trkpt lat="47.53697" lon="7.63803" /><trkpt lat="47.5369" lon="7.63827" /><trkpt lat="47.53674" lon="7.63877" /><trkpt lat="47.53651" lon="7.63952" /><trkpt lat="47.53637" lon="7.63994" /><trkpt lat="47.53598" lon="7.64109" /><trkpt lat="47.53528" lon="7.64318" /><trkpt lat="47.53474" lon="7.64479" /><trkpt lat="47.53468" lon="7.64498" /><trkpt lat="47.53447" lon="7.64562" /><trkpt lat="47.53363" lon="7.64812" /><trkpt lat="47.53342" lon="7.64875" /><trkpt lat="47.53312" lon="7.64964" /><trkpt lat="47.53297" lon="7.65009" /><trkpt lat="47.532" lon="7.65297" /><trkpt lat="47.532" lon="7.65299" /><trkpt lat="47.53146" lon="7.6546" /><trkpt lat="47.5313" lon="7.65506" /><trkpt lat="47.53114" lon="7.65555" /><trkpt lat="47.53101" lon="7.65593" /><trkpt lat="47.53088" lon="7.65632" /><trkpt lat="47.53079" lon="7.65656" /><trkpt lat="47.53069" lon="7.6568" /><trkpt lat="47.5306" lon="7.65702" /><trkpt lat="47.5305" lon="7.65725" /><trkpt lat="47.5303" lon="7.65769" /><trkpt lat="47.53011" lon="7.65809" /><trkpt lat="47.53001" lon="7.6583" /><trkpt lat="47.52989" lon="7.65857" /><trkpt lat="47.52976" lon="7.65886" /><trkpt lat="47.52965" lon="7.65913" /><trkpt lat="47.52958" lon="7.65931" /><trkpt lat="47.52951" lon="7.6595" /><trkpt lat="47.52944" lon="7.6597" /><trkpt lat="47.52939" lon="7.65985" /><trkpt lat="47.52933" lon="7.66002" /><trkpt lat="47.52923" lon="7.66037" /><trkpt lat="47.52909" lon="7.66089" /><trkpt lat="47.52894" lon="7.66151" /><trkpt lat="47.52881" lon="7.66213" /><trkpt lat="47.52872" lon="7.66249" /><trkpt lat="47.52867" lon="7.66271" /><trkpt lat="47.52861" lon="7.66295" /><trkpt lat="47.52852" lon="7.66327" /><trkpt lat="47.52843" lon="7.66358" /><trkpt lat="47.52828" lon="7.66408" /><trkpt lat="47.52811" lon="7.66459" /><trkpt lat="47.52766" lon="7.66594" /><trkpt lat="47.52746" lon="7.66652" /><trkpt lat="47.52733" lon="7.66688" /><trkpt lat="47.52708" lon="7.66757" /><trkpt lat="47.52669" lon="7.66865" /><trkpt lat="47.52643" lon="7.66938" /><trkpt lat="47.52617" lon="7.67013" /><trkpt lat="47.52606" lon="7.67048" /><trkpt lat="47.52582" lon="7.67119" /><trkpt lat="47.52576" lon="7.67138" /><trkpt lat="47.52559" lon="7.67191" /><trkpt lat="47.52545" lon="7.67238" /><trkpt lat="47.52533" lon="7.67288" /><trkpt lat="47.52521" lon="7.67341" /><trkpt lat="47.52512" lon="7.67391" /><trkpt lat="47.52505" lon="7.67426" /><trkpt lat="47.52501" lon="7.67446" /><trkpt lat="47.52495" lon="7.67475" /><trkpt lat="47.52486" lon="7.67514" /><trkpt lat="47.52478" lon="7.67544" /><trkpt lat="47.52468" lon="7.6758" /><trkpt lat="47.5246" lon="7.67606" /><trkpt lat="47.52452" lon="7.67629" /><trkpt lat="47.52444" lon="7.67654" /><trkpt lat="47.52437" lon="7.67674" /><trkpt lat="47.52435" lon="7.67681" /><trkpt lat="47.52426" lon="7.67708" /><trkpt lat="47.52401" lon="7.67781" /><trkpt lat="47.52391" lon="7.67811" /><trkpt lat="47.52384" lon="7.67833" /><trkpt lat="47.52377" lon="7.67858" /><trkpt lat="47.52368" lon="7.67888" /><trkpt lat="47.52363" lon="7.67909" /><trkpt lat="47.52355" lon="7.67939" /><trkpt lat="47.52349" lon="7.67967" /><trkpt lat="47.52343" lon="7.67993" /><trkpt lat="47.52339" lon="7.68014" /><trkpt lat="47.52335" lon="7.68039" /><trkpt lat="47.5233" lon="7.68064" /><trkpt lat="47.52326" lon="7.6809" /><trkpt lat="47.52323" lon="7.68115" /><trkpt lat="47.52319" lon="7.68146" /><trkpt lat="47.52315" lon="7.68179" /><trkpt lat="47.52311" lon="7.68211" /><trkpt lat="47.52308" lon="7.68243" /><trkpt lat="47.52307" lon="7.68262" /><trkpt lat="47.52305" lon="7.68282" /><trkpt lat="47.52302" lon="7.68322" /><trkpt lat="47.52301" lon="7.68348" /><trkpt lat="47.523" lon="7.68371" /><trkpt lat="47.52299" lon="7.68394" /><trkpt lat="47.52298" lon="7.68425" /><trkpt lat="47.52298" lon="7.68456" /><trkpt lat="47.52298" lon="7.68502" /><trkpt lat="47.52298" lon="7.68543" /><trkpt lat="47.52298" lon="7.68583" /><trkpt lat="47.52297" lon="7.68619" /><trkpt lat="47.52296" lon="7.68676" /><trkpt lat="47.52283" lon="7.69141" /><trkpt lat="47.52273" lon="7.69525" /><trkpt lat="47.52272" lon="7.69535" /><trkpt lat="47.52271" lon="7.69598" /><trkpt lat="47.52271" lon="7.69624" /><trkpt lat="47.52271" lon="7.69637" /><trkpt lat="47.52271" lon="7.69652" /><trkpt lat="47.52272" lon="7.69664" /><trkpt lat="47.52273" lon="7.69675" /><trkpt lat="47.52274" lon="7.69687" /><trkpt lat="47.52275" lon="7.69698" /><trkpt lat="47.52276" lon="7.69709" /><trkpt lat="47.52278" lon="7.69724" /><trkpt lat="47.5228" lon="7.69737" /><trkpt lat="47.52282" lon="7.69748" /><trkpt lat="47.52284" lon="7.69758" /><trkpt lat="47.52287" lon="7.6977" /><trkpt lat="47.52289" lon="7.69781" /><trkpt lat="47.52292" lon="7.69791" /><trkpt lat="47.52295" lon="7.69805" /><trkpt lat="47.52299" lon="7.69819" /><trkpt lat="47.52303" lon="7.69832" /><trkpt lat="47.52307" lon="7.69844" /><trkpt lat="47.52312" lon="7.69859" /><trkpt lat="47.52317" lon="7.69872" /><trkpt lat="47.52321" lon="7.69882" /><trkpt lat="47.52326" lon="7.69895" /><trkpt lat="47.52332" lon="7.69908" /><trkpt lat="47.52339" lon="7.69923" /><trkpt lat="47.52347" lon="7.69938" /><trkpt lat="47.52355" lon="7.69954" /><trkpt lat="47.52359" lon="7.69961" /><trkpt lat="47.52364" lon="7.69969" /><trkpt lat="47.52372" lon="7.69984" /><trkpt lat="47.52381" lon="7.69998" /><trkpt lat="47.52394" lon="7.70017" /><trkpt lat="47.52515" lon="7.70197" /><trkpt lat="47.52522" lon="7.70207" /><trkpt lat="47.52642" lon="7.70386" /><trkpt lat="47.52679" lon="7.7044" /><trkpt lat="47.52761" lon="7.70563" /><trkpt lat="47.52773" lon="7.70581" /><trkpt lat="47.53006" lon="7.70927" /><trkpt lat="47.53055" lon="7.70999" /><trkpt lat="47.53103" lon="7.71071" /><trkpt lat="47.53292" lon="7.71351" /><trkpt lat="47.53308" lon="7.71375" /><trkpt lat="47.53418" lon="7.71538" /><trkpt lat="47.53425" lon="7.71549" /><trkpt lat="47.53441" lon="7.71571" /><trkpt lat="47.53453" lon="7.71589" /><trkpt lat="47.53507" lon="7.71662" /><trkpt lat="47.53576" lon="7.7176" /><trkpt lat="47.53623" lon="7.71832" /><trkpt lat="47.53646" lon="7.71868" /><trkpt lat="47.53668" lon="7.71905" /><trkpt lat="47.53679" lon="7.71924" /><trkpt lat="47.53698" lon="7.71958" /><trkpt lat="47.53715" lon="7.71992" /><trkpt lat="47.53731" lon="7.72026" /><trkpt lat="47.53735" lon="7.72035" /><trkpt lat="47.53748" lon="7.72065" /><trkpt lat="47.53761" lon="7.72096" /><trkpt lat="47.53772" lon="7.72125" /><trkpt lat="47.53783" lon="7.72155" /><trkpt lat="47.53805" lon="7.72218" /><trkpt lat="47.53856" lon="7.72372" /><trkpt lat="47.53937" lon="7.72618" /><trkpt lat="47.53982" lon="7.72756" /><trkpt lat="47.54015" lon="7.72856" /><trkpt lat="47.54023" lon="7.72883" /><trkpt lat="47.54042" lon="7.72948" /><trkpt lat="47.54062" lon="7.7302" /><trkpt lat="47.54077" lon="7.73083" /><trkpt lat="47.5409" lon="7.7314" /><trkpt lat="47.54096" lon="7.73169" /><trkpt lat="47.54103" lon="7.73206" /><trkpt lat="47.54115" lon="7.73265" /><trkpt lat="47.54126" lon="7.73325" /><trkpt lat="47.54132" lon="7.73364" /><trkpt lat="47.5414" lon="7.73416" /><trkpt lat="47.54148" lon="7.73469" /><trkpt lat="47.54161" lon="7.73582" /><trkpt lat="47.54165" lon="7.73621" /><trkpt lat="47.54172" lon="7.73697" /><trkpt lat="47.54175" lon="7.73737" /><trkpt lat="47.54183" lon="7.73848" /><trkpt lat="47.54194" lon="7.74001" /><trkpt lat="47.54206" lon="7.74154" /><trkpt lat="47.54223" lon="7.74384" /><trkpt lat="47.54235" lon="7.74538" /><trkpt lat="47.54245" lon="7.74668" /><trkpt lat="47.54255" lon="7.74768" /><trkpt lat="47.5427" lon="7.74913" /><trkpt lat="47.54287" lon="7.75061" /><trkpt lat="47.54307" lon="7.75213" /><trkpt lat="47.54318" lon="7.75292" /><trkpt lat="47.54328" lon="7.75363" /><trkpt lat="47.54352" lon="7.75513" /><trkpt lat="47.54378" lon="7.75663" /><trkpt lat="47.54404" lon="7.75809" /><trkpt lat="47.54425" lon="7.7593" /><trkpt lat="47.54437" lon="7.75998" /><trkpt lat="47.54456" lon="7.76103" /><trkpt lat="47.54482" lon="7.76252" /><trkpt lat="47.54523" lon="7.76485" /><trkpt lat="47.54537" lon="7.76565" /><trkpt lat="47.54548" lon="7.76626" /><trkpt lat="47.54579" lon="7.76801" /><trkpt lat="47.54601" lon="7.76925" /><trkpt lat="47.54616" lon="7.77006" /><trkpt lat="47.54618" lon="7.77019" /><trkpt lat="47.54628" lon="7.77073" /><trkpt lat="47.54666" lon="7.77288" /><trkpt lat="47.54705" lon="7.77511" /><trkpt lat="47.54745" lon="7.77735" /><trkpt lat="47.54762" lon="7.77833" /><trkpt lat="47.54783" lon="7.77949" /><trkpt lat="47.54823" lon="7.78175" /><trkpt lat="47.5483" lon="7.78212" /><trkpt lat="47.54846" lon="7.78299" /><trkpt lat="47.54863" lon="7.78391" /><trkpt lat="47.54877" lon="7.78457" /><trkpt lat="47.54891" lon="7.78522" /><trkpt lat="47.54898" lon="7.78553" /><trkpt lat="47.54906" lon="7.78585" /><trkpt lat="47.54923" lon="7.78647" /><trkpt lat="47.54946" lon="7.78726" /><trkpt lat="47.55" lon="7.78901" /><trkpt lat="47.55031" lon="7.79001" /><trkpt lat="47.55048" lon="7.7906" /><trkpt lat="47.55068" lon="7.79122" /><trkpt lat="47.55102" lon="7.79231" /><trkpt lat="47.5512" lon="7.79286" /><trkpt lat="47.55147" lon="7.79372" /><trkpt lat="47.55166" lon="7.79429" /><trkpt lat="47.55182" lon="7.79472" /><trkpt lat="47.55187" lon="7.79486" /><trkpt lat="47.55191" lon="7.79496" /><trkpt lat="47.552" lon="7.79522" /><trkpt lat="47.5522" lon="7.79573" /><trkpt lat="47.55222" lon="7.79579" /><trkpt lat="47.55232" lon="7.79602" /><trkpt lat="47.55255" lon="7.79662" /><trkpt lat="47.55268" lon="7.79694" /><trkpt lat="47.5535" lon="7.79913" /><trkpt lat="47.55359" lon="7.79936" /><trkpt lat="47.55372" lon="7.79974" /><trkpt lat="47.55392" lon="7.80036" /><trkpt lat="47.55396" lon="7.80051" /><trkpt lat="47.55404" lon="7.80076" /><trkpt lat="47.55412" lon="7.80103" /><trkpt lat="47.55431" lon="7.80171" /><trkpt lat="47.55448" lon="7.80241" /><trkpt lat="47.55462" lon="7.80299" /><trkpt lat="47.55474" lon="7.80358" /><trkpt lat="47.55486" lon="7.80416" /><trkpt lat="47.55499" lon="7.80487" /><trkpt lat="47.55537" lon="7.80681" /><trkpt lat="47.55542" lon="7.80709" /><trkpt lat="47.55585" lon="7.80931" /><trkpt lat="47.55613" lon="7.81079" /><trkpt lat="47.55627" lon="7.8115" /><trkpt lat="47.55642" lon="7.81218" /><trkpt lat="47.55658" lon="7.81288" /><trkpt lat="47.55751" lon="7.81651" /><trkpt lat="47.55855" lon="7.82057" /><trkpt lat="47.5588" lon="7.82154" /><trkpt lat="47.55994" lon="7.82597" /><trkpt lat="47.55996" lon="7.82607" /><trkpt lat="47.5601" lon="7.82662" /><trkpt lat="47.56017" lon="7.8269" /><trkpt lat="47.56101" lon="7.83017" /><trkpt lat="47.56108" lon="7.83044" /><trkpt lat="47.56126" lon="7.83113" /><trkpt lat="47.56189" lon="7.83362" /><trkpt lat="47.56198" lon="7.83397" /><trkpt lat="47.56228" lon="7.83513" /><trkpt lat="47.5626" lon="7.83639" /><trkpt lat="47.56268" lon="7.8367" /><trkpt lat="47.56295" lon="7.83773" /><trkpt lat="47.56374" lon="7.84085" /><trkpt lat="47.56376" lon="7.84091" /><trkpt lat="47.56383" lon="7.8412" /><trkpt lat="47.56384" lon="7.84123" /><trkpt lat="47.56526" lon="7.84678" /><trkpt lat="47.56581" lon="7.84891" /><trkpt lat="47.56608" lon="7.84998" /><trkpt lat="47.56616" lon="7.85028" /><trkpt lat="47.56634" lon="7.85108" /><trkpt lat="47.56649" lon="7.85179" /><trkpt lat="47.56661" lon="7.85246" /><trkpt lat="47.56661" lon="7.85251" /><trkpt lat="47.56672" lon="7.85319" /><trkpt lat="47.5668" lon="7.85391" /><trkpt lat="47.56688" lon="7.8547" /><trkpt lat="47.56693" lon="7.85539" /><trkpt lat="47.56696" lon="7.8561" /><trkpt lat="47.56698" lon="7.85682" /><trkpt lat="47.56698" lon="7.85753" /><trkpt lat="47.56696" lon="7.8583" /><trkpt lat="47.56692" lon="7.85906" /><trkpt lat="47.56686" lon="7.85983" /><trkpt lat="47.56678" lon="7.86059" /><trkpt lat="47.56668" lon="7.86133" /><trkpt lat="47.56656" lon="7.86209" /><trkpt lat="47.56642" lon="7.86283" /><trkpt lat="47.56626" lon="7.86356" /><trkpt lat="47.56608" lon="7.86431" /><trkpt lat="47.56591" lon="7.86492" /><trkpt lat="47.56571" lon="7.86558" /><trkpt lat="47.56548" lon="7.86627" /><trkpt lat="47.56545" lon="7.86637" /><trkpt lat="47.56523" lon="7.86694" /><trkpt lat="47.56504" lon="7.86744" /><trkpt lat="47.56497" lon="7.86761" /><trkpt lat="47.56416" lon="7.86955" /><trkpt lat="47.56315" lon="7.87199" /><trkpt lat="47.56228" lon="7.87407" /><trkpt lat="47.5617" lon="7.87548" /><trkpt lat="47.56119" lon="7.8767" /><trkpt lat="47.56024" lon="7.87899" /><trkpt lat="47.55871" lon="7.88267" /><trkpt lat="47.55821" lon="7.88388" /><trkpt lat="47.55662" lon="7.88769" /><trkpt lat="47.5548" lon="7.89206" /><trkpt lat="47.5543" lon="7.89327" /><trkpt lat="47.55361" lon="7.89493" /><trkpt lat="47.55351" lon="7.89518" /><trkpt lat="47.55285" lon="7.89677" /><trkpt lat="47.55216" lon="7.89843" /><trkpt lat="47.55141" lon="7.90021" /><trkpt lat="47.55066" lon="7.90202" /><trkpt lat="47.5505" lon="7.9024" /><trkpt lat="47.54981" lon="7.90406" /><trkpt lat="47.5497" lon="7.90434" /><trkpt lat="47.54955" lon="7.90468" /><trkpt lat="47.54922" lon="7.90549" /><trkpt lat="47.54859" lon="7.90699" /><trkpt lat="47.54742" lon="7.90981" /><trkpt lat="47.54685" lon="7.91119" /><trkpt lat="47.54593" lon="7.91339" /><trkpt lat="47.54585" lon="7.91359" /><trkpt lat="47.54566" lon="7.91405" /><trkpt lat="47.54529" lon="7.91494" /><trkpt lat="47.54523" lon="7.91508" /><trkpt lat="47.54507" lon="7.91547" /><trkpt lat="47.54494" lon="7.91585" /><trkpt lat="47.54482" lon="7.91626" /><trkpt lat="47.54472" lon="7.91668" /><trkpt lat="47.54464" lon="7.9171" /><trkpt lat="47.54456" lon="7.91761" /><trkpt lat="47.5445" lon="7.91808" /><trkpt lat="47.54427" lon="7.91996" /><trkpt lat="47.5442" lon="7.92057" /><trkpt lat="47.54415" lon="7.92111" /><trkpt lat="47.54414" lon="7.92144" /><trkpt lat="47.54414" lon="7.92171" /><trkpt lat="47.54414" lon="7.92179" /><trkpt lat="47.54414" lon="7.92219" /><trkpt lat="47.54417" lon="7.92261" /><trkpt lat="47.54421" lon="7.92303" /><trkpt lat="47.54426" lon="7.92347" /><trkpt lat="47.54428" lon="7.92361" /><trkpt lat="47.54433" lon="7.92398" /><trkpt lat="47.54466" lon="7.92613" /><trkpt lat="47.54475" lon="7.92676" /><trkpt lat="47.54481" lon="7.92725" /><trkpt lat="47.54484" lon="7.92769" /><trkpt lat="47.54485" lon="7.9281" /><trkpt lat="47.54485" lon="7.92854" /><trkpt lat="47.54483" lon="7.92904" /><trkpt lat="47.54475" lon="7.93124" /><trkpt lat="47.54465" lon="7.93402" /><trkpt lat="47.54463" lon="7.93453" /><trkpt lat="47.54461" lon="7.93498" /><trkpt lat="47.54456" lon="7.93541" /><trkpt lat="47.5445" lon="7.93584" /><trkpt lat="47.54445" lon="7.93608" /><trkpt lat="47.54441" lon="7.93627" /><trkpt lat="47.54434" lon="7.93655" /><trkpt lat="47.5443" lon="7.93668" /><trkpt lat="47.54418" lon="7.93707" /><trkpt lat="47.54402" lon="7.93747" /><trkpt lat="47.54384" lon="7.93791" /><trkpt lat="47.54378" lon="7.93804" /><trkpt lat="47.54363" lon="7.93838" /><trkpt lat="47.54353" lon="7.93862" /><trkpt lat="47.54344" lon="7.93885" /><trkpt lat="47.54335" lon="7.93909" /><trkpt lat="47.54327" lon="7.93932" /><trkpt lat="47.54318" lon="7.93958" /><trkpt lat="47.54311" lon="7.9398" /><trkpt lat="47.54304" lon="7.94007" /><trkpt lat="47.54298" lon="7.94028" /><trkpt lat="47.54291" lon="7.94058" /><trkpt lat="47.54286" lon="7.94082" /><trkpt lat="47.54281" lon="7.94109" /><trkpt lat="47.54276" lon="7.94135" /><trkpt lat="47.54272" lon="7.94162" /><trkpt lat="47.54268" lon="7.94187" /><trkpt lat="47.54265" lon="7.94215" /><trkpt lat="47.54262" lon="7.9425" /><trkpt lat="47.54257" lon="7.9431" /><trkpt lat="47.54257" lon="7.94322" /><trkpt lat="47.54253" lon="7.9438" /><trkpt lat="47.54249" lon="7.94433" /><trkpt lat="47.54247" lon="7.94463" /><trkpt lat="47.54245" lon="7.94487" /><trkpt lat="47.54242" lon="7.94512" /><trkpt lat="47.54238" lon="7.94536" /><trkpt lat="47.54234" lon="7.9456" /><trkpt lat="47.5423" lon="7.94583" /><trkpt lat="47.54223" lon="7.94614" /><trkpt lat="47.54216" lon="7.94639" /><trkpt lat="47.5421" lon="7.94663" /><trkpt lat="47.54201" lon="7.94689" /><trkpt lat="47.54192" lon="7.94719" /><trkpt lat="47.54175" lon="7.9477" /><trkpt lat="47.54138" lon="7.94882" /><trkpt lat="47.54103" lon="7.94994" /><trkpt lat="47.54061" lon="7.95133" /><trkpt lat="47.54057" lon="7.95147" /><trkpt lat="47.54035" lon="7.95219" /><trkpt lat="47.54032" lon="7.95228" /><trkpt lat="47.54018" lon="7.95276" /><trkpt lat="47.54009" lon="7.95308" /><trkpt lat="47.53999" lon="7.95347" /><trkpt lat="47.53993" lon="7.95378" /><trkpt lat="47.53988" lon="7.95406" /><trkpt lat="47.53983" lon="7.95436" /><trkpt lat="47.53979" lon="7.95463" /><trkpt lat="47.53975" lon="7.95509" /><trkpt lat="47.53973" lon="7.95534" /><trkpt lat="47.53972" lon="7.95566" /><trkpt lat="47.53972" lon="7.95596" /><trkpt lat="47.53972" lon="7.95629" /><trkpt lat="47.53974" lon="7.95667" /><trkpt lat="47.53977" lon="7.95709" /><trkpt lat="47.53982" lon="7.95753" /><trkpt lat="47.53989" lon="7.95798" /><trkpt lat="47.54" lon="7.95853" /><trkpt lat="47.54022" lon="7.95962" /><trkpt lat="47.54061" lon="7.96156" /><trkpt lat="47.54068" lon="7.96198" /><trkpt lat="47.54072" lon="7.96221" /><trkpt lat="47.54076" lon="7.96245" /><trkpt lat="47.54078" lon="7.96268" /><trkpt lat="47.5408" lon="7.96287" /><trkpt lat="47.54081" lon="7.96306" /><trkpt lat="47.54082" lon="7.96327" /><trkpt lat="47.54082" lon="7.96347" /><trkpt lat="47.54082" lon="7.96366" /><trkpt lat="47.54081" lon="7.96399" /><trkpt lat="47.54079" lon="7.9642" /><trkpt lat="47.54077" lon="7.96441" /><trkpt lat="47.54074" lon="7.96465" /><trkpt lat="47.5407" lon="7.96491" /><trkpt lat="47.54062" lon="7.96535" /><trkpt lat="47.54051" lon="7.96583" /><trkpt lat="47.54038" lon="7.96641" /><trkpt lat="47.53998" lon="7.9682" /><trkpt lat="47.53898" lon="7.97264" /><trkpt lat="47.53857" lon="7.97448" /><trkpt lat="47.53787" lon="7.97757" /><trkpt lat="47.53771" lon="7.97829" /><trkpt lat="47.53754" lon="7.97898" /><trkpt lat="47.53736" lon="7.97968" /><trkpt lat="47.53725" lon="7.98011" /><trkpt lat="47.53718" lon="7.98034" /><trkpt lat="47.53698" lon="7.98101" /><trkpt lat="47.53677" lon="7.98169" /><trkpt lat="47.53655" lon="7.98235" /><trkpt lat="47.53631" lon="7.98304" /><trkpt lat="47.53608" lon="7.98367" /><trkpt lat="47.53582" lon="7.98431" /><trkpt lat="47.53567" lon="7.98468" /><trkpt lat="47.53556" lon="7.98495" /><trkpt lat="47.53529" lon="7.98557" /><trkpt lat="47.53499" lon="7.9862" /><trkpt lat="47.53484" lon="7.98654" /><trkpt lat="47.53454" lon="7.98713" /><trkpt lat="47.53431" lon="7.98758" /><trkpt lat="47.53426" lon="7.98767" /><trkpt lat="47.53413" lon="7.98792" /><trkpt lat="47.53305" lon="7.98998" /><trkpt lat="47.53212" lon="7.99172" /><trkpt lat="47.5319" lon="7.99214" /><trkpt lat="47.53169" lon="7.99249" /><trkpt lat="47.53143" lon="7.99291" /><trkpt lat="47.53131" lon="7.99308" /><trkpt lat="47.53118" lon="7.99326" /><trkpt lat="47.5309" lon="7.99363" /><trkpt lat="47.5309" lon="7.99363" /><trkpt lat="47.5309" lon="7.99363" /><trkpt lat="47.53061" lon="7.99398" /><trkpt lat="47.53026" lon="7.99439" /><trkpt lat="47.52949" lon="7.99527" /><trkpt lat="47.5294" lon="7.99537" /><trkpt lat="47.52881" lon="7.99605" /><trkpt lat="47.52802" lon="7.99696" /><trkpt lat="47.52762" lon="7.99742" /><trkpt lat="47.52715" lon="7.99796" /><trkpt lat="47.52678" lon="7.99838" /><trkpt lat="47.5264" lon="7.99882" /><trkpt lat="47.52326" lon="8.00243" /><trkpt lat="47.52129" lon="8.00469" /><trkpt lat="47.52115" lon="8.00485" /><trkpt lat="47.51864" lon="8.00774" /><trkpt lat="47.51739" lon="8.00917" /><trkpt lat="47.51734" lon="8.00923" /><trkpt lat="47.51695" lon="8.00968" /><trkpt lat="47.5156" lon="8.01122" /><trkpt lat="47.51498" lon="8.01194" /><trkpt lat="47.51474" lon="8.01221" /><trkpt lat="47.51364" lon="8.01348" /><trkpt lat="47.51353" lon="8.0136" /><trkpt lat="47.51317" lon="8.01398" /><trkpt lat="47.51291" lon="8.01421" /><trkpt lat="47.51263" lon="8.01442" /><trkpt lat="47.51235" lon="8.01459" /><trkpt lat="47.51205" lon="8.01473" /><trkpt lat="47.51176" lon="8.01483" /><trkpt lat="47.51145" lon="8.01491" /><trkpt lat="47.51116" lon="8.01494" /><trkpt lat="47.51086" lon="8.01494" /><trkpt lat="47.51057" lon="8.01492" /><trkpt lat="47.51028" lon="8.01486" /><trkpt lat="47.51006" lon="8.01479" /><trkpt lat="47.50999" lon="8.01477" /><trkpt lat="47.50973" lon="8.01465" /><trkpt lat="47.50966" lon="8.01462" /><trkpt lat="47.50946" lon="8.01451" /><trkpt lat="47.50926" lon="8.01437" /><trkpt lat="47.5091" lon="8.01426" /><trkpt lat="47.50893" lon="8.01413" /><trkpt lat="47.50877" lon="8.01401" /><trkpt lat="47.50865" lon="8.01391" /><trkpt lat="47.50829" lon="8.01359" /><trkpt lat="47.50801" lon="8.01334" /><trkpt lat="47.50747" lon="8.01286" /><trkpt lat="47.50718" lon="8.01261" /><trkpt lat="47.50627" lon="8.01185" /><trkpt lat="47.50592" lon="8.01157" /><trkpt lat="47.50523" lon="8.01099" /><trkpt lat="47.50514" lon="8.01092" /><trkpt lat="47.50485" lon="8.01068" /><trkpt lat="47.50459" lon="8.01049" /><trkpt lat="47.50433" lon="8.01033" /><trkpt lat="47.50407" lon="8.0102" /><trkpt lat="47.50381" lon="8.01009" /><trkpt lat="47.50355" lon="8.01001" /><trkpt lat="47.50328" lon="8.00997" /><trkpt lat="47.50298" lon="8.00994" /><trkpt lat="47.50289" lon="8.00994" /><trkpt lat="47.5027" lon="8.00995" /><trkpt lat="47.50245" lon="8.00998" /><trkpt lat="47.50222" lon="8.01002" /><trkpt lat="47.50193" lon="8.01011" /><trkpt lat="47.50165" lon="8.01022" /><trkpt lat="47.50139" lon="8.01036" /><trkpt lat="47.50136" lon="8.01038" /><trkpt lat="47.50115" lon="8.01052" /><trkpt lat="47.50095" lon="8.01067" /><trkpt lat="47.50076" lon="8.01084" /><trkpt lat="47.50058" lon="8.01101" /><trkpt lat="47.50035" lon="8.01127" /><trkpt lat="47.50019" lon="8.01147" /><trkpt lat="47.50004" lon="8.01167" /><trkpt lat="47.49999" lon="8.01175" /><trkpt lat="47.49979" lon="8.01207" /><trkpt lat="47.49962" lon="8.0124" /><trkpt lat="47.49945" lon="8.01276" /><trkpt lat="47.49931" lon="8.01313" /><trkpt lat="47.49918" lon="8.01351" /><trkpt lat="47.49907" lon="8.01391" /><trkpt lat="47.49898" lon="8.01432" /><trkpt lat="47.49892" lon="8.01473" /><trkpt lat="47.49887" lon="8.01513" /><trkpt lat="47.49884" lon="8.01555" /><trkpt lat="47.49883" lon="8.01576" /><trkpt lat="47.49883" lon="8.01597" /><trkpt lat="47.49884" lon="8.01619" /><trkpt lat="47.49885" lon="8.01639" /><trkpt lat="47.49886" lon="8.01663" /><trkpt lat="47.49888" lon="8.01687" /><trkpt lat="47.49894" lon="8.01731" /><trkpt lat="47.49904" lon="8.01798" /><trkpt lat="47.4994" lon="8.02042" /><trkpt lat="47.49953" lon="8.02132" /><trkpt lat="47.49962" lon="8.02191" /><trkpt lat="47.49965" lon="8.02211" /><trkpt lat="47.50007" lon="8.02486" /><trkpt lat="47.50015" lon="8.02554" /><trkpt lat="47.50019" lon="8.02588" /><trkpt lat="47.50022" lon="8.02626" /><trkpt lat="47.50023" lon="8.02655" /><trkpt lat="47.50025" lon="8.02685" /><trkpt lat="47.50026" lon="8.02719" /><trkpt lat="47.50026" lon="8.0275" /><trkpt lat="47.50026" lon="8.02769" /><trkpt lat="47.50025" lon="8.02787" /><trkpt lat="47.50025" lon="8.02805" /><trkpt lat="47.50023" lon="8.02845" /><trkpt lat="47.50021" lon="8.0288" /><trkpt lat="47.50018" lon="8.02915" /><trkpt lat="47.50015" lon="8.02944" /><trkpt lat="47.50006" lon="8.03008" /><trkpt lat="47.49995" lon="8.03071" /><trkpt lat="47.49982" lon="8.03131" /><trkpt lat="47.49965" lon="8.03198" /><trkpt lat="47.49949" lon="8.03252" /><trkpt lat="47.49929" lon="8.0331" /><trkpt lat="47.49879" lon="8.03445" /><trkpt lat="47.49831" lon="8.03574" /><trkpt lat="47.49815" lon="8.03621" /><trkpt lat="47.49804" lon="8.03659" /><trkpt lat="47.49795" lon="8.03699" /><trkpt lat="47.49787" lon="8.03739" /><trkpt lat="47.49784" lon="8.03761" /><trkpt lat="47.49782" lon="8.0378" /><trkpt lat="47.4978" lon="8.03802" /><trkpt lat="47.49778" lon="8.03825" /><trkpt lat="47.49777" lon="8.03864" /><trkpt lat="47.49777" lon="8.03887" /><trkpt lat="47.49778" lon="8.03905" /><trkpt lat="47.4978" lon="8.03945" /><trkpt lat="47.49784" lon="8.03986" /><trkpt lat="47.49791" lon="8.04028" /><trkpt lat="47.49799" lon="8.04067" /><trkpt lat="47.49809" lon="8.04106" /><trkpt lat="47.49821" lon="8.04144" /><trkpt lat="47.49839" lon="8.0419" /><trkpt lat="47.49854" lon="8.04229" /><trkpt lat="47.499" lon="8.0434" /><trkpt lat="47.49916" lon="8.04382" /><trkpt lat="47.4993" lon="8.04421" /><trkpt lat="47.49942" lon="8.04465" /><trkpt lat="47.49954" lon="8.04512" /><trkpt lat="47.49992" lon="8.04721" /><trkpt lat="47.49997" lon="8.04746" /><trkpt lat="47.50025" lon="8.04901" /><trkpt lat="47.50027" lon="8.04914" /><trkpt lat="47.50049" lon="8.05032" /><trkpt lat="47.5006" lon="8.05096" /><trkpt lat="47.50071" lon="8.05153" /><trkpt lat="47.50077" lon="8.05204" /><trkpt lat="47.50081" lon="8.0525" /><trkpt lat="47.50083" lon="8.05296" /><trkpt lat="47.50083" lon="8.05321" /><trkpt lat="47.50083" lon="8.05342" /><trkpt lat="47.5008" lon="8.05385" /><trkpt lat="47.50076" lon="8.05432" /><trkpt lat="47.5007" lon="8.05474" /><trkpt lat="47.5007" lon="8.05474" /><trkpt lat="47.50062" lon="8.05511" /><trkpt lat="47.50052" lon="8.05549" /><trkpt lat="47.50041" lon="8.05582" /><trkpt lat="47.50027" lon="8.05615" /><trkpt lat="47.50015" lon="8.0564" /><trkpt lat="47.50002" lon="8.05664" /><trkpt lat="47.49987" lon="8.05687" /><trkpt lat="47.49971" lon="8.0571" /><trkpt lat="47.49926" lon="8.05767" /><trkpt lat="47.49881" lon="8.05822" /><trkpt lat="47.49814" lon="8.05904" /><trkpt lat="47.49747" lon="8.05987" /><trkpt lat="47.49612" lon="8.06148" /><trkpt lat="47.49604" lon="8.06158" /><trkpt lat="47.49551" lon="8.0622" /><trkpt lat="47.49526" lon="8.0625" /><trkpt lat="47.49502" lon="8.06278" /><trkpt lat="47.49481" lon="8.063" /><trkpt lat="47.4946" lon="8.0632" /><trkpt lat="47.49449" lon="8.0633" /><trkpt lat="47.49441" lon="8.06336" /><trkpt lat="47.49414" lon="8.06356" /><trkpt lat="47.49365" lon="8.06388" /><trkpt lat="47.49319" lon="8.06419" /><trkpt lat="47.4928" lon="8.06445" /><trkpt lat="47.49252" lon="8.06468" /><trkpt lat="47.49228" lon="8.0649" /><trkpt lat="47.49202" lon="8.06518" /><trkpt lat="47.49173" lon="8.06554" /><trkpt lat="47.49094" lon="8.06654" /><trkpt lat="47.49083" lon="8.06668" /><trkpt lat="47.49057" lon="8.06701" /><trkpt lat="47.4902" lon="8.06746" /><trkpt lat="47.48986" lon="8.06785" /><trkpt lat="47.48952" lon="8.0682" /><trkpt lat="47.48917" lon="8.06853" /><trkpt lat="47.489" lon="8.06867" /><trkpt lat="47.48879" lon="8.06884" /><trkpt lat="47.48857" lon="8.06899" /><trkpt lat="47.48838" lon="8.06912" /><trkpt lat="47.48797" lon="8.06937" /><trkpt lat="47.48752" lon="8.06962" /><trkpt lat="47.48703" lon="8.06989" /><trkpt lat="47.48636" lon="8.07026" /><trkpt lat="47.48619" lon="8.07035" /><trkpt lat="47.48557" lon="8.07069" /><trkpt lat="47.48473" lon="8.07115" /><trkpt lat="47.48457" lon="8.07124" /><trkpt lat="47.48431" lon="8.07139" /><trkpt lat="47.48415" lon="8.07148" /><trkpt lat="47.484" lon="8.07158" /><trkpt lat="47.48388" lon="8.07167" /><trkpt lat="47.48374" lon="8.07178" /><trkpt lat="47.4836" lon="8.0719" /><trkpt lat="47.48348" lon="8.07201" /><trkpt lat="47.48336" lon="8.07214" /><trkpt lat="47.48325" lon="8.07226" /><trkpt lat="47.48311" lon="8.07242" /><trkpt lat="47.483" lon="8.07256" /><trkpt lat="47.48289" lon="8.07271" /><trkpt lat="47.48277" lon="8.07289" /><trkpt lat="47.48264" lon="8.07308" /><trkpt lat="47.48178" lon="8.07436" /><trkpt lat="47.4808" lon="8.07582" /><trkpt lat="47.48069" lon="8.07597" /><trkpt lat="47.47979" lon="8.07731" /><trkpt lat="47.47874" lon="8.07888" /><trkpt lat="47.47861" lon="8.07907" /><trkpt lat="47.47848" lon="8.07927" /><trkpt lat="47.47838" lon="8.07944" /><trkpt lat="47.47828" lon="8.07961" /><trkpt lat="47.47819" lon="8.07978" /><trkpt lat="47.47809" lon="8.07997" /><trkpt lat="47.47801" lon="8.08014" /><trkpt lat="47.47792" lon="8.08035" /><trkpt lat="47.47785" lon="8.08053" /><trkpt lat="47.47778" lon="8.08075" /><trkpt lat="47.47771" lon="8.08095" /><trkpt lat="47.47765" lon="8.08117" /><trkpt lat="47.47761" lon="8.08132" /><trkpt lat="47.47757" lon="8.08149" /><trkpt lat="47.47752" lon="8.08171" /><trkpt lat="47.47749" lon="8.08186" /><trkpt lat="47.47746" lon="8.08203" /><trkpt lat="47.47743" lon="8.08225" /><trkpt lat="47.4774" lon="8.08245" /><trkpt lat="47.47738" lon="8.08268" /><trkpt lat="47.47737" lon="8.08292" /><trkpt lat="47.47736" lon="8.08313" /><trkpt lat="47.47735" lon="8.08335" /><trkpt lat="47.47736" lon="8.0836" /><trkpt lat="47.47736" lon="8.08385" /><trkpt lat="47.47738" lon="8.08407" /><trkpt lat="47.4774" lon="8.08431" /><trkpt lat="47.47742" lon="8.08452" /><trkpt lat="47.47746" lon="8.08475" /><trkpt lat="47.47749" lon="8.08496" /><trkpt lat="47.47753" lon="8.08516" /><trkpt lat="47.47756" lon="8.08531" /><trkpt lat="47.4776" lon="8.08545" /><trkpt lat="47.47764" lon="8.0856" /><trkpt lat="47.47767" lon="8.08571" /><trkpt lat="47.4777" lon="8.08582" /><trkpt lat="47.47776" lon="8.08601" /><trkpt lat="47.47779" lon="8.08612" /><trkpt lat="47.47784" lon="8.08624" /><trkpt lat="47.47792" lon="8.08646" /><trkpt lat="47.47799" lon="8.08663" /><trkpt lat="47.47809" lon="8.08683" /><trkpt lat="47.47816" lon="8.08699" /><trkpt lat="47.47825" lon="8.08716" /><trkpt lat="47.47832" lon="8.08728" /><trkpt lat="47.47839" lon="8.0874" /><trkpt lat="47.47857" lon="8.08771" /><trkpt lat="47.47923" lon="8.08878" /><trkpt lat="47.47934" lon="8.08896" /><trkpt lat="47.47943" lon="8.08911" /><trkpt lat="47.47951" lon="8.08925" /><trkpt lat="47.4796" lon="8.08941" /><trkpt lat="47.47969" lon="8.08958" /><trkpt lat="47.47977" lon="8.08974" /><trkpt lat="47.47985" lon="8.08992" /><trkpt lat="47.47991" lon="8.09007" /><trkpt lat="47.47997" lon="8.09022" /><trkpt lat="47.48003" lon="8.09038" /><trkpt lat="47.48009" lon="8.09055" /><trkpt lat="47.48015" lon="8.09074" /><trkpt lat="47.48021" lon="8.09094" /><trkpt lat="47.48026" lon="8.09114" /><trkpt lat="47.4803" lon="8.09133" /><trkpt lat="47.48034" lon="8.09152" /><trkpt lat="47.48038" lon="8.09171" /><trkpt lat="47.48041" lon="8.09189" /><trkpt lat="47.48043" lon="8.09207" /><trkpt lat="47.48045" lon="8.09226" /><trkpt lat="47.48047" lon="8.09246" /><trkpt lat="47.48048" lon="8.09266" /><trkpt lat="47.48049" lon="8.09286" /><trkpt lat="47.4805" lon="8.09304" /><trkpt lat="47.4805" lon="8.09323" /><trkpt lat="47.48049" lon="8.09338" /><trkpt lat="47.48049" lon="8.0935" /><trkpt lat="47.48049" lon="8.09362" /><trkpt lat="47.48047" lon="8.0938" /><trkpt lat="47.48046" lon="8.094" /><trkpt lat="47.48043" lon="8.0942" /><trkpt lat="47.48041" lon="8.09441" /><trkpt lat="47.48037" lon="8.09462" /><trkpt lat="47.48033" lon="8.09482" /><trkpt lat="47.4803" lon="8.09498" /><trkpt lat="47.48027" lon="8.09513" /><trkpt lat="47.48023" lon="8.09529" /><trkpt lat="47.48019" lon="8.09543" /><trkpt lat="47.48015" lon="8.09556" /><trkpt lat="47.48008" lon="8.09581" /><trkpt lat="47.48003" lon="8.09593" /><trkpt lat="47.48" lon="8.09603" /><trkpt lat="47.47993" lon="8.09621" /><trkpt lat="47.47987" lon="8.09637" /><trkpt lat="47.47979" lon="8.09656" /><trkpt lat="47.47971" lon="8.09675" /><trkpt lat="47.4796" lon="8.09699" /><trkpt lat="47.47949" lon="8.09721" /><trkpt lat="47.47938" lon="8.09743" /><trkpt lat="47.47927" lon="8.09766" /><trkpt lat="47.47918" lon="8.09783" /><trkpt lat="47.47905" lon="8.09808" /><trkpt lat="47.47892" lon="8.09833" /><trkpt lat="47.47876" lon="8.0986" /><trkpt lat="47.47862" lon="8.09884" /><trkpt lat="47.47851" lon="8.09902" /><trkpt lat="47.47838" lon="8.09922" /><trkpt lat="47.4782" lon="8.09945" /><trkpt lat="47.47809" lon="8.09959" /><trkpt lat="47.47799" lon="8.09969" /><trkpt lat="47.47787" lon="8.09983" /><trkpt lat="47.47775" lon="8.09995" /><trkpt lat="47.47764" lon="8.10005" /><trkpt lat="47.47755" lon="8.10012" /><trkpt lat="47.4774" lon="8.10024" /><trkpt lat="47.47729" lon="8.10032" /><trkpt lat="47.47712" lon="8.10044" /><trkpt lat="47.47696" lon="8.10055" /><trkpt lat="47.47609" lon="8.10115" /><trkpt lat="47.47551" lon="8.10156" /><trkpt lat="47.47529" lon="8.10171" /><trkpt lat="47.47511" lon="8.10183" /><trkpt lat="47.47494" lon="8.10195" /><trkpt lat="47.47477" lon="8.10207" /><trkpt lat="47.47443" lon="8.10233" /><trkpt lat="47.47417" lon="8.10255" /><trkpt lat="47.47396" lon="8.10273" /><trkpt lat="47.47376" lon="8.10291" /><trkpt lat="47.47365" lon="8.10301" /><trkpt lat="47.47331" lon="8.10336" /><trkpt lat="47.47313" lon="8.10354" /><trkpt lat="47.47291" lon="8.10378" /><trkpt lat="47.47249" lon="8.10428" /><trkpt lat="47.47206" lon="8.10487" /><trkpt lat="47.4715" lon="8.10569" /><trkpt lat="47.45846" lon="8.12694" /><trkpt lat="47.45816" lon="8.12743" /><trkpt lat="47.45805" lon="8.12764" /><trkpt lat="47.45791" lon="8.1279" /><trkpt lat="47.45778" lon="8.12818" /><trkpt lat="47.45765" lon="8.12851" /><trkpt lat="47.45753" lon="8.12886" /><trkpt lat="47.45744" lon="8.12913" /><trkpt lat="47.45738" lon="8.12938" /><trkpt lat="47.45737" lon="8.12943" /><trkpt lat="47.45735" lon="8.12953" /><trkpt lat="47.45728" lon="8.12983" /><trkpt lat="47.45724" lon="8.13001" /><trkpt lat="47.45721" lon="8.13021" /><trkpt lat="47.45718" lon="8.13043" /><trkpt lat="47.45715" lon="8.13066" /><trkpt lat="47.45712" lon="8.13087" /><trkpt lat="47.4571" lon="8.1311" /><trkpt lat="47.45709" lon="8.13132" /><trkpt lat="47.45708" lon="8.13154" /><trkpt lat="47.45708" lon="8.13176" /><trkpt lat="47.45707" lon="8.13198" /><trkpt lat="47.45708" lon="8.13218" /><trkpt lat="47.45708" lon="8.13242" /><trkpt lat="47.4571" lon="8.13267" /><trkpt lat="47.45712" lon="8.13293" /><trkpt lat="47.45715" lon="8.13325" /><trkpt lat="47.45718" lon="8.13355" /><trkpt lat="47.45738" lon="8.13525" /><trkpt lat="47.45744" lon="8.13577" /><trkpt lat="47.45749" lon="8.13623" /><trkpt lat="47.4575" lon="8.13643" /><trkpt lat="47.45751" lon="8.13658" /><trkpt lat="47.45752" lon="8.1367" /><trkpt lat="47.45753" lon="8.13715" /><trkpt lat="47.45752" lon="8.13761" /><trkpt lat="47.45751" lon="8.13789" /><trkpt lat="47.4575" lon="8.1382" /><trkpt lat="47.45749" lon="8.13852" /><trkpt lat="47.45749" lon="8.13878" /><trkpt lat="47.45748" lon="8.13904" /><trkpt lat="47.45746" lon="8.13944" /><trkpt lat="47.45746" lon="8.13954" /><trkpt lat="47.45743" lon="8.14018" /><trkpt lat="47.45742" lon="8.14054" /><trkpt lat="47.45741" lon="8.14076" /><trkpt lat="47.45741" lon="8.14102" /><trkpt lat="47.45741" lon="8.14126" /><trkpt lat="47.45743" lon="8.14176" /><trkpt lat="47.45745" lon="8.14199" /><trkpt lat="47.45747" lon="8.14226" /><trkpt lat="47.4575" lon="8.14251" /><trkpt lat="47.45753" lon="8.14277" /><trkpt lat="47.45756" lon="8.14303" /><trkpt lat="47.4576" lon="8.14328" /><trkpt lat="47.45765" lon="8.14354" /><trkpt lat="47.4577" lon="8.1438" /><trkpt lat="47.45776" lon="8.14407" /><trkpt lat="47.45782" lon="8.14434" /><trkpt lat="47.45789" lon="8.14458" /><trkpt lat="47.45796" lon="8.14484" /><trkpt lat="47.45803" lon="8.14507" /><trkpt lat="47.45811" lon="8.14531" /><trkpt lat="47.4582" lon="8.14556" /><trkpt lat="47.4583" lon="8.14582" /><trkpt lat="47.4584" lon="8.14605" /><trkpt lat="47.4585" lon="8.14628" /><trkpt lat="47.4586" lon="8.14651" /><trkpt lat="47.45871" lon="8.14672" /><trkpt lat="47.45882" lon="8.14693" /><trkpt lat="47.45894" lon="8.14713" /><trkpt lat="47.45906" lon="8.14734" /><trkpt lat="47.45918" lon="8.14755" /><trkpt lat="47.45976" lon="8.14845" /><trkpt lat="47.46064" lon="8.14983" /><trkpt lat="47.46111" lon="8.15057" /><trkpt lat="47.46145" lon="8.15107" /><trkpt lat="47.46166" lon="8.15134" /><trkpt lat="47.4619" lon="8.1516" /><trkpt lat="47.46214" lon="8.15183" /><trkpt lat="47.46239" lon="8.15203" /><trkpt lat="47.46266" lon="8.15221" /><trkpt lat="47.46291" lon="8.15235" /><trkpt lat="47.46309" lon="8.15243" /><trkpt lat="47.46337" lon="8.15253" /><trkpt lat="47.46344" lon="8.15255" /><trkpt lat="47.4637" lon="8.15261" /><trkpt lat="47.46396" lon="8.15265" /><trkpt lat="47.46426" lon="8.15265" /><trkpt lat="47.46456" lon="8.15264" /><trkpt lat="47.46535" lon="8.15259" /><trkpt lat="47.46672" lon="8.1525" /><trkpt lat="47.46769" lon="8.15243" /><trkpt lat="47.46828" lon="8.15239" /><trkpt lat="47.46994" lon="8.15228" /><trkpt lat="47.47012" lon="8.15227" /><trkpt lat="47.47039" lon="8.15227" /><trkpt lat="47.47042" lon="8.15227" /><trkpt lat="47.47064" lon="8.15229" /><trkpt lat="47.4708" lon="8.15231" /><trkpt lat="47.47087" lon="8.15233" /><trkpt lat="47.4711" lon="8.15238" /><trkpt lat="47.47139" lon="8.15248" /><trkpt lat="47.47166" lon="8.15261" /><trkpt lat="47.47188" lon="8.15274" /><trkpt lat="47.47206" lon="8.15285" /><trkpt lat="47.47218" lon="8.15294" /><trkpt lat="47.47237" lon="8.1531" /><trkpt lat="47.47254" lon="8.15325" /><trkpt lat="47.47273" lon="8.15345" /><trkpt lat="47.47296" lon="8.15372" /><trkpt lat="47.47305" lon="8.15385" /><trkpt lat="47.47322" lon="8.1541" /><trkpt lat="47.47335" lon="8.15429" /><trkpt lat="47.47353" lon="8.15462" /><trkpt lat="47.47369" lon="8.15497" /><trkpt lat="47.47378" lon="8.15517" /><trkpt lat="47.47385" lon="8.15535" /><trkpt lat="47.47398" lon="8.15572" /><trkpt lat="47.47402" lon="8.15587" /><trkpt lat="47.4741" lon="8.15616" /><trkpt lat="47.47419" lon="8.15655" /><trkpt lat="47.47427" lon="8.15702" /><trkpt lat="47.4743" lon="8.15735" /><trkpt lat="47.47434" lon="8.15768" /><trkpt lat="47.47435" lon="8.15794" /><trkpt lat="47.47435" lon="8.15818" /><trkpt lat="47.47433" lon="8.1586" /><trkpt lat="47.4743" lon="8.15913" /><trkpt lat="47.47428" lon="8.15945" /><trkpt lat="47.47426" lon="8.15967" /><trkpt lat="47.47422" lon="8.16001" /><trkpt lat="47.47419" lon="8.16047" /><trkpt lat="47.47419" lon="8.16073" /><trkpt lat="47.4742" lon="8.16108" /><trkpt lat="47.47422" lon="8.1615" /><trkpt lat="47.47427" lon="8.16202" /><trkpt lat="47.47432" lon="8.16233" /><trkpt lat="47.4744" lon="8.16271" /><trkpt lat="47.47446" lon="8.16296" /><trkpt lat="47.47454" lon="8.16326" /><trkpt lat="47.47461" lon="8.16348" /><trkpt lat="47.47469" lon="8.16372" /><trkpt lat="47.47476" lon="8.16392" /><trkpt lat="47.47479" lon="8.164" /><trkpt lat="47.47553" lon="8.16615" /><trkpt lat="47.47565" lon="8.16649" /><trkpt lat="47.47584" lon="8.16707" /><trkpt lat="47.47604" lon="8.16769" /><trkpt lat="47.4762" lon="8.16831" /><trkpt lat="47.47639" lon="8.16902" /><trkpt lat="47.47653" lon="8.16964" /><trkpt lat="47.47788" lon="8.17528" /><trkpt lat="47.47841" lon="8.1775" /><trkpt lat="47.47846" lon="8.17771" /><trkpt lat="47.47869" lon="8.1787" /><trkpt lat="47.47922" lon="8.18091" /><trkpt lat="47.47929" lon="8.18119" /><trkpt lat="47.47941" lon="8.18168" /><trkpt lat="47.47954" lon="8.18215" /><trkpt lat="47.47968" lon="8.18257" /><trkpt lat="47.47985" lon="8.18298" /><trkpt lat="47.48002" lon="8.18339" /><trkpt lat="47.48022" lon="8.18377" /><trkpt lat="47.48049" lon="8.18423" /><trkpt lat="47.48077" lon="8.18466" /><trkpt lat="47.48166" lon="8.18602" /><trkpt lat="47.48182" lon="8.18627" /><trkpt lat="47.4828" lon="8.18776" /><trkpt lat="47.4831" lon="8.18823" /><trkpt lat="47.48335" lon="8.18865" /><trkpt lat="47.48353" lon="8.189" /><trkpt lat="47.48371" lon="8.18939" /><trkpt lat="47.48372" lon="8.18942" /><trkpt lat="47.48386" lon="8.18978" /><trkpt lat="47.48401" lon="8.19019" /><trkpt lat="47.48413" lon="8.19061" /><trkpt lat="47.48414" lon="8.19063" /><trkpt lat="47.48424" lon="8.19105" /><trkpt lat="47.48431" lon="8.19139" /><trkpt lat="47.48435" lon="8.19174" /><trkpt lat="47.48439" lon="8.19211" /><trkpt lat="47.4844" lon="8.19249" /><trkpt lat="47.48438" lon="8.19286" /><trkpt lat="47.48435" lon="8.1932" /><trkpt lat="47.48431" lon="8.19352" /><trkpt lat="47.48425" lon="8.19383" /><trkpt lat="47.48416" lon="8.19418" /><trkpt lat="47.48407" lon="8.19447" /><trkpt lat="47.48396" lon="8.19476" /><trkpt lat="47.48384" lon="8.19505" /><trkpt lat="47.48361" lon="8.19553" /><trkpt lat="47.48346" lon="8.19579" /><trkpt lat="47.48329" lon="8.19606" /><trkpt lat="47.48312" lon="8.19631" /><trkpt lat="47.48309" lon="8.19635" /><trkpt lat="47.48307" lon="8.19637" /><trkpt lat="47.48296" lon="8.19651" /><trkpt lat="47.48273" lon="8.19676" /><trkpt lat="47.48256" lon="8.19694" /><trkpt lat="47.48238" lon="8.1971" /><trkpt lat="47.48161" lon="8.19777" /><trkpt lat="47.48154" lon="8.19783" /><trkpt lat="47.48115" lon="8.19818" /><trkpt lat="47.48078" lon="8.19852" /><trkpt lat="47.48056" lon="8.1987" /><trkpt lat="47.48012" lon="8.19909" /><trkpt lat="47.47987" lon="8.19931" /><trkpt lat="47.47968" lon="8.19947" /><trkpt lat="47.4796" lon="8.19954" /><trkpt lat="47.4795" lon="8.19963" /><trkpt lat="47.47939" lon="8.19973" /><trkpt lat="47.47929" lon="8.19983" /><trkpt lat="47.47921" lon="8.19992" /><trkpt lat="47.4791" lon="8.20004" /><trkpt lat="47.47901" lon="8.20015" /><trkpt lat="47.47892" lon="8.20027" /><trkpt lat="47.47882" lon="8.20041" /><trkpt lat="47.47873" lon="8.20056" /><trkpt lat="47.47863" lon="8.20073" /><trkpt lat="47.47854" lon="8.2009" /><trkpt lat="47.47846" lon="8.20106" /><trkpt lat="47.47843" lon="8.20113" /><trkpt lat="47.47838" lon="8.20123" /><trkpt lat="47.47833" lon="8.20135" /><trkpt lat="47.47827" lon="8.20152" /><trkpt lat="47.47819" lon="8.20174" /><trkpt lat="47.47813" lon="8.20194" /><trkpt lat="47.47807" lon="8.20217" /><trkpt lat="47.47803" lon="8.20237" /><trkpt lat="47.478" lon="8.2025" /><trkpt lat="47.47797" lon="8.20272" /><trkpt lat="47.47794" lon="8.20291" /><trkpt lat="47.47792" lon="8.20313" /><trkpt lat="47.4779" lon="8.20332" /><trkpt lat="47.47789" lon="8.20354" /><trkpt lat="47.47789" lon="8.20379" /><trkpt lat="47.4779" lon="8.20402" /><trkpt lat="47.47792" lon="8.20424" /><trkpt lat="47.47794" lon="8.20445" /><trkpt lat="47.47796" lon="8.20465" /><trkpt lat="47.47799" lon="8.20484" /><trkpt lat="47.47801" lon="8.20494" /><trkpt lat="47.47805" lon="8.20513" /><trkpt lat="47.47809" lon="8.20528" /><trkpt lat="47.47813" lon="8.20544" /><trkpt lat="47.47818" lon="8.20558" /><trkpt lat="47.47823" lon="8.20576" /><trkpt lat="47.47829" lon="8.2059" /><trkpt lat="47.47834" lon="8.20604" /><trkpt lat="47.47837" lon="8.2061" /><trkpt lat="47.4784" lon="8.20618" /><trkpt lat="47.47846" lon="8.20631" /><trkpt lat="47.47853" lon="8.20646" /><trkpt lat="47.47861" lon="8.2066" /><trkpt lat="47.47869" lon="8.20675" /><trkpt lat="47.47877" lon="8.20689" /><trkpt lat="47.47885" lon="8.20703" /><trkpt lat="47.47892" lon="8.20714" /><trkpt lat="47.479" lon="8.20727" /><trkpt lat="47.47907" lon="8.20736" /><trkpt lat="47.47916" lon="8.20748" /><trkpt lat="47.47925" lon="8.20759" /><trkpt lat="47.47935" lon="8.2077" /><trkpt lat="47.47943" lon="8.20777" /><trkpt lat="47.4795" lon="8.20784" /><trkpt lat="47.47957" lon="8.2079" /><trkpt lat="47.47962" lon="8.20795" /><trkpt lat="47.4797" lon="8.20801" /><trkpt lat="47.47977" lon="8.20807" /><trkpt lat="47.48099" lon="8.20906" /><trkpt lat="47.48173" lon="8.20967" /><trkpt lat="47.4818" lon="8.20973" /><trkpt lat="47.48187" lon="8.20979" /><trkpt lat="47.48194" lon="8.20985" /><trkpt lat="47.48199" lon="8.20989" /><trkpt lat="47.48204" lon="8.20995" /><trkpt lat="47.48211" lon="8.21001" /><trkpt lat="47.48217" lon="8.21009" /><trkpt lat="47.48224" lon="8.21017" /><trkpt lat="47.48231" lon="8.21025" /><trkpt lat="47.48237" lon="8.21033" /><trkpt lat="47.48243" lon="8.21042" /><trkpt lat="47.48249" lon="8.2105" /><trkpt lat="47.48255" lon="8.2106" /><trkpt lat="47.48262" lon="8.21072" /><trkpt lat="47.48268" lon="8.21082" /><trkpt lat="47.48272" lon="8.21091" /><trkpt lat="47.48277" lon="8.21101" /><trkpt lat="47.48282" lon="8.21112" /><trkpt lat="47.48287" lon="8.21124" /><trkpt lat="47.4829" lon="8.21132" /><trkpt lat="47.48294" lon="8.21144" /><trkpt lat="47.48297" lon="8.21153" /><trkpt lat="47.48301" lon="8.21165" /><trkpt lat="47.48305" lon="8.21178" /><trkpt lat="47.48308" lon="8.2119" /><trkpt lat="47.48311" lon="8.21204" /><trkpt lat="47.48314" lon="8.21217" /><trkpt lat="47.48316" lon="8.21231" /><trkpt lat="47.48318" lon="8.21246" /><trkpt lat="47.4832" lon="8.21262" /><trkpt lat="47.48322" lon="8.21277" /><trkpt lat="47.48323" lon="8.2129" /><trkpt lat="47.48323" lon="8.21302" /><trkpt lat="47.48324" lon="8.21318" /><trkpt lat="47.48325" lon="8.21332" /><trkpt lat="47.48325" lon="8.2135" /><trkpt lat="47.48325" lon="8.21367" /><trkpt lat="47.48325" lon="8.21389" /><trkpt lat="47.48325" lon="8.21413" /><trkpt lat="47.48325" lon="8.21446" /><trkpt lat="47.48325" lon="8.21497" /><trkpt lat="47.48326" lon="8.21558" /><trkpt lat="47.48326" lon="8.21587" /><trkpt lat="47.48327" lon="8.21624" /><trkpt lat="47.48331" lon="8.2172" /><trkpt lat="47.4834" lon="8.21906" /><trkpt lat="47.48341" lon="8.21929" /><trkpt lat="47.48343" lon="8.21952" /><trkpt lat="47.48347" lon="8.21983" /><trkpt lat="47.4836" lon="8.22079" /><trkpt lat="47.48429" lon="8.22524" /><trkpt lat="47.48438" lon="8.22573" /><trkpt lat="47.48447" lon="8.2262" /><trkpt lat="47.48459" lon="8.22668" /><trkpt lat="47.48473" lon="8.22714" /><trkpt lat="47.48489" lon="8.2276" /><trkpt lat="47.48507" lon="8.22802" /><trkpt lat="47.48526" lon="8.22842" /><trkpt lat="47.48551" lon="8.2289" /><trkpt lat="47.49023" lon="8.2376" /><trkpt lat="47.49077" lon="8.2386" /><trkpt lat="47.49188" lon="8.24063" /><trkpt lat="47.49224" lon="8.24133" /><trkpt lat="47.49242" lon="8.2417" /><trkpt lat="47.49258" lon="8.24207" /><trkpt lat="47.49276" lon="8.24256" /><trkpt lat="47.49294" lon="8.24311" /><trkpt lat="47.49303" lon="8.24346" /><trkpt lat="47.49315" lon="8.24398" /><trkpt lat="47.49325" lon="8.2445" /><trkpt lat="47.49333" lon="8.24503" /><trkpt lat="47.49335" lon="8.24522" /><trkpt lat="47.49337" lon="8.24538" /><trkpt lat="47.49338" lon="8.24556" /><trkpt lat="47.49339" lon="8.24572" /><trkpt lat="47.4934" lon="8.24588" /><trkpt lat="47.49341" lon="8.24604" /><trkpt lat="47.49341" lon="8.2462" /><trkpt lat="47.49342" lon="8.24634" /><trkpt lat="47.49342" lon="8.24647" /><trkpt lat="47.49342" lon="8.24664" /><trkpt lat="47.49342" lon="8.24676" /><trkpt lat="47.49341" lon="8.24689" /><trkpt lat="47.49341" lon="8.24703" /><trkpt lat="47.4934" lon="8.24722" /><trkpt lat="47.49337" lon="8.24753" /><trkpt lat="47.49337" lon="8.24763" /><trkpt lat="47.49334" lon="8.24788" /><trkpt lat="47.49332" lon="8.24806" /><trkpt lat="47.49329" lon="8.24824" /><trkpt lat="47.49327" lon="8.24841" /><trkpt lat="47.49325" lon="8.24854" /><trkpt lat="47.49322" lon="8.24866" /><trkpt lat="47.49321" lon="8.24876" /><trkpt lat="47.49318" lon="8.2489" /><trkpt lat="47.49315" lon="8.24905" /><trkpt lat="47.49312" lon="8.24917" /><trkpt lat="47.49309" lon="8.24932" /><trkpt lat="47.49305" lon="8.24946" /><trkpt lat="47.49302" lon="8.24958" /><trkpt lat="47.49296" lon="8.24979" /><trkpt lat="47.4929" lon="8.25" /><trkpt lat="47.49284" lon="8.25019" /><trkpt lat="47.49267" lon="8.25066" /><trkpt lat="47.4923" lon="8.25173" /><trkpt lat="47.49228" lon="8.25176" /><trkpt lat="47.49217" lon="8.25208" /><trkpt lat="47.49212" lon="8.25223" /><trkpt lat="47.49208" lon="8.25233" /><trkpt lat="47.49204" lon="8.25245" /><trkpt lat="47.49201" lon="8.25256" /><trkpt lat="47.49188" lon="8.25295" /><trkpt lat="47.49141" lon="8.25439" /><trkpt lat="47.49129" lon="8.25477" /><trkpt lat="47.49124" lon="8.25494" /><trkpt lat="47.49117" lon="8.25515" /><trkpt lat="47.49109" lon="8.25542" /><trkpt lat="47.49097" lon="8.25584" /><trkpt lat="47.49079" lon="8.25647" /><trkpt lat="47.4907" lon="8.25673" /><trkpt lat="47.49064" lon="8.25694" /><trkpt lat="47.49051" lon="8.25736" /><trkpt lat="47.49042" lon="8.25764" /><trkpt lat="47.48997" lon="8.25891" /><trkpt lat="47.48987" lon="8.25919" /><trkpt lat="47.48976" lon="8.2595" /><trkpt lat="47.48965" lon="8.25981" /><trkpt lat="47.48955" lon="8.26008" /><trkpt lat="47.48949" lon="8.26027" /><trkpt lat="47.48944" lon="8.26045" /><trkpt lat="47.48938" lon="8.26063" /><trkpt lat="47.48929" lon="8.26088" /><trkpt lat="47.48907" lon="8.26146" /><trkpt lat="47.489" lon="8.26163" /><trkpt lat="47.48746" lon="8.2657" /><trkpt lat="47.4873" lon="8.26612" /><trkpt lat="47.48712" lon="8.26652" /><trkpt lat="47.48694" lon="8.26688" /><trkpt lat="47.48674" lon="8.26723" /><trkpt lat="47.48656" lon="8.26749" /><trkpt lat="47.48637" lon="8.26774" /><trkpt lat="47.48615" lon="8.26799" /><trkpt lat="47.48593" lon="8.26822" /><trkpt lat="47.48564" lon="8.26845" /><trkpt lat="47.48489" lon="8.26902" /><trkpt lat="47.48467" lon="8.26918" /><trkpt lat="47.48446" lon="8.26937" /><trkpt lat="47.48424" lon="8.26958" /><trkpt lat="47.48407" lon="8.26978" /><trkpt lat="47.48386" lon="8.27005" /><trkpt lat="47.48365" lon="8.27037" /><trkpt lat="47.48347" lon="8.27067" /><trkpt lat="47.4833" lon="8.27101" /><trkpt lat="47.48315" lon="8.27134" /><trkpt lat="47.48302" lon="8.2717" /><trkpt lat="47.48289" lon="8.27212" /><trkpt lat="47.48279" lon="8.27253" /><trkpt lat="47.48269" lon="8.27299" /><trkpt lat="47.48256" lon="8.2738" /><trkpt lat="47.48254" lon="8.274" /><trkpt lat="47.48254" lon="8.274" /><trkpt lat="47.48254" lon="8.274" /><trkpt lat="47.48246" lon="8.27462" /><trkpt lat="47.48242" lon="8.27498" /><trkpt lat="47.4824" lon="8.27536" /><trkpt lat="47.48238" lon="8.27579" /><trkpt lat="47.48239" lon="8.27623" /><trkpt lat="47.48242" lon="8.27662" /><trkpt lat="47.48246" lon="8.27698" /><trkpt lat="47.48253" lon="8.27735" /><trkpt lat="47.48262" lon="8.27778" /><trkpt lat="47.48373" lon="8.2823" /><trkpt lat="47.48384" lon="8.28281" /><trkpt lat="47.48395" lon="8.28337" /><trkpt lat="47.48402" lon="8.28392" /><trkpt lat="47.48405" lon="8.28422" /><trkpt lat="47.48407" lon="8.28453" /><trkpt lat="47.48408" lon="8.28485" /><trkpt lat="47.48408" lon="8.28518" /><trkpt lat="47.48407" lon="8.28572" /><trkpt lat="47.48402" lon="8.28644" /><trkpt lat="47.48347" lon="8.29372" /><trkpt lat="47.4834" lon="8.29453" /><trkpt lat="47.48331" lon="8.29534" /><trkpt lat="47.48306" lon="8.29713" /><trkpt lat="47.48297" lon="8.29763" /><trkpt lat="47.48285" lon="8.29812" /><trkpt lat="47.48271" lon="8.29855" /><trkpt lat="47.48255" lon="8.29896" /><trkpt lat="47.48233" lon="8.29944" /><trkpt lat="47.48201" lon="8.30004" /><trkpt lat="47.48175" lon="8.30054" /><trkpt lat="47.48159" lon="8.3009" /><trkpt lat="47.48144" lon="8.30127" /><trkpt lat="47.48132" lon="8.30165" /><trkpt lat="47.48121" lon="8.30207" /><trkpt lat="47.4811" lon="8.30257" /><trkpt lat="47.48104" lon="8.30285" /><trkpt lat="47.48067" lon="8.30454" /><trkpt lat="47.48059" lon="8.30492" /><trkpt lat="47.48049" lon="8.3053" /><trkpt lat="47.48036" lon="8.30568" /><trkpt lat="47.48032" lon="8.30578" /><trkpt lat="47.48019" lon="8.30608" /><trkpt lat="47.48001" lon="8.30637" /><trkpt lat="47.4798" lon="8.30668" /><trkpt lat="47.47976" lon="8.30674" /><trkpt lat="47.47957" lon="8.30697" /><trkpt lat="47.47932" lon="8.3072" /><trkpt lat="47.47916" lon="8.30733" /><trkpt lat="47.47897" lon="8.30744" /><trkpt lat="47.47877" lon="8.30756" /><trkpt lat="47.47859" lon="8.30763" /><trkpt lat="47.47839" lon="8.30768" /><trkpt lat="47.47828" lon="8.3077" /><trkpt lat="47.47817" lon="8.30771" /><trkpt lat="47.47798" lon="8.3077" /><trkpt lat="47.4778" lon="8.30767" /><trkpt lat="47.47767" lon="8.30764" /><trkpt lat="47.47708" lon="8.30748" /><trkpt lat="47.47649" lon="8.30731" /><trkpt lat="47.47559" lon="8.30706" /><trkpt lat="47.4754" lon="8.307" /><trkpt lat="47.47489" lon="8.30683" /><trkpt lat="47.47461" lon="8.30674" /><trkpt lat="47.47433" lon="8.30663" /><trkpt lat="47.4742" lon="8.30657" /><trkpt lat="47.47408" lon="8.30651" /><trkpt lat="47.47393" lon="8.30644" /><trkpt lat="47.47339" lon="8.30616" /><trkpt lat="47.47337" lon="8.30615" /><trkpt lat="47.47255" lon="8.30567" /><trkpt lat="47.47187" lon="8.30531" /><trkpt lat="47.47138" lon="8.30509" /><trkpt lat="47.47088" lon="8.30491" /><trkpt lat="47.47026" lon="8.30474" /><trkpt lat="47.46978" lon="8.30467" /><trkpt lat="47.46931" lon="8.30462" /><trkpt lat="47.46874" lon="8.30462" /><trkpt lat="47.46828" lon="8.30467" /><trkpt lat="47.46777" lon="8.30473" /><trkpt lat="47.46729" lon="8.30486" /><trkpt lat="47.46688" lon="8.30502" /><trkpt lat="47.46653" lon="8.3052" /><trkpt lat="47.46618" lon="8.30543" /><trkpt lat="47.46581" lon="8.30569" /><trkpt lat="47.46545" lon="8.30604" /><trkpt lat="47.46521" lon="8.30631" /><trkpt lat="47.46497" lon="8.30661" /><trkpt lat="47.46476" lon="8.3069" /><trkpt lat="47.46455" lon="8.30722" /><trkpt lat="47.46433" lon="8.30757" /><trkpt lat="47.46422" lon="8.30776" /><trkpt lat="47.46401" lon="8.3081" /><trkpt lat="47.46333" lon="8.30925" /><trkpt lat="47.46303" lon="8.30976" /><trkpt lat="47.46289" lon="8.31002" /><trkpt lat="47.46281" lon="8.3102" /><trkpt lat="47.46243" lon="8.31083" /><trkpt lat="47.46138" lon="8.31259" /><trkpt lat="47.4611" lon="8.31305" /><trkpt lat="47.45986" lon="8.31507" /><trkpt lat="47.45937" lon="8.31591" /><trkpt lat="47.45915" lon="8.31629" /><trkpt lat="47.45884" lon="8.31683" /><trkpt lat="47.45873" lon="8.31703" /><trkpt lat="47.45856" lon="8.31732" /><trkpt lat="47.45852" lon="8.31738" /><trkpt lat="47.45824" lon="8.31786" /><trkpt lat="47.45818" lon="8.31795" /><trkpt lat="47.457" lon="8.31994" /><trkpt lat="47.45606" lon="8.32152" /><trkpt lat="47.45589" lon="8.32181" /><trkpt lat="47.45585" lon="8.32187" /><trkpt lat="47.45574" lon="8.32208" /><trkpt lat="47.45555" lon="8.32244" /><trkpt lat="47.45541" lon="8.32272" /><trkpt lat="47.4553" lon="8.32296" /><trkpt lat="47.45524" lon="8.3231" /><trkpt lat="47.45514" lon="8.32333" /><trkpt lat="47.45505" lon="8.32357" /><trkpt lat="47.45482" lon="8.32419" /><trkpt lat="47.45436" lon="8.32548" /><trkpt lat="47.45427" lon="8.32576" /><trkpt lat="47.454" lon="8.32651" /><trkpt lat="47.45388" lon="8.32683" /><trkpt lat="47.4537" lon="8.32729" /><trkpt lat="47.45362" lon="8.32749" /><trkpt lat="47.45353" lon="8.32769" /><trkpt lat="47.45342" lon="8.32794" /><trkpt lat="47.45327" lon="8.32822" /><trkpt lat="47.45311" lon="8.32851" /><trkpt lat="47.45298" lon="8.32874" /><trkpt lat="47.45283" lon="8.32899" /><trkpt lat="47.45271" lon="8.32916" /><trkpt lat="47.45259" lon="8.32935" /><trkpt lat="47.45247" lon="8.3295" /><trkpt lat="47.45226" lon="8.32978" /><trkpt lat="47.45207" lon="8.32999" /><trkpt lat="47.45186" lon="8.33023" /><trkpt lat="47.45176" lon="8.33033" /><trkpt lat="47.45161" lon="8.33048" /><trkpt lat="47.45142" lon="8.33065" /><trkpt lat="47.45121" lon="8.33084" /><trkpt lat="47.45086" lon="8.33112" /><trkpt lat="47.45025" lon="8.33163" /><trkpt lat="47.44995" lon="8.33186" /><trkpt lat="47.44959" lon="8.33213" /><trkpt lat="47.44938" lon="8.33228" /><trkpt lat="47.44912" lon="8.33245" /><trkpt lat="47.44857" lon="8.33279" /><trkpt lat="47.44818" lon="8.33301" /><trkpt lat="47.448" lon="8.33311" /><trkpt lat="47.4471" lon="8.33355" /><trkpt lat="47.4462" lon="8.33404" /><trkpt lat="47.44568" lon="8.33437" /><trkpt lat="47.44496" lon="8.33488" /><trkpt lat="47.44448" lon="8.33527" /><trkpt lat="47.44397" lon="8.3357" /><trkpt lat="47.44348" lon="8.33616" /><trkpt lat="47.44314" lon="8.33649" /><trkpt lat="47.44229" lon="8.33742" /><trkpt lat="47.44052" lon="8.33942" /><trkpt lat="47.44002" lon="8.33999" /><trkpt lat="47.43964" lon="8.34046" /><trkpt lat="47.43926" lon="8.34096" /><trkpt lat="47.43899" lon="8.34134" /><trkpt lat="47.43882" lon="8.34158" /><trkpt lat="47.43839" lon="8.34223" /><trkpt lat="47.43817" lon="8.34259" /><trkpt lat="47.43805" lon="8.34278" /><trkpt lat="47.43791" lon="8.34303" /><trkpt lat="47.43766" lon="8.34348" /><trkpt lat="47.43744" lon="8.34388" /><trkpt lat="47.43718" lon="8.34444" /><trkpt lat="47.43694" lon="8.34498" /><trkpt lat="47.43683" lon="8.34525" /><trkpt lat="47.43671" lon="8.34557" /><trkpt lat="47.43663" lon="8.34576" /><trkpt lat="47.43649" lon="8.34614" /><trkpt lat="47.43637" lon="8.34649" /><trkpt lat="47.43634" lon="8.34658" /><trkpt lat="47.43595" lon="8.34765" /><trkpt lat="47.43514" lon="8.34993" /><trkpt lat="47.43429" lon="8.35234" /><trkpt lat="47.43359" lon="8.35428" /><trkpt lat="47.43256" lon="8.35718" /><trkpt lat="47.43229" lon="8.35793" /><trkpt lat="47.4316" lon="8.35987" /><trkpt lat="47.43152" lon="8.3601" /><trkpt lat="47.43138" lon="8.3605" /><trkpt lat="47.43132" lon="8.36064" /><trkpt lat="47.43085" lon="8.36194" /><trkpt lat="47.42484" lon="8.37875" /><trkpt lat="47.42372" lon="8.38188" /><trkpt lat="47.42318" lon="8.38339" /><trkpt lat="47.42293" lon="8.38408" /><trkpt lat="47.42277" lon="8.38449" /><trkpt lat="47.4226" lon="8.3849" /><trkpt lat="47.4223" lon="8.38556" /><trkpt lat="47.42177" lon="8.38652" /><trkpt lat="47.42147" lon="8.38701" /><trkpt lat="47.42115" lon="8.3875" /><trkpt lat="47.42103" lon="8.38767" /><trkpt lat="47.42091" lon="8.38783" /><trkpt lat="47.42066" lon="8.38817" /><trkpt lat="47.42036" lon="8.38857" /><trkpt lat="47.41977" lon="8.38936" /><trkpt lat="47.41897" lon="8.39046" /><trkpt lat="47.4122" lon="8.39983" /><trkpt lat="47.41183" lon="8.40033" /><trkpt lat="47.41147" lon="8.40084" /><trkpt lat="47.41129" lon="8.40108" /><trkpt lat="47.41119" lon="8.4012" /><trkpt lat="47.41109" lon="8.40133" /><trkpt lat="47.41093" lon="8.40153" /><trkpt lat="47.41076" lon="8.40173" /><trkpt lat="47.41061" lon="8.40191" /><trkpt lat="47.41044" lon="8.40208" /><trkpt lat="47.41013" lon="8.40241" /><trkpt lat="47.40998" lon="8.40256" /><trkpt lat="47.40982" lon="8.4027" /><trkpt lat="47.40952" lon="8.40298" /><trkpt lat="47.40936" lon="8.40311" /><trkpt lat="47.40921" lon="8.40324" /><trkpt lat="47.40906" lon="8.40335" /><trkpt lat="47.40889" lon="8.40347" /><trkpt lat="47.40873" lon="8.40359" /><trkpt lat="47.40859" lon="8.40369" /><trkpt lat="47.40819" lon="8.40395" /><trkpt lat="47.40796" lon="8.4041" /><trkpt lat="47.40779" lon="8.40421" /><trkpt lat="47.4075" lon="8.40439" /><trkpt lat="47.40724" lon="8.40454" /><trkpt lat="47.40698" lon="8.4047" /><trkpt lat="47.40665" lon="8.40489" /><trkpt lat="47.40629" lon="8.4051" /><trkpt lat="47.40591" lon="8.40531" /><trkpt lat="47.40465" lon="8.406" /><trkpt lat="47.4038" lon="8.40647" /><trkpt lat="47.40347" lon="8.40665" /><trkpt lat="47.40333" lon="8.40674" /><trkpt lat="47.40319" lon="8.40682" /><trkpt lat="47.40311" lon="8.40688" /><trkpt lat="47.40303" lon="8.40693" /><trkpt lat="47.40285" lon="8.40706" /><trkpt lat="47.40268" lon="8.40719" /><trkpt lat="47.40259" lon="8.40727" /><trkpt lat="47.40251" lon="8.40734" /><trkpt lat="47.40232" lon="8.40752" /><trkpt lat="47.40224" lon="8.4076" /><trkpt lat="47.40216" lon="8.40769" /><trkpt lat="47.40208" lon="8.40777" /><trkpt lat="47.40195" lon="8.40792" /><trkpt lat="47.40183" lon="8.40807" /><trkpt lat="47.40173" lon="8.4082" /><trkpt lat="47.40162" lon="8.40836" /><trkpt lat="47.40155" lon="8.40846" /><trkpt lat="47.40147" lon="8.40858" /><trkpt lat="47.40136" lon="8.40875" /><trkpt lat="47.40127" lon="8.40891" /><trkpt lat="47.4012" lon="8.40904" /><trkpt lat="47.40112" lon="8.40918" /><trkpt lat="47.40108" lon="8.40927" /><trkpt lat="47.40103" lon="8.40937" /><trkpt lat="47.40095" lon="8.40955" /><trkpt lat="47.40089" lon="8.40968" /><trkpt lat="47.40083" lon="8.40982" /><trkpt lat="47.40076" lon="8.41" /><trkpt lat="47.40069" lon="8.41019" /><trkpt lat="47.40064" lon="8.41032" /><trkpt lat="47.40059" lon="8.41046" /><trkpt lat="47.40055" lon="8.4106" /><trkpt lat="47.4005" lon="8.41075" /><trkpt lat="47.40047" lon="8.41088" /><trkpt lat="47.40043" lon="8.41102" /><trkpt lat="47.40039" lon="8.41117" /><trkpt lat="47.40035" lon="8.41134" /><trkpt lat="47.40032" lon="8.41149" /><trkpt lat="47.40026" lon="8.41176" /><trkpt lat="47.40023" lon="8.41196" /><trkpt lat="47.40019" lon="8.41219" /><trkpt lat="47.40012" lon="8.41263" /><trkpt lat="47.39943" lon="8.417" /><trkpt lat="47.39938" lon="8.41732" /><trkpt lat="47.39933" lon="8.41767" /><trkpt lat="47.39928" lon="8.41802" /><trkpt lat="47.39917" lon="8.41875" /><trkpt lat="47.39907" lon="8.41948" /><trkpt lat="47.399" lon="8.41995" /><trkpt lat="47.39893" lon="8.42042" /><trkpt lat="47.39867" lon="8.42208" /><trkpt lat="47.39844" lon="8.42348" /><trkpt lat="47.39821" lon="8.42489" /><trkpt lat="47.39816" lon="8.42521" /><trkpt lat="47.39811" lon="8.42554" /><trkpt lat="47.39807" lon="8.4258" /><trkpt lat="47.39805" lon="8.42599" /><trkpt lat="47.39802" lon="8.42618" /><trkpt lat="47.398" lon="8.42635" /><trkpt lat="47.39798" lon="8.42652" /><trkpt lat="47.39796" lon="8.42669" /><trkpt lat="47.39795" lon="8.42686" /><trkpt lat="47.39794" lon="8.427" /><trkpt lat="47.39793" lon="8.42712" /><trkpt lat="47.39792" lon="8.42723" /><trkpt lat="47.39791" lon="8.42745" /><trkpt lat="47.39789" lon="8.42772" /><trkpt lat="47.39789" lon="8.42799" /><trkpt lat="47.39789" lon="8.42805" /><trkpt lat="47.39789" lon="8.42827" /><trkpt lat="47.39789" lon="8.42848" /><trkpt lat="47.39789" lon="8.42862" /><trkpt lat="47.39789" lon="8.42876" /><trkpt lat="47.3979" lon="8.42891" /><trkpt lat="47.3979" lon="8.42905" /><trkpt lat="47.39791" lon="8.4292" /><trkpt lat="47.39792" lon="8.42934" /><trkpt lat="47.39793" lon="8.42951" /><trkpt lat="47.39794" lon="8.42963" /><trkpt lat="47.39796" lon="8.42979" /><trkpt lat="47.39797" lon="8.42993" /><trkpt lat="47.39799" lon="8.43008" /><trkpt lat="47.39803" lon="8.43049" /><trkpt lat="47.3981" lon="8.43113" /><trkpt lat="47.39812" lon="8.43134" /><trkpt lat="47.39817" lon="8.43177" /><trkpt lat="47.39821" lon="8.4322" /><trkpt lat="47.39824" lon="8.43266" /><trkpt lat="47.39828" lon="8.43313" /><trkpt lat="47.39832" lon="8.43368" /><trkpt lat="47.39837" lon="8.4343" /><trkpt lat="47.39841" lon="8.43493" /><trkpt lat="47.39849" lon="8.43589" /><trkpt lat="47.39853" lon="8.43627" /><trkpt lat="47.39869" lon="8.43824" /><trkpt lat="47.39882" lon="8.43958" /><trkpt lat="47.39886" lon="8.44003" /><trkpt lat="47.39895" lon="8.44092" /><trkpt lat="47.399" lon="8.44144" /><trkpt lat="47.39906" lon="8.44216" /><trkpt lat="47.39908" lon="8.44237" /><trkpt lat="47.39915" lon="8.44327" /><trkpt lat="47.39938" lon="8.4465" /><trkpt lat="47.39954" lon="8.44872" /><trkpt lat="47.39957" lon="8.44914" /><trkpt lat="47.39958" lon="8.44936" /><trkpt lat="47.39959" lon="8.44958" /><trkpt lat="47.39961" lon="8.45025" /><trkpt lat="47.39962" lon="8.45058" /><trkpt lat="47.39963" lon="8.45091" /><trkpt lat="47.39964" lon="8.45118" /><trkpt lat="47.39966" lon="8.4515" /><trkpt lat="47.39967" lon="8.45168" /><trkpt lat="47.39968" lon="8.45185" /><trkpt lat="47.39969" lon="8.45198" /><trkpt lat="47.3997" lon="8.4522" /><trkpt lat="47.39982" lon="8.45384" /><trkpt lat="47.39996" lon="8.45571" /><trkpt lat="47.39997" lon="8.45587" /><trkpt lat="47.39998" lon="8.45604" /><trkpt lat="47.39998" lon="8.45617" /><trkpt lat="47.39999" lon="8.4563" /><trkpt lat="47.4" lon="8.45645" /><trkpt lat="47.4" lon="8.45659" /><trkpt lat="47.4" lon="8.45673" /><trkpt lat="47.4" lon="8.45687" /><trkpt lat="47.4" lon="8.45704" /><trkpt lat="47.4" lon="8.45722" /><trkpt lat="47.4" lon="8.45736" /><trkpt lat="47.39999" lon="8.45756" /><trkpt lat="47.39998" lon="8.45774" /><trkpt lat="47.39996" lon="8.45793" /><trkpt lat="47.39995" lon="8.45811" /><trkpt lat="47.39993" lon="8.45828" /><trkpt lat="47.3999" lon="8.45859" /><trkpt lat="47.39986" lon="8.45889" /><trkpt lat="47.39982" lon="8.45913" /><trkpt lat="47.39977" lon="8.45942" /><trkpt lat="47.39973" lon="8.45962" /><trkpt lat="47.3997" lon="8.45974" /><trkpt lat="47.39967" lon="8.45986" /><trkpt lat="47.39962" lon="8.46009" /><trkpt lat="47.39955" lon="8.46037" /><trkpt lat="47.39951" lon="8.46053" /><trkpt lat="47.39947" lon="8.46069" /><trkpt lat="47.39938" lon="8.46099" /><trkpt lat="47.39927" lon="8.46139" /><trkpt lat="47.39915" lon="8.46179" /><trkpt lat="47.3989" lon="8.46263" /><trkpt lat="47.39856" lon="8.46377" /><trkpt lat="47.39844" lon="8.46417" /><trkpt lat="47.39832" lon="8.46457" /><trkpt lat="47.39822" lon="8.46495" /><trkpt lat="47.39812" lon="8.46532" /><trkpt lat="47.3968" lon="8.47021" /><trkpt lat="47.39496" lon="8.47702" /><trkpt lat="47.39489" lon="8.47728" /><trkpt lat="47.39412" lon="8.48014" /><trkpt lat="47.39409" lon="8.48027" /><trkpt lat="47.39381" lon="8.48132" /><trkpt lat="47.39377" lon="8.48145" /><trkpt lat="47.39293" lon="8.48474" /><trkpt lat="47.39257" lon="8.48617" /><trkpt lat="47.39233" lon="8.48711" /><trkpt lat="47.39177" lon="8.48921" /><trkpt lat="47.39128" lon="8.49103" /><trkpt lat="47.39117" lon="8.49146" /><trkpt lat="47.39113" lon="8.49161" /><trkpt lat="47.39107" lon="8.49184" /><trkpt lat="47.39094" lon="8.49243" /><trkpt lat="47.39085" lon="8.49285" /><trkpt lat="47.39082" lon="8.49302" /><trkpt lat="47.39078" lon="8.49319" /><trkpt lat="47.39073" lon="8.49351" /><trkpt lat="47.39067" lon="8.49386" /><trkpt lat="47.39057" lon="8.49451" /><trkpt lat="47.39037" lon="8.49583" /><trkpt lat="47.39031" lon="8.4962" /><trkpt lat="47.39025" lon="8.49659" /><trkpt lat="47.3902" lon="8.49685" /><trkpt lat="47.39016" lon="8.4971" /><trkpt lat="47.3901" lon="8.49738" /><trkpt lat="47.39004" lon="8.49766" /><trkpt lat="47.38997" lon="8.49795" /><trkpt lat="47.38988" lon="8.49831" /><trkpt lat="47.38979" lon="8.49863" /><trkpt lat="47.38969" lon="8.49896" /><trkpt lat="47.38931" lon="8.50022" /><trkpt lat="47.38796" lon="8.50478" /><trkpt lat="47.3879" lon="8.50498" /><trkpt lat="47.38784" lon="8.50519" /><trkpt lat="47.38776" lon="8.50543" /><trkpt lat="47.38771" lon="8.50556" /><trkpt lat="47.38766" lon="8.50571" /><trkpt lat="47.38758" lon="8.50592" /><trkpt lat="47.3875" lon="8.50612" /><trkpt lat="47.38744" lon="8.50626" /><trkpt lat="47.38739" lon="8.5064" /><trkpt lat="47.38714" lon="8.507" /><trkpt lat="47.38705" lon="8.50723" /><trkpt lat="47.38695" lon="8.50746" /><trkpt lat="47.38688" lon="8.50766" /><trkpt lat="47.38682" lon="8.50783" /><trkpt lat="47.38676" lon="8.508" /><trkpt lat="47.38671" lon="8.50816" /><trkpt lat="47.38665" lon="8.50835" /><trkpt lat="47.38659" lon="8.50855" /><trkpt lat="47.3865" lon="8.50887" /><trkpt lat="47.38641" lon="8.50922" /><trkpt lat="47.38634" lon="8.50948" /><trkpt lat="47.38626" lon="8.50976" /><trkpt lat="47.38521" lon="8.51366" /><trkpt lat="47.38512" lon="8.51401" /><trkpt lat="47.38503" lon="8.51434" /><trkpt lat="47.38487" lon="8.51503" /><trkpt lat="47.38482" lon="8.51523" /><trkpt lat="47.38477" lon="8.51544" /><trkpt lat="47.38472" lon="8.51565" /><trkpt lat="47.38467" lon="8.51585" /><trkpt lat="47.38463" lon="8.51602" /><trkpt lat="47.38458" lon="8.51619" /><trkpt lat="47.38457" lon="8.51623" /><trkpt lat="47.38444" lon="8.5167" /><trkpt lat="47.38436" lon="8.51703" /><trkpt lat="47.38415" lon="8.5178" /><trkpt lat="47.38406" lon="8.5181" /><trkpt lat="47.38397" lon="8.51841" /><trkpt lat="47.38395" lon="8.5185" /><trkpt lat="47.38391" lon="8.51859" /><trkpt lat="47.38388" lon="8.5187" /><trkpt lat="47.38384" lon="8.51881" /><trkpt lat="47.3838" lon="8.51892" /><trkpt lat="47.38372" lon="8.51914" /><trkpt lat="47.38367" lon="8.51927" /><trkpt lat="47.38361" lon="8.51942" /><trkpt lat="47.38355" lon="8.51957" /><trkpt lat="47.38348" lon="8.51971" /><trkpt lat="47.38341" lon="8.51984" /><trkpt lat="47.38335" lon="8.51996" /><trkpt lat="47.38329" lon="8.52007" /><trkpt lat="47.38321" lon="8.5202" /><trkpt lat="47.38316" lon="8.52028" /><trkpt lat="47.38311" lon="8.52035" /><trkpt lat="47.383" lon="8.5205" /><trkpt lat="47.38283" lon="8.52072" /><trkpt lat="47.38241" lon="8.52122" /><trkpt lat="47.38233" lon="8.52132" /><trkpt lat="47.38223" lon="8.52147" /><trkpt lat="47.38214" lon="8.5216" /><trkpt lat="47.38207" lon="8.52171" /><trkpt lat="47.382" lon="8.52183" /><trkpt lat="47.38194" lon="8.52195" /><trkpt lat="47.38188" lon="8.52208" /><trkpt lat="47.38182" lon="8.52221" /><trkpt lat="47.38177" lon="8.52234" /><trkpt lat="47.38172" lon="8.52248" /><trkpt lat="47.38167" lon="8.52261" /><trkpt lat="47.38163" lon="8.52275" /><trkpt lat="47.38159" lon="8.5229" /><trkpt lat="47.38155" lon="8.52304" /><trkpt lat="47.38152" lon="8.52319" /><trkpt lat="47.3815" lon="8.52334" /><trkpt lat="47.38147" lon="8.52349" /><trkpt lat="47.38146" lon="8.52364" /><trkpt lat="47.38144" lon="8.52379" /><trkpt lat="47.38143" lon="8.52386" /><trkpt lat="47.38143" lon="8.52394" /><trkpt lat="47.38143" lon="8.52401" /><trkpt lat="47.38142" lon="8.52409" /><trkpt lat="47.38142" lon="8.52424" /><trkpt lat="47.38142" lon="8.52441" /><trkpt lat="47.38142" lon="8.52451" /><trkpt lat="47.38142" lon="8.52462" /><trkpt lat="47.38142" lon="8.52486" /><trkpt lat="47.38144" lon="8.52562" /><trkpt lat="47.38144" lon="8.52615" /><trkpt lat="47.38144" lon="8.52638" /><trkpt lat="47.38144" lon="8.52655" /><trkpt lat="47.38144" lon="8.52664" /><trkpt lat="47.38143" lon="8.52673" /><trkpt lat="47.38143" lon="8.52681" /><trkpt lat="47.38142" lon="8.52691" /><trkpt lat="47.38141" lon="8.52706" /><trkpt lat="47.3814" lon="8.52717" /><trkpt lat="47.38138" lon="8.52728" /><trkpt lat="47.38137" lon="8.52739" /><trkpt lat="47.38135" lon="8.52749" /><trkpt lat="47.38134" lon="8.52757" /><trkpt lat="47.38131" lon="8.52768" /><trkpt lat="47.38129" lon="8.52778" /><trkpt lat="47.38127" lon="8.52787" /><trkpt lat="47.38124" lon="8.52802" /><trkpt lat="47.3812" lon="8.52816" /><trkpt lat="47.38118" lon="8.52824" /><trkpt lat="47.38088" lon="8.52933" /><trkpt lat="47.38076" lon="8.52977" /><trkpt lat="47.38064" lon="8.53022" /><trkpt lat="47.38052" lon="8.53066" /><trkpt lat="47.38016" lon="8.53199" /><trkpt lat="47.38001" lon="8.53256" /><trkpt lat="47.37991" lon="8.53293" /><trkpt lat="47.37976" lon="8.5335" /><trkpt lat="47.37955" lon="8.53404" /><trkpt lat="47.37945" lon="8.53432" /><trkpt lat="47.37939" lon="8.53448" /><trkpt lat="47.37934" lon="8.53464" /><trkpt lat="47.3793" lon="8.53476" /><trkpt lat="47.37927" lon="8.53486" /><trkpt lat="47.37811" lon="8.53914" /><trkpt lat="47.37811" lon="8.53916" /><trkpt lat="47.37811" lon="8.53916" /></trkseg></trk></gpx>