<gpx version="1.1" creator="Trainlog.me"><trk><name>Trip Path</name><trkseg><trkpt lat="46.94916" lon="7.43955" /><trkpt lat="46.94919" lon="7.43959" /><trkpt lat="46.94937" lon="7.43978" /><trkpt lat="46.94951" lon="7.43988" /><trkpt lat="46.94966" lon="7.43997" /><trkpt lat="46.94992" lon="7.44008" /><trkpt lat="46.95013" lon="7.44014" /><trkpt lat="46.95016" lon="7.44015" /><trkpt lat="46.95064" lon="7.44023" /><trkpt lat="46.95074" lon="7.44025" /><trkpt lat="46.95084" lon="7.44028" /><trkpt lat="46.95093" lon="7.44031" /><trkpt lat="46.95103" lon="7.44034" /><trkpt lat="46.95122" lon="7.44043" /><trkpt lat="46.95134" lon="7.44049" /><trkpt lat="46.95142" lon="7.44052" /><trkpt lat="46.95148" lon="7.44056" /><trkpt lat="46.95152" lon="7.44058" /><trkpt lat="46.95156" lon="7.44061" /><trkpt lat="46.95189" lon="7.44082" /><trkpt lat="46.95224" lon="7.44104" /><trkpt lat="46.95261" lon="7.44127" /><trkpt lat="46.95341" lon="7.44174" /><trkpt lat="46.95369" lon="7.44189" /><trkpt lat="46.95369" lon="7.44189" /><trkpt lat="46.9537" lon="7.4419" /><trkpt lat="46.95417" lon="7.44216" /><trkpt lat="46.95451" lon="7.44235" /><trkpt lat="46.95484" lon="7.44253" /><trkpt lat="46.95507" lon="7.44266" /><trkpt lat="46.9553" lon="7.44277" /><trkpt lat="46.95554" lon="7.44286" /><trkpt lat="46.95579" lon="7.44293" /><trkpt lat="46.95603" lon="7.44298" /><trkpt lat="46.95628" lon="7.44301" /><trkpt lat="46.95655" lon="7.44302" /><trkpt lat="46.95665" lon="7.44303" /><trkpt lat="46.95666" lon="7.44303" /><trkpt lat="46.95666" lon="7.44303" /><trkpt lat="46.95782" lon="7.44307" /><trkpt lat="46.95807" lon="7.44308" /><trkpt lat="46.95831" lon="7.4431" /><trkpt lat="46.95855" lon="7.44315" /><trkpt lat="46.95878" lon="7.44321" /><trkpt lat="46.95902" lon="7.44329" /><trkpt lat="46.95925" lon="7.44341" /><trkpt lat="46.95948" lon="7.44353" /><trkpt lat="46.95969" lon="7.44367" /><trkpt lat="46.95991" lon="7.44384" /><trkpt lat="46.96012" lon="7.44402" /><trkpt lat="46.96037" lon="7.44427" /><trkpt lat="46.96038" lon="7.44427" /><trkpt lat="46.96038" lon="7.44428" /><trkpt lat="46.96073" lon="7.44461" /><trkpt lat="46.9609" lon="7.44477" /><trkpt lat="46.961" lon="7.44486" /><trkpt lat="46.96119" lon="7.44502" /><trkpt lat="46.96135" lon="7.44517" /><trkpt lat="46.9616" lon="7.44539" /><trkpt lat="46.96179" lon="7.44558" /><trkpt lat="46.962" lon="7.44579" /><trkpt lat="46.96211" lon="7.44591" /><trkpt lat="46.96223" lon="7.44603" /><trkpt lat="46.96233" lon="7.44616" /><trkpt lat="46.96243" lon="7.44628" /><trkpt lat="46.96253" lon="7.44642" /><trkpt lat="46.96262" lon="7.44655" /><trkpt lat="46.96271" lon="7.44669" /><trkpt lat="46.9628" lon="7.44683" /><trkpt lat="46.96289" lon="7.44698" /><trkpt lat="46.96297" lon="7.44713" /><trkpt lat="46.96305" lon="7.44729" /><trkpt lat="46.96313" lon="7.44745" /><trkpt lat="46.9632" lon="7.44759" /><trkpt lat="46.9633" lon="7.44784" /><trkpt lat="46.96334" lon="7.44795" /><trkpt lat="46.96338" lon="7.44804" /><trkpt lat="46.96342" lon="7.44814" /><trkpt lat="46.96345" lon="7.44825" /><trkpt lat="46.96348" lon="7.44835" /><trkpt lat="46.96352" lon="7.44845" /><trkpt lat="46.96355" lon="7.44855" /><trkpt lat="46.96358" lon="7.44865" /><trkpt lat="46.96363" lon="7.44883" /><trkpt lat="46.96367" lon="7.44899" /><trkpt lat="46.96371" lon="7.44915" /><trkpt lat="46.96377" lon="7.44939" /><trkpt lat="46.96382" lon="7.44961" /><trkpt lat="46.96401" lon="7.45038" /><trkpt lat="46.96406" lon="7.4506" /><trkpt lat="46.9641" lon="7.45076" /><trkpt lat="46.96417" lon="7.45104" /><trkpt lat="46.96422" lon="7.45126" /><trkpt lat="46.96435" lon="7.45173" /><trkpt lat="46.96438" lon="7.45186" /><trkpt lat="46.9646" lon="7.45267" /><trkpt lat="46.96472" lon="7.4531" /><trkpt lat="46.96485" lon="7.45359" /><trkpt lat="46.96508" lon="7.45448" /><trkpt lat="46.96519" lon="7.45486" /><trkpt lat="46.96542" lon="7.45573" /><trkpt lat="46.96563" lon="7.45651" /><trkpt lat="46.96573" lon="7.4569" /><trkpt lat="46.96582" lon="7.45722" /><trkpt lat="46.96591" lon="7.45756" /><trkpt lat="46.96599" lon="7.4579" /><trkpt lat="46.96617" lon="7.45867" /><trkpt lat="46.96619" lon="7.45874" /><trkpt lat="46.96631" lon="7.45924" /><trkpt lat="46.96645" lon="7.45974" /><trkpt lat="46.96657" lon="7.46021" /><trkpt lat="46.96669" lon="7.46066" /><trkpt lat="46.96681" lon="7.46111" /><trkpt lat="46.96695" lon="7.46168" /><trkpt lat="46.96708" lon="7.4622" /><trkpt lat="46.96709" lon="7.46223" /><trkpt lat="46.96709" lon="7.46225" /><trkpt lat="46.96715" lon="7.46251" /><trkpt lat="46.96721" lon="7.46277" /><trkpt lat="46.96726" lon="7.46304" /><trkpt lat="46.96735" lon="7.46342" /><trkpt lat="46.96742" lon="7.46374" /><trkpt lat="46.96753" lon="7.4642" /><trkpt lat="46.96777" lon="7.46522" /><trkpt lat="46.96796" lon="7.46607" /><trkpt lat="46.96803" lon="7.46636" /><trkpt lat="46.9681" lon="7.46665" /><trkpt lat="46.96814" lon="7.46679" /><trkpt lat="46.96818" lon="7.46693" /><trkpt lat="46.96825" lon="7.46715" /><trkpt lat="46.9683" lon="7.46733" /><trkpt lat="46.96831" lon="7.46734" /><trkpt lat="46.96834" lon="7.46744" /><trkpt lat="46.96837" lon="7.46752" /><trkpt lat="46.96842" lon="7.46764" /><trkpt lat="46.96848" lon="7.46778" /><trkpt lat="46.96853" lon="7.4679" /><trkpt lat="46.96858" lon="7.46802" /><trkpt lat="46.96863" lon="7.46813" /><trkpt lat="46.96868" lon="7.46822" /><trkpt lat="46.96874" lon="7.46833" /><trkpt lat="46.96879" lon="7.46842" /><trkpt lat="46.96886" lon="7.46854" /><trkpt lat="46.96894" lon="7.46866" /><trkpt lat="46.96902" lon="7.46878" /><trkpt lat="46.96911" lon="7.4689" /><trkpt lat="46.96921" lon="7.46904" /><trkpt lat="46.96932" lon="7.46917" /><trkpt lat="46.96942" lon="7.46929" /><trkpt lat="46.96954" lon="7.46941" /><trkpt lat="46.96965" lon="7.46952" /><trkpt lat="46.96976" lon="7.46962" /><trkpt lat="46.96989" lon="7.46972" /><trkpt lat="46.97001" lon="7.46982" /><trkpt lat="46.97014" lon="7.46991" /><trkpt lat="46.97024" lon="7.46997" /><trkpt lat="46.97037" lon="7.47005" /><trkpt lat="46.97048" lon="7.4701" /><trkpt lat="46.97068" lon="7.47019" /><trkpt lat="46.97091" lon="7.47028" /><trkpt lat="46.97103" lon="7.47031" /><trkpt lat="46.97118" lon="7.47035" /><trkpt lat="46.97131" lon="7.47038" /><trkpt lat="46.97152" lon="7.47041" /><trkpt lat="46.97164" lon="7.47041" /><trkpt lat="46.97177" lon="7.47042" /><trkpt lat="46.97189" lon="7.47042" /><trkpt lat="46.97202" lon="7.47041" /><trkpt lat="46.97214" lon="7.4704" /><trkpt lat="46.97226" lon="7.47038" /><trkpt lat="46.9724" lon="7.47035" /><trkpt lat="46.97254" lon="7.47031" /><trkpt lat="46.9727" lon="7.47026" /><trkpt lat="46.97283" lon="7.47021" /><trkpt lat="46.97292" lon="7.47017" /><trkpt lat="46.97302" lon="7.47013" /><trkpt lat="46.97303" lon="7.47012" /><trkpt lat="46.97316" lon="7.47006" /><trkpt lat="46.97326" lon="7.47001" /><trkpt lat="46.97342" lon="7.46992" /><trkpt lat="46.97353" lon="7.46986" /><trkpt lat="46.97381" lon="7.46971" /><trkpt lat="46.97397" lon="7.46962" /><trkpt lat="46.97434" lon="7.46944" /><trkpt lat="46.97466" lon="7.46927" /><trkpt lat="46.97485" lon="7.46917" /><trkpt lat="46.9754" lon="7.46886" /><trkpt lat="46.9755" lon="7.46881" /><trkpt lat="46.97597" lon="7.46854" /><trkpt lat="46.97621" lon="7.46841" /><trkpt lat="46.97674" lon="7.4681" /><trkpt lat="46.97756" lon="7.46765" /><trkpt lat="46.97813" lon="7.46732" /><trkpt lat="46.97892" lon="7.46688" /><trkpt lat="46.97911" lon="7.46677" /><trkpt lat="46.97914" lon="7.46675" /><trkpt lat="46.97933" lon="7.46664" /><trkpt lat="46.97978" lon="7.46637" /><trkpt lat="46.98004" lon="7.46621" /><trkpt lat="46.98018" lon="7.46612" /><trkpt lat="46.98029" lon="7.46606" /><trkpt lat="46.98044" lon="7.46598" /><trkpt lat="46.98053" lon="7.46593" /><trkpt lat="46.98066" lon="7.46586" /><trkpt lat="46.98078" lon="7.4658" /><trkpt lat="46.98099" lon="7.46571" /><trkpt lat="46.9812" lon="7.46562" /><trkpt lat="46.9814" lon="7.46554" /><trkpt lat="46.98161" lon="7.46546" /><trkpt lat="46.9818" lon="7.4654" /><trkpt lat="46.9819" lon="7.46537" /><trkpt lat="46.98204" lon="7.46533" /><trkpt lat="46.98225" lon="7.46528" /><trkpt lat="46.98247" lon="7.46523" /><trkpt lat="46.9827" lon="7.46519" /><trkpt lat="46.98271" lon="7.46519" /><trkpt lat="46.98289" lon="7.46516" /><trkpt lat="46.98312" lon="7.46513" /><trkpt lat="46.98333" lon="7.46511" /><trkpt lat="46.98338" lon="7.46511" /><trkpt lat="46.98355" lon="7.4651" /><trkpt lat="46.98376" lon="7.4651" /><trkpt lat="46.98396" lon="7.4651" /><trkpt lat="46.98416" lon="7.46511" /><trkpt lat="46.98437" lon="7.46513" /><trkpt lat="46.98457" lon="7.46515" /><trkpt lat="46.98478" lon="7.46518" /><trkpt lat="46.98498" lon="7.46522" /><trkpt lat="46.98518" lon="7.46526" /><trkpt lat="46.98528" lon="7.46528" /><trkpt lat="46.98539" lon="7.46531" /><trkpt lat="46.98559" lon="7.46537" /><trkpt lat="46.9858" lon="7.46543" /><trkpt lat="46.986" lon="7.4655" /><trkpt lat="46.9862" lon="7.46557" /><trkpt lat="46.98635" lon="7.46564" /><trkpt lat="46.9864" lon="7.46566" /><trkpt lat="46.9865" lon="7.4657" /><trkpt lat="46.98677" lon="7.46583" /><trkpt lat="46.98704" lon="7.46597" /><trkpt lat="46.98747" lon="7.46622" /><trkpt lat="46.98785" lon="7.46648" /><trkpt lat="46.98815" lon="7.4667" /><trkpt lat="46.98841" lon="7.4669" /><trkpt lat="46.98871" lon="7.46717" /><trkpt lat="46.98901" lon="7.46745" /><trkpt lat="46.98934" lon="7.46779" /><trkpt lat="46.98965" lon="7.46815" /><trkpt lat="46.98998" lon="7.46856" /><trkpt lat="46.99031" lon="7.46899" /><trkpt lat="46.99063" lon="7.46947" /><trkpt lat="46.99094" lon="7.46995" /><trkpt lat="46.99128" lon="7.47049" /><trkpt lat="46.99161" lon="7.47103" /><trkpt lat="46.99197" lon="7.47166" /><trkpt lat="46.99242" lon="7.47248" /><trkpt lat="46.99285" lon="7.47331" /><trkpt lat="46.99328" lon="7.47421" /><trkpt lat="46.99369" lon="7.47511" /><trkpt lat="46.99415" lon="7.47621" /><trkpt lat="46.99459" lon="7.47732" /><trkpt lat="46.99494" lon="7.4783" /><trkpt lat="46.99518" lon="7.47901" /><trkpt lat="46.99541" lon="7.4797" /><trkpt lat="46.99573" lon="7.48076" /><trkpt lat="46.99602" lon="7.48183" /><trkpt lat="46.99629" lon="7.48291" /><trkpt lat="46.99643" lon="7.48352" /><trkpt lat="46.99656" lon="7.48411" /><trkpt lat="46.99679" lon="7.48524" /><trkpt lat="46.99702" lon="7.48648" /><trkpt lat="46.99737" lon="7.48847" /><trkpt lat="46.99761" lon="7.48971" /><trkpt lat="46.99782" lon="7.49069" /><trkpt lat="46.99804" lon="7.49163" /><trkpt lat="46.99824" lon="7.49244" /><trkpt lat="46.99844" lon="7.4932" /><trkpt lat="46.99875" lon="7.49425" /><trkpt lat="46.99909" lon="7.4953" /><trkpt lat="46.99942" lon="7.49629" /><trkpt lat="46.99975" lon="7.49718" /><trkpt lat="47.0001" lon="7.49806" /><trkpt lat="47.00048" lon="7.49897" /><trkpt lat="47.00088" lon="7.49987" /><trkpt lat="47.00138" lon="7.50092" /><trkpt lat="47.00179" lon="7.50172" /><trkpt lat="47.00215" lon="7.50239" /><trkpt lat="47.00253" lon="7.50307" /><trkpt lat="47.00291" lon="7.50371" /><trkpt lat="47.00333" lon="7.50438" /><trkpt lat="47.00374" lon="7.505" /><trkpt lat="47.00424" lon="7.50573" /><trkpt lat="47.00474" lon="7.50643" /><trkpt lat="47.00535" lon="7.50721" /><trkpt lat="47.00578" lon="7.50774" /><trkpt lat="47.0062" lon="7.50824" /><trkpt lat="47.00664" lon="7.50873" /><trkpt lat="47.00707" lon="7.50919" /><trkpt lat="47.00753" lon="7.50966" /><trkpt lat="47.00797" lon="7.5101" /><trkpt lat="47.00844" lon="7.51053" /><trkpt lat="47.00892" lon="7.51096" /><trkpt lat="47.00967" lon="7.51158" /><trkpt lat="47.01044" lon="7.51218" /><trkpt lat="47.01118" lon="7.5127" /><trkpt lat="47.0119" lon="7.51318" /><trkpt lat="47.01294" lon="7.51387" /><trkpt lat="47.01414" lon="7.51466" /><trkpt lat="47.0153" lon="7.51542" /><trkpt lat="47.0244" lon="7.52142" /><trkpt lat="47.02468" lon="7.52159" /><trkpt lat="47.02493" lon="7.52175" /><trkpt lat="47.02518" lon="7.5219" /><trkpt lat="47.02543" lon="7.52205" /><trkpt lat="47.02594" lon="7.52233" /><trkpt lat="47.0262" lon="7.52247" /><trkpt lat="47.02646" lon="7.5226" /><trkpt lat="47.02677" lon="7.52275" /><trkpt lat="47.02709" lon="7.5229" /><trkpt lat="47.02772" lon="7.5232" /><trkpt lat="47.02784" lon="7.52325" /><trkpt lat="47.02795" lon="7.5233" /><trkpt lat="47.02815" lon="7.52339" /><trkpt lat="47.02862" lon="7.5236" /><trkpt lat="47.02915" lon="7.52383" /><trkpt lat="47.02967" lon="7.52407" /><trkpt lat="47.03014" lon="7.52427" /><trkpt lat="47.03056" lon="7.52445" /><trkpt lat="47.03086" lon="7.52457" /><trkpt lat="47.03104" lon="7.52464" /><trkpt lat="47.03123" lon="7.52471" /><trkpt lat="47.03141" lon="7.52477" /><trkpt lat="47.03159" lon="7.52484" /><trkpt lat="47.03177" lon="7.5249" /><trkpt lat="47.03194" lon="7.52496" /><trkpt lat="47.03212" lon="7.52502" /><trkpt lat="47.0323" lon="7.52508" /><trkpt lat="47.03248" lon="7.52513" /><trkpt lat="47.03266" lon="7.52519" /><trkpt lat="47.03302" lon="7.52529" /><trkpt lat="47.03324" lon="7.52535" /><trkpt lat="47.03345" lon="7.5254" /><trkpt lat="47.03366" lon="7.52545" /><trkpt lat="47.03388" lon="7.52551" /><trkpt lat="47.03431" lon="7.5256" /><trkpt lat="47.03451" lon="7.52564" /><trkpt lat="47.03472" lon="7.52568" /><trkpt lat="47.03538" lon="7.5258" /><trkpt lat="47.03651" lon="7.52598" /><trkpt lat="47.03678" lon="7.52602" /><trkpt lat="47.03705" lon="7.52607" /><trkpt lat="47.03758" lon="7.52618" /><trkpt lat="47.03784" lon="7.52624" /><trkpt lat="47.0381" lon="7.5263" /><trkpt lat="47.03836" lon="7.52636" /><trkpt lat="47.03862" lon="7.52643" /><trkpt lat="47.03893" lon="7.52652" /><trkpt lat="47.03925" lon="7.52661" /><trkpt lat="47.03956" lon="7.52671" /><trkpt lat="47.03987" lon="7.52681" /><trkpt lat="47.04008" lon="7.52689" /><trkpt lat="47.04029" lon="7.52696" /><trkpt lat="47.0405" lon="7.52704" /><trkpt lat="47.04071" lon="7.52712" /><trkpt lat="47.04092" lon="7.52721" /><trkpt lat="47.04114" lon="7.5273" /><trkpt lat="47.04135" lon="7.52739" /><trkpt lat="47.04157" lon="7.52748" /><trkpt lat="47.04185" lon="7.52761" /><trkpt lat="47.04199" lon="7.52768" /><trkpt lat="47.04213" lon="7.52775" /><trkpt lat="47.04241" lon="7.52788" /><trkpt lat="47.04269" lon="7.52803" /><trkpt lat="47.04299" lon="7.52818" /><trkpt lat="47.04329" lon="7.52834" /><trkpt lat="47.04358" lon="7.52851" /><trkpt lat="47.04388" lon="7.52868" /><trkpt lat="47.04414" lon="7.52885" /><trkpt lat="47.04441" lon="7.52901" /><trkpt lat="47.04468" lon="7.52919" /><trkpt lat="47.04495" lon="7.52936" /><trkpt lat="47.04522" lon="7.52955" /><trkpt lat="47.04549" lon="7.52974" /><trkpt lat="47.04576" lon="7.52993" /><trkpt lat="47.04603" lon="7.53013" /><trkpt lat="47.0463" lon="7.53034" /><trkpt lat="47.04657" lon="7.53055" /><trkpt lat="47.04684" lon="7.53077" /><trkpt lat="47.04711" lon="7.53099" /><trkpt lat="47.04737" lon="7.53121" /><trkpt lat="47.04762" lon="7.53143" /><trkpt lat="47.04775" lon="7.53155" /><trkpt lat="47.04788" lon="7.53166" /><trkpt lat="47.04814" lon="7.5319" /><trkpt lat="47.04833" lon="7.53208" /><trkpt lat="47.04852" lon="7.53226" /><trkpt lat="47.04871" lon="7.53244" /><trkpt lat="47.0489" lon="7.53263" /><trkpt lat="47.04909" lon="7.53282" /><trkpt lat="47.04927" lon="7.53301" /><trkpt lat="47.04946" lon="7.5332" /><trkpt lat="47.04964" lon="7.53339" /><trkpt lat="47.04978" lon="7.53355" /><trkpt lat="47.04991" lon="7.53369" /><trkpt lat="47.05005" lon="7.53384" /><trkpt lat="47.05018" lon="7.53398" /><trkpt lat="47.05031" lon="7.53413" /><trkpt lat="47.05043" lon="7.53428" /><trkpt lat="47.05056" lon="7.53443" /><trkpt lat="47.05069" lon="7.53458" /><trkpt lat="47.05082" lon="7.53473" /><trkpt lat="47.05094" lon="7.53488" /><trkpt lat="47.05114" lon="7.53513" /><trkpt lat="47.05134" lon="7.53537" /><trkpt lat="47.05148" lon="7.53556" /><trkpt lat="47.05162" lon="7.53574" /><trkpt lat="47.05177" lon="7.53593" /><trkpt lat="47.05191" lon="7.53611" /><trkpt lat="47.05205" lon="7.5363" /><trkpt lat="47.05219" lon="7.53649" /><trkpt lat="47.05233" lon="7.53669" /><trkpt lat="47.05246" lon="7.53688" /><trkpt lat="47.05261" lon="7.53708" /><trkpt lat="47.05275" lon="7.53729" /><trkpt lat="47.05287" lon="7.53747" /><trkpt lat="47.05299" lon="7.53765" /><trkpt lat="47.05312" lon="7.53784" /><trkpt lat="47.05324" lon="7.53802" /><trkpt lat="47.05336" lon="7.53821" /><trkpt lat="47.05348" lon="7.53839" /><trkpt lat="47.0536" lon="7.53858" /><trkpt lat="47.05371" lon="7.53877" /><trkpt lat="47.05385" lon="7.53899" /><trkpt lat="47.05398" lon="7.53921" /><trkpt lat="47.05411" lon="7.53942" /><trkpt lat="47.05423" lon="7.53964" /><trkpt lat="47.05437" lon="7.53987" /><trkpt lat="47.0545" lon="7.5401" /><trkpt lat="47.05463" lon="7.54033" /><trkpt lat="47.05476" lon="7.54056" /><trkpt lat="47.05489" lon="7.5408" /><trkpt lat="47.05501" lon="7.54104" /><trkpt lat="47.05514" lon="7.54128" /><trkpt lat="47.05526" lon="7.54152" /><trkpt lat="47.05538" lon="7.54175" /><trkpt lat="47.0555" lon="7.54199" /><trkpt lat="47.05562" lon="7.54223" /><trkpt lat="47.05574" lon="7.54247" /><trkpt lat="47.05585" lon="7.54271" /><trkpt lat="47.05597" lon="7.54296" /><trkpt lat="47.05609" lon="7.5432" /><trkpt lat="47.0562" lon="7.54345" /><trkpt lat="47.05633" lon="7.54371" /><trkpt lat="47.05645" lon="7.54398" /><trkpt lat="47.05669" lon="7.54452" /><trkpt lat="47.05718" lon="7.5456" /><trkpt lat="47.05817" lon="7.54775" /><trkpt lat="47.05904" lon="7.54966" /><trkpt lat="47.05925" lon="7.55014" /><trkpt lat="47.05946" lon="7.5506" /><trkpt lat="47.05965" lon="7.55099" /><trkpt lat="47.05986" lon="7.55146" /><trkpt lat="47.06008" lon="7.55192" /><trkpt lat="47.06019" lon="7.55216" /><trkpt lat="47.06031" lon="7.5524" /><trkpt lat="47.06046" lon="7.55271" /><trkpt lat="47.06062" lon="7.55302" /><trkpt lat="47.06074" lon="7.55326" /><trkpt lat="47.06086" lon="7.5535" /><trkpt lat="47.06099" lon="7.55374" /><trkpt lat="47.06112" lon="7.55398" /><trkpt lat="47.06131" lon="7.55433" /><trkpt lat="47.06151" lon="7.55469" /><trkpt lat="47.06166" lon="7.55495" /><trkpt lat="47.06181" lon="7.55521" /><trkpt lat="47.06196" lon="7.55547" /><trkpt lat="47.06212" lon="7.55573" /><trkpt lat="47.06235" lon="7.55611" /><trkpt lat="47.06246" lon="7.55629" /><trkpt lat="47.06258" lon="7.55648" /><trkpt lat="47.06279" lon="7.5568" /><trkpt lat="47.06299" lon="7.55713" /><trkpt lat="47.06325" lon="7.5575" /><trkpt lat="47.06347" lon="7.55782" /><trkpt lat="47.06384" lon="7.55835" /><trkpt lat="47.06405" lon="7.55865" /><trkpt lat="47.06426" lon="7.55894" /><trkpt lat="47.06449" lon="7.55924" /><trkpt lat="47.06472" lon="7.55953" /><trkpt lat="47.06486" lon="7.55971" /><trkpt lat="47.065" lon="7.55989" /><trkpt lat="47.06512" lon="7.56005" /><trkpt lat="47.06525" lon="7.56021" /><trkpt lat="47.06539" lon="7.56037" /><trkpt lat="47.06553" lon="7.56054" /><trkpt lat="47.06566" lon="7.5607" /><trkpt lat="47.0658" lon="7.56086" /><trkpt lat="47.06597" lon="7.56105" /><trkpt lat="47.06613" lon="7.56124" /><trkpt lat="47.06646" lon="7.56161" /><trkpt lat="47.06675" lon="7.56192" /><trkpt lat="47.06692" lon="7.5621" /><trkpt lat="47.0671" lon="7.56229" /><trkpt lat="47.06733" lon="7.56253" /><trkpt lat="47.06755" lon="7.56275" /><trkpt lat="47.06781" lon="7.563" /><trkpt lat="47.06806" lon="7.56324" /><trkpt lat="47.06842" lon="7.56357" /><trkpt lat="47.06877" lon="7.56389" /><trkpt lat="47.06912" lon="7.5642" /><trkpt lat="47.06947" lon="7.5645" /><trkpt lat="47.06994" lon="7.56488" /><trkpt lat="47.07042" lon="7.56526" /><trkpt lat="47.07083" lon="7.56557" /><trkpt lat="47.07124" lon="7.56588" /><trkpt lat="47.07195" lon="7.56641" /><trkpt lat="47.07266" lon="7.56693" /><trkpt lat="47.07429" lon="7.56806" /><trkpt lat="47.07593" lon="7.56917" /><trkpt lat="47.07646" lon="7.5695" /><trkpt lat="47.077" lon="7.56984" /><trkpt lat="47.07726" lon="7.57" /><trkpt lat="47.07751" lon="7.57015" /><trkpt lat="47.07775" lon="7.57029" /><trkpt lat="47.078" lon="7.57044" /><trkpt lat="47.07821" lon="7.57055" /><trkpt lat="47.07843" lon="7.57067" /><trkpt lat="47.07866" lon="7.57079" /><trkpt lat="47.07889" lon="7.57091" /><trkpt lat="47.07919" lon="7.57106" /><trkpt lat="47.07957" lon="7.57124" /><trkpt lat="47.08056" lon="7.57167" /><trkpt lat="47.08156" lon="7.57206" /><trkpt lat="47.08257" lon="7.57238" /><trkpt lat="47.0834" lon="7.57261" /><trkpt lat="47.08423" lon="7.57281" /><trkpt lat="47.08493" lon="7.57293" /><trkpt lat="47.08561" lon="7.57305" /><trkpt lat="47.08694" lon="7.57318" /><trkpt lat="47.0914" lon="7.5735" /><trkpt lat="47.09209" lon="7.57356" /><trkpt lat="47.09277" lon="7.57363" /><trkpt lat="47.09346" lon="7.57373" /><trkpt lat="47.09411" lon="7.57383" /><trkpt lat="47.09453" lon="7.5739" /><trkpt lat="47.09493" lon="7.57398" /><trkpt lat="47.09533" lon="7.57406" /><trkpt lat="47.09573" lon="7.57414" /><trkpt lat="47.09614" lon="7.57423" /><trkpt lat="47.09654" lon="7.57433" /><trkpt lat="47.09736" lon="7.57452" /><trkpt lat="47.09914" lon="7.57495" /><trkpt lat="47.10093" lon="7.57537" /><trkpt lat="47.10416" lon="7.57614" /><trkpt lat="47.10649" lon="7.5767" /><trkpt lat="47.1093" lon="7.57737" /><trkpt lat="47.11" lon="7.57754" /><trkpt lat="47.11071" lon="7.57771" /><trkpt lat="47.11141" lon="7.57789" /><trkpt lat="47.11211" lon="7.57807" /><trkpt lat="47.11267" lon="7.57822" /><trkpt lat="47.11324" lon="7.57837" /><trkpt lat="47.11359" lon="7.57846" /><trkpt lat="47.1138" lon="7.57852" /><trkpt lat="47.11436" lon="7.57868" /><trkpt lat="47.11493" lon="7.57884" /><trkpt lat="47.11549" lon="7.579" /><trkpt lat="47.11605" lon="7.57917" /><trkpt lat="47.11662" lon="7.57934" /><trkpt lat="47.11719" lon="7.57951" /><trkpt lat="47.11776" lon="7.57969" /><trkpt lat="47.1189" lon="7.58005" /><trkpt lat="47.11947" lon="7.58024" /><trkpt lat="47.12003" lon="7.58042" /><trkpt lat="47.12117" lon="7.58081" /><trkpt lat="47.1214" lon="7.58089" /><trkpt lat="47.12193" lon="7.58107" /><trkpt lat="47.12269" lon="7.58134" /><trkpt lat="47.12344" lon="7.58162" /><trkpt lat="47.12382" lon="7.58176" /><trkpt lat="47.12421" lon="7.5819" /><trkpt lat="47.12474" lon="7.5821" /><trkpt lat="47.12523" lon="7.58228" /><trkpt lat="47.12571" lon="7.58247" /><trkpt lat="47.1262" lon="7.58266" /><trkpt lat="47.12668" lon="7.58285" /><trkpt lat="47.12717" lon="7.58305" /><trkpt lat="47.12765" lon="7.58324" /><trkpt lat="47.12814" lon="7.58344" /><trkpt lat="47.12862" lon="7.58364" /><trkpt lat="47.12919" lon="7.58388" /><trkpt lat="47.12977" lon="7.58412" /><trkpt lat="47.13034" lon="7.58437" /><trkpt lat="47.13091" lon="7.58462" /><trkpt lat="47.1332" lon="7.58562" /><trkpt lat="47.13604" lon="7.58686" /><trkpt lat="47.13622" lon="7.58694" /><trkpt lat="47.1364" lon="7.58703" /><trkpt lat="47.13659" lon="7.58711" /><trkpt lat="47.13677" lon="7.58719" /><trkpt lat="47.13695" lon="7.58728" /><trkpt lat="47.13713" lon="7.58737" /><trkpt lat="47.13731" lon="7.58745" /><trkpt lat="47.13749" lon="7.58754" /><trkpt lat="47.13767" lon="7.58763" /><trkpt lat="47.13785" lon="7.58773" /><trkpt lat="47.13803" lon="7.58782" /><trkpt lat="47.13821" lon="7.58792" /><trkpt lat="47.1384" lon="7.58802" /><trkpt lat="47.13858" lon="7.58811" /><trkpt lat="47.13876" lon="7.58821" /><trkpt lat="47.13894" lon="7.58832" /><trkpt lat="47.13914" lon="7.58844" /><trkpt lat="47.13935" lon="7.58856" /><trkpt lat="47.13955" lon="7.58868" /><trkpt lat="47.13976" lon="7.5888" /><trkpt lat="47.13996" lon="7.58893" /><trkpt lat="47.14017" lon="7.58906" /><trkpt lat="47.14037" lon="7.58919" /><trkpt lat="47.14057" lon="7.58932" /><trkpt lat="47.14079" lon="7.58946" /><trkpt lat="47.141" lon="7.58961" /><trkpt lat="47.14122" lon="7.58975" /><trkpt lat="47.14143" lon="7.5899" /><trkpt lat="47.14164" lon="7.59005" /><trkpt lat="47.14185" lon="7.5902" /><trkpt lat="47.14207" lon="7.59036" /><trkpt lat="47.14228" lon="7.59052" /><trkpt lat="47.1425" lon="7.59069" /><trkpt lat="47.14272" lon="7.59085" /><trkpt lat="47.14294" lon="7.59103" /><trkpt lat="47.14316" lon="7.5912" /><trkpt lat="47.14338" lon="7.59138" /><trkpt lat="47.14359" lon="7.59156" /><trkpt lat="47.14381" lon="7.59174" /><trkpt lat="47.14403" lon="7.59192" /><trkpt lat="47.14424" lon="7.59211" /><trkpt lat="47.14446" lon="7.5923" /><trkpt lat="47.14467" lon="7.59249" /><trkpt lat="47.14488" lon="7.59268" /><trkpt lat="47.14508" lon="7.59286" /><trkpt lat="47.14528" lon="7.59305" /><trkpt lat="47.14549" lon="7.59324" /><trkpt lat="47.1457" lon="7.59344" /><trkpt lat="47.14597" lon="7.59371" /><trkpt lat="47.14624" lon="7.59398" /><trkpt lat="47.14651" lon="7.59426" /><trkpt lat="47.14678" lon="7.59453" /><trkpt lat="47.14705" lon="7.59482" /><trkpt lat="47.14732" lon="7.59511" /><trkpt lat="47.14758" lon="7.5954" /><trkpt lat="47.14785" lon="7.59569" /><trkpt lat="47.14933" lon="7.59744" /><trkpt lat="47.15048" lon="7.59895" /><trkpt lat="47.15152" lon="7.60043" /><trkpt lat="47.15307" lon="7.60291" /><trkpt lat="47.15369" lon="7.604" /><trkpt lat="47.15428" lon="7.60507" /><trkpt lat="47.15437" lon="7.60523" /><trkpt lat="47.15504" lon="7.60655" /><trkpt lat="47.15586" lon="7.60829" /><trkpt lat="47.15664" lon="7.61008" /><trkpt lat="47.15729" lon="7.61173" /><trkpt lat="47.15794" lon="7.61349" /><trkpt lat="47.15803" lon="7.61376" /><trkpt lat="47.15868" lon="7.61576" /><trkpt lat="47.15969" lon="7.61876" /><trkpt lat="47.16" lon="7.61963" /><trkpt lat="47.16073" lon="7.6215" /><trkpt lat="47.16139" lon="7.62307" /><trkpt lat="47.16212" lon="7.62468" /><trkpt lat="47.16319" lon="7.62678" /><trkpt lat="47.16429" lon="7.62876" /><trkpt lat="47.16545" lon="7.63068" /><trkpt lat="47.16917" lon="7.63675" /><trkpt lat="47.17389" lon="7.6444" /><trkpt lat="47.17526" lon="7.64642" /><trkpt lat="47.17738" lon="7.64944" /><trkpt lat="47.17748" lon="7.64958" /><trkpt lat="47.17794" lon="7.65024" /><trkpt lat="47.1817" lon="7.65559" /><trkpt lat="47.18468" lon="7.65981" /><trkpt lat="47.18622" lon="7.66199" /><trkpt lat="47.18698" lon="7.66309" /><trkpt lat="47.18772" lon="7.66422" /><trkpt lat="47.1882" lon="7.66499" /><trkpt lat="47.18865" lon="7.66575" /><trkpt lat="47.18908" lon="7.66649" /><trkpt lat="47.18954" lon="7.66733" /><trkpt lat="47.1901" lon="7.66839" /><trkpt lat="47.19064" lon="7.66947" /><trkpt lat="47.19104" lon="7.67032" /><trkpt lat="47.19148" lon="7.67126" /><trkpt lat="47.19191" lon="7.67226" /><trkpt lat="47.19236" lon="7.67334" /><trkpt lat="47.19269" lon="7.67419" /><trkpt lat="47.19301" lon="7.67503" /><trkpt lat="47.19332" lon="7.6759" /><trkpt lat="47.19363" lon="7.67681" /><trkpt lat="47.19401" lon="7.67796" /><trkpt lat="47.19436" lon="7.6791" /><trkpt lat="47.19472" lon="7.68037" /><trkpt lat="47.19506" lon="7.68162" /><trkpt lat="47.19535" lon="7.6828" /><trkpt lat="47.19563" lon="7.68403" /><trkpt lat="47.19587" lon="7.6852" /><trkpt lat="47.1961" lon="7.68635" /><trkpt lat="47.19642" lon="7.68818" /><trkpt lat="47.19672" lon="7.68997" /><trkpt lat="47.19743" lon="7.69411" /><trkpt lat="47.19744" lon="7.69416" /><trkpt lat="47.19822" lon="7.69879" /><trkpt lat="47.19847" lon="7.70032" /><trkpt lat="47.19875" lon="7.70182" /><trkpt lat="47.19906" lon="7.70337" /><trkpt lat="47.1994" lon="7.70492" /><trkpt lat="47.20323" lon="7.72157" /><trkpt lat="47.2045" lon="7.7271" /><trkpt lat="47.20474" lon="7.72816" /><trkpt lat="47.20755" lon="7.74044" /><trkpt lat="47.2085" lon="7.74459" /><trkpt lat="47.20873" lon="7.74557" /><trkpt lat="47.20898" lon="7.74653" /><trkpt lat="47.20925" lon="7.74756" /><trkpt lat="47.2096" lon="7.74878" /><trkpt lat="47.20994" lon="7.74989" /><trkpt lat="47.21043" lon="7.7514" /><trkpt lat="47.21061" lon="7.75192" /><trkpt lat="47.21074" lon="7.75229" /><trkpt lat="47.21093" lon="7.75281" /><trkpt lat="47.21113" lon="7.75336" /><trkpt lat="47.21128" lon="7.75376" /><trkpt lat="47.21138" lon="7.75402" /><trkpt lat="47.21147" lon="7.75425" /><trkpt lat="47.21179" lon="7.75503" /><trkpt lat="47.2121" lon="7.75577" /><trkpt lat="47.21223" lon="7.75608" /><trkpt lat="47.21236" lon="7.75639" /><trkpt lat="47.2125" lon="7.7567" /><trkpt lat="47.21269" lon="7.75711" /><trkpt lat="47.21311" lon="7.75801" /><trkpt lat="47.21354" lon="7.7589" /><trkpt lat="47.21421" lon="7.7602" /><trkpt lat="47.21489" lon="7.76145" /><trkpt lat="47.21544" lon="7.76239" /><trkpt lat="47.21598" lon="7.76329" /><trkpt lat="47.21666" lon="7.76435" /><trkpt lat="47.21734" lon="7.76537" /><trkpt lat="47.21872" lon="7.76737" /><trkpt lat="47.21932" lon="7.76824" /><trkpt lat="47.21991" lon="7.76913" /><trkpt lat="47.2205" lon="7.77008" /><trkpt lat="47.22107" lon="7.77105" /><trkpt lat="47.22218" lon="7.77302" /><trkpt lat="47.22467" lon="7.77747" /><trkpt lat="47.22628" lon="7.78037" /><trkpt lat="47.22699" lon="7.78166" /><trkpt lat="47.22773" lon="7.78293" /><trkpt lat="47.22821" lon="7.78373" /><trkpt lat="47.22877" lon="7.78461" /><trkpt lat="47.22934" lon="7.78547" /><trkpt lat="47.23008" lon="7.78652" /><trkpt lat="47.23045" lon="7.78703" /><trkpt lat="47.23083" lon="7.78753" /><trkpt lat="47.23143" lon="7.78829" /><trkpt lat="47.23205" lon="7.78903" /><trkpt lat="47.23288" lon="7.78999" /><trkpt lat="47.23381" lon="7.79095" /><trkpt lat="47.23504" lon="7.79217" /><trkpt lat="47.23656" lon="7.79365" /><trkpt lat="47.24024" lon="7.7972" /><trkpt lat="47.24209" lon="7.79899" /><trkpt lat="47.243" lon="7.79988" /><trkpt lat="47.24502" lon="7.80206" /><trkpt lat="47.24591" lon="7.80317" /><trkpt lat="47.24648" lon="7.80393" /><trkpt lat="47.2466" lon="7.80409" /><trkpt lat="47.24711" lon="7.80479" /><trkpt lat="47.24804" lon="7.8062" /><trkpt lat="47.24892" lon="7.80764" /><trkpt lat="47.24979" lon="7.80925" /><trkpt lat="47.25044" lon="7.81054" /><trkpt lat="47.25102" lon="7.81177" /><trkpt lat="47.25159" lon="7.81312" /><trkpt lat="47.25213" lon="7.81448" /><trkpt lat="47.25264" lon="7.81588" /><trkpt lat="47.25326" lon="7.8178" /><trkpt lat="47.2535" lon="7.81863" /><trkpt lat="47.25371" lon="7.8194" /><trkpt lat="47.25393" lon="7.82022" /><trkpt lat="47.25413" lon="7.82102" /><trkpt lat="47.25522" lon="7.8257" /><trkpt lat="47.25558" lon="7.82702" /><trkpt lat="47.25589" lon="7.82813" /><trkpt lat="47.25624" lon="7.82926" /><trkpt lat="47.2567" lon="7.83059" /><trkpt lat="47.25701" lon="7.83146" /><trkpt lat="47.25735" lon="7.83234" /><trkpt lat="47.25778" lon="7.8334" /><trkpt lat="47.25822" lon="7.83438" /><trkpt lat="47.25859" lon="7.83519" /><trkpt lat="47.25899" lon="7.83602" /><trkpt lat="47.2594" lon="7.83682" /><trkpt lat="47.2598" lon="7.83757" /><trkpt lat="47.2602" lon="7.83828" /><trkpt lat="47.26062" lon="7.839" /><trkpt lat="47.26105" lon="7.83971" /><trkpt lat="47.26149" lon="7.84039" /><trkpt lat="47.26199" lon="7.84113" /><trkpt lat="47.26247" lon="7.84182" /><trkpt lat="47.26287" lon="7.84236" /><trkpt lat="47.2634" lon="7.84305" /><trkpt lat="47.26383" lon="7.84359" /><trkpt lat="47.26425" lon="7.84409" /><trkpt lat="47.26469" lon="7.84459" /><trkpt lat="47.26511" lon="7.84506" /><trkpt lat="47.2657" lon="7.84569" /><trkpt lat="47.26642" lon="7.8464" /><trkpt lat="47.26714" lon="7.84708" /><trkpt lat="47.26763" lon="7.84751" /><trkpt lat="47.26812" lon="7.84793" /><trkpt lat="47.26889" lon="7.84854" /><trkpt lat="47.26946" lon="7.84897" /><trkpt lat="47.27005" lon="7.84938" /><trkpt lat="47.27056" lon="7.84972" /><trkpt lat="47.27106" lon="7.85004" /><trkpt lat="47.27152" lon="7.85032" /><trkpt lat="47.27197" lon="7.85058" /><trkpt lat="47.27274" lon="7.85099" /><trkpt lat="47.27359" lon="7.8514" /><trkpt lat="47.27449" lon="7.8518" /><trkpt lat="47.27511" lon="7.85204" /><trkpt lat="47.2757" lon="7.85225" /><trkpt lat="47.27679" lon="7.8526" /><trkpt lat="47.27778" lon="7.85289" /><trkpt lat="47.27876" lon="7.85313" /><trkpt lat="47.27937" lon="7.85326" /><trkpt lat="47.27997" lon="7.85339" /><trkpt lat="47.28111" lon="7.85359" /><trkpt lat="47.28167" lon="7.85367" /><trkpt lat="47.28222" lon="7.85374" /><trkpt lat="47.28333" lon="7.85385" /><trkpt lat="47.28427" lon="7.85391" /><trkpt lat="47.28524" lon="7.85394" /><trkpt lat="47.28619" lon="7.85395" /><trkpt lat="47.2871" lon="7.85392" /><trkpt lat="47.28798" lon="7.85389" /><trkpt lat="47.28886" lon="7.85388" /><trkpt lat="47.28927" lon="7.85391" /><trkpt lat="47.28967" lon="7.85394" /><trkpt lat="47.29021" lon="7.85402" /><trkpt lat="47.29066" lon="7.85411" /><trkpt lat="47.2911" lon="7.85421" /><trkpt lat="47.29185" lon="7.85444" /><trkpt lat="47.29232" lon="7.85462" /><trkpt lat="47.29278" lon="7.85482" /><trkpt lat="47.29313" lon="7.85498" /><trkpt lat="47.29346" lon="7.85515" /><trkpt lat="47.29421" lon="7.85559" /><trkpt lat="47.29496" lon="7.85609" /><trkpt lat="47.29552" lon="7.85653" /><trkpt lat="47.29608" lon="7.857" /><trkpt lat="47.29698" lon="7.85789" /><trkpt lat="47.29779" lon="7.85882" /><trkpt lat="47.29871" lon="7.86003" /><trkpt lat="47.29943" lon="7.86117" /><trkpt lat="47.30007" lon="7.86236" /><trkpt lat="47.30071" lon="7.8637" /><trkpt lat="47.30124" lon="7.86503" /><trkpt lat="47.30175" lon="7.86628" /><trkpt lat="47.30222" lon="7.8675" /><trkpt lat="47.30226" lon="7.86761" /><trkpt lat="47.30284" lon="7.86904" /><trkpt lat="47.30308" lon="7.8697" /><trkpt lat="47.30344" lon="7.87061" /><trkpt lat="47.30362" lon="7.87111" /><trkpt lat="47.30382" lon="7.87166" /><trkpt lat="47.3042" lon="7.87265" /><trkpt lat="47.3055" lon="7.87601" /><trkpt lat="47.30587" lon="7.87708" /><trkpt lat="47.30626" lon="7.87827" /><trkpt lat="47.3066" lon="7.87947" /><trkpt lat="47.30693" lon="7.8807" /><trkpt lat="47.30718" lon="7.88168" /><trkpt lat="47.30757" lon="7.88312" /><trkpt lat="47.30794" lon="7.88457" /><trkpt lat="47.3081" lon="7.88508" /><trkpt lat="47.30825" lon="7.88554" /><trkpt lat="47.30861" lon="7.88649" /><trkpt lat="47.30891" lon="7.88714" /><trkpt lat="47.30899" lon="7.88732" /><trkpt lat="47.30908" lon="7.8875" /><trkpt lat="47.30917" lon="7.88768" /><trkpt lat="47.30927" lon="7.88785" /><trkpt lat="47.30939" lon="7.88808" /><trkpt lat="47.30953" lon="7.88831" /><trkpt lat="47.30966" lon="7.88854" /><trkpt lat="47.3098" lon="7.88876" /><trkpt lat="47.30988" lon="7.88888" /><trkpt lat="47.30996" lon="7.889" /><trkpt lat="47.31004" lon="7.88912" /><trkpt lat="47.31012" lon="7.88924" /><trkpt lat="47.31021" lon="7.88936" /><trkpt lat="47.31029" lon="7.88948" /><trkpt lat="47.31037" lon="7.88959" /><trkpt lat="47.31046" lon="7.8897" /><trkpt lat="47.31056" lon="7.88983" /><trkpt lat="47.31066" lon="7.88995" /><trkpt lat="47.31076" lon="7.89008" /><trkpt lat="47.31087" lon="7.8902" /><trkpt lat="47.31095" lon="7.89029" /><trkpt lat="47.31104" lon="7.89039" /><trkpt lat="47.31112" lon="7.89048" /><trkpt lat="47.31121" lon="7.89057" /><trkpt lat="47.31138" lon="7.89074" /><trkpt lat="47.31156" lon="7.89092" /><trkpt lat="47.31168" lon="7.89103" /><trkpt lat="47.31181" lon="7.89114" /><trkpt lat="47.31198" lon="7.89129" /><trkpt lat="47.31215" lon="7.89143" /><trkpt lat="47.31235" lon="7.89158" /><trkpt lat="47.31256" lon="7.89173" /><trkpt lat="47.31274" lon="7.89185" /><trkpt lat="47.31292" lon="7.89197" /><trkpt lat="47.31312" lon="7.89208" /><trkpt lat="47.31331" lon="7.8922" /><trkpt lat="47.31344" lon="7.89226" /><trkpt lat="47.31356" lon="7.89233" /><trkpt lat="47.31368" lon="7.89239" /><trkpt lat="47.31381" lon="7.89246" /><trkpt lat="47.31394" lon="7.89252" /><trkpt lat="47.31407" lon="7.89258" /><trkpt lat="47.3142" lon="7.89264" /><trkpt lat="47.31433" lon="7.89269" /><trkpt lat="47.31447" lon="7.89275" /><trkpt lat="47.31461" lon="7.89281" /><trkpt lat="47.31488" lon="7.89292" /><trkpt lat="47.31546" lon="7.8931" /><trkpt lat="47.31573" lon="7.89318" /><trkpt lat="47.31601" lon="7.89325" /><trkpt lat="47.31635" lon="7.89333" /><trkpt lat="47.3167" lon="7.8934" /><trkpt lat="47.31726" lon="7.89348" /><trkpt lat="47.31777" lon="7.89353" /><trkpt lat="47.31808" lon="7.89354" /><trkpt lat="47.31973" lon="7.89353" /><trkpt lat="47.32019" lon="7.89353" /><trkpt lat="47.32065" lon="7.89355" /><trkpt lat="47.32116" lon="7.89359" /><trkpt lat="47.32159" lon="7.89365" /><trkpt lat="47.32201" lon="7.89372" /><trkpt lat="47.3224" lon="7.89381" /><trkpt lat="47.32279" lon="7.89391" /><trkpt lat="47.32318" lon="7.89402" /><trkpt lat="47.32374" lon="7.89422" /><trkpt lat="47.32448" lon="7.89452" /><trkpt lat="47.32521" lon="7.89482" /><trkpt lat="47.327" lon="7.89562" /><trkpt lat="47.32769" lon="7.89601" /><trkpt lat="47.32834" lon="7.89639" /><trkpt lat="47.32945" lon="7.89714" /><trkpt lat="47.33036" lon="7.89789" /><trkpt lat="47.33602" lon="7.9027" /><trkpt lat="47.33663" lon="7.90326" /><trkpt lat="47.33706" lon="7.90374" /><trkpt lat="47.33738" lon="7.9041" /><trkpt lat="47.3375" lon="7.90425" /><trkpt lat="47.33784" lon="7.90465" /><trkpt lat="47.33822" lon="7.90509" /><trkpt lat="47.33852" lon="7.90545" /><trkpt lat="47.33894" lon="7.90586" /><trkpt lat="47.33938" lon="7.90627" /><trkpt lat="47.33962" lon="7.90647" /><trkpt lat="47.33986" lon="7.90666" /><trkpt lat="47.34046" lon="7.9071" /><trkpt lat="47.34086" lon="7.90734" /><trkpt lat="47.34101" lon="7.90743" /><trkpt lat="47.34146" lon="7.90766" /><trkpt lat="47.34196" lon="7.90787" /><trkpt lat="47.34247" lon="7.90805" /><trkpt lat="47.34262" lon="7.90808" /><trkpt lat="47.34274" lon="7.90811" /><trkpt lat="47.34283" lon="7.90812" /><trkpt lat="47.34294" lon="7.90814" /><trkpt lat="47.34308" lon="7.90816" /><trkpt lat="47.34319" lon="7.90817" /><trkpt lat="47.34335" lon="7.90817" /><trkpt lat="47.34352" lon="7.90817" /><trkpt lat="47.34368" lon="7.90817" /><trkpt lat="47.34385" lon="7.90815" /><trkpt lat="47.34393" lon="7.90814" /><trkpt lat="47.34401" lon="7.90813" /><trkpt lat="47.34418" lon="7.9081" /><trkpt lat="47.34437" lon="7.90806" /><trkpt lat="47.34451" lon="7.90802" /><trkpt lat="47.34469" lon="7.90796" /><trkpt lat="47.34483" lon="7.90791" /><trkpt lat="47.34501" lon="7.90784" /><trkpt lat="47.34514" lon="7.90779" /><trkpt lat="47.34557" lon="7.90761" /><trkpt lat="47.3458" lon="7.90751" /><trkpt lat="47.34612" lon="7.90739" /><trkpt lat="47.34626" lon="7.90733" /><trkpt lat="47.3464" lon="7.90728" /><trkpt lat="47.34646" lon="7.90726" /><trkpt lat="47.34656" lon="7.90724" /><trkpt lat="47.34665" lon="7.90721" /><trkpt lat="47.34675" lon="7.90719" /><trkpt lat="47.3469" lon="7.90716" /><trkpt lat="47.3471" lon="7.90714" /><trkpt lat="47.34717" lon="7.90714" /><trkpt lat="47.34748" lon="7.90714" /><trkpt lat="47.34758" lon="7.90714" /><trkpt lat="47.34767" lon="7.90715" /><trkpt lat="47.34774" lon="7.90716" /><trkpt lat="47.34789" lon="7.90719" /><trkpt lat="47.348" lon="7.90722" /><trkpt lat="47.34811" lon="7.90725" /><trkpt lat="47.34837" lon="7.90732" /><trkpt lat="47.34856" lon="7.90735" /><trkpt lat="47.34925" lon="7.90747" /><trkpt lat="47.34961" lon="7.90755" /><trkpt lat="47.34971" lon="7.90757" /><trkpt lat="47.34979" lon="7.9076" /><trkpt lat="47.35039" lon="7.90776" /><trkpt lat="47.35067" lon="7.90783" /><trkpt lat="47.35116" lon="7.90796" /><trkpt lat="47.3513" lon="7.90799" /><trkpt lat="47.35162" lon="7.90804" /><trkpt lat="47.35199" lon="7.9081" /><trkpt lat="47.35342" lon="7.90834" /><trkpt lat="47.35365" lon="7.90838" /><trkpt lat="47.35375" lon="7.9084" /><trkpt lat="47.3539" lon="7.90844" /><trkpt lat="47.35407" lon="7.90849" /><trkpt lat="47.35424" lon="7.90855" /><trkpt lat="47.35435" lon="7.9086" /><trkpt lat="47.3545" lon="7.90866" /><trkpt lat="47.35473" lon="7.90877" /><trkpt lat="47.35487" lon="7.90886" /><trkpt lat="47.35499" lon="7.90893" /><trkpt lat="47.35512" lon="7.90902" /><trkpt lat="47.35521" lon="7.90908" /><trkpt lat="47.35528" lon="7.90913" /><trkpt lat="47.35542" lon="7.90924" /><trkpt lat="47.35562" lon="7.9094" /><trkpt lat="47.35585" lon="7.90964" /><trkpt lat="47.35608" lon="7.90991" /><trkpt lat="47.35631" lon="7.91023" /><trkpt lat="47.35654" lon="7.9106" /><trkpt lat="47.35688" lon="7.91127" /><trkpt lat="47.35705" lon="7.91161" /><trkpt lat="47.35727" lon="7.91211" /><trkpt lat="47.35738" lon="7.91234" /><trkpt lat="47.3574" lon="7.91239" /><trkpt lat="47.35795" lon="7.91346" /><trkpt lat="47.35838" lon="7.9143" /><trkpt lat="47.35868" lon="7.91486" /><trkpt lat="47.35881" lon="7.91509" /><trkpt lat="47.35903" lon="7.91545" /><trkpt lat="47.35927" lon="7.9158" /><trkpt lat="47.35955" lon="7.91617" /><trkpt lat="47.35982" lon="7.91649" /><trkpt lat="47.3601" lon="7.9168" /><trkpt lat="47.36047" lon="7.91713" /><trkpt lat="47.36067" lon="7.91731" /><trkpt lat="47.36088" lon="7.91747" /><trkpt lat="47.36137" lon="7.91779" /><trkpt lat="47.36184" lon="7.91804" /><trkpt lat="47.36228" lon="7.91823" /><trkpt lat="47.36254" lon="7.91831" /><trkpt lat="47.36279" lon="7.91838" /><trkpt lat="47.3631" lon="7.91842" /><trkpt lat="47.3634" lon="7.91844" /><trkpt lat="47.36371" lon="7.91842" /><trkpt lat="47.36409" lon="7.91836" /><trkpt lat="47.36445" lon="7.91826" /><trkpt lat="47.36489" lon="7.91811" /><trkpt lat="47.36512" lon="7.91803" /><trkpt lat="47.36546" lon="7.91784" /><trkpt lat="47.3657" lon="7.91774" /><trkpt lat="47.36595" lon="7.91764" /><trkpt lat="47.36619" lon="7.91756" /><trkpt lat="47.36745" lon="7.91713" /><trkpt lat="47.36884" lon="7.91663" /><trkpt lat="47.36913" lon="7.91653" /><trkpt lat="47.36942" lon="7.91643" /><trkpt lat="47.36985" lon="7.91627" /><trkpt lat="47.37058" lon="7.916" /><trkpt lat="47.37147" lon="7.91568" /><trkpt lat="47.37311" lon="7.91509" /><trkpt lat="47.37714" lon="7.91363" /><trkpt lat="47.38107" lon="7.91221" /><trkpt lat="47.38587" lon="7.91047" /><trkpt lat="47.38979" lon="7.90905" /><trkpt lat="47.39403" lon="7.90752" /><trkpt lat="47.39536" lon="7.90703" /><trkpt lat="47.3994" lon="7.90557" /><trkpt lat="47.40377" lon="7.90399" /><trkpt lat="47.40858" lon="7.90224" /><trkpt lat="47.41251" lon="7.90082" /><trkpt lat="47.41684" lon="7.89925" /><trkpt lat="47.41821" lon="7.89875" /><trkpt lat="47.42252" lon="7.89719" /><trkpt lat="47.42694" lon="7.89559" /><trkpt lat="47.43174" lon="7.89385" /><trkpt lat="47.43657" lon="7.89209" /><trkpt lat="47.44025" lon="7.89076" /><trkpt lat="47.44163" lon="7.89026" /><trkpt lat="47.44191" lon="7.89015" /><trkpt lat="47.44242" lon="7.88994" /><trkpt lat="47.44283" lon="7.88975" /><trkpt lat="47.44348" lon="7.88936" /><trkpt lat="47.44367" lon="7.8892" /><trkpt lat="47.44408" lon="7.88885" /><trkpt lat="47.44582" lon="7.88719" /><trkpt lat="47.44713" lon="7.886" /><trkpt lat="47.44765" lon="7.88549" /><trkpt lat="47.44797" lon="7.88511" /><trkpt lat="47.44838" lon="7.88454" /><trkpt lat="47.44875" lon="7.88389" /><trkpt lat="47.44886" lon="7.8837" /><trkpt lat="47.44929" lon="7.88281" /><trkpt lat="47.44951" lon="7.8824" /><trkpt lat="47.44992" lon="7.88166" /><trkpt lat="47.45004" lon="7.88144" /><trkpt lat="47.45031" lon="7.88101" /><trkpt lat="47.45066" lon="7.88049" /><trkpt lat="47.45097" lon="7.88008" /><trkpt lat="47.45135" lon="7.87965" /><trkpt lat="47.45195" lon="7.87905" /><trkpt lat="47.45202" lon="7.87898" /><trkpt lat="47.45207" lon="7.87893" /><trkpt lat="47.45527" lon="7.87588" /><trkpt lat="47.45656" lon="7.87456" /><trkpt lat="47.45688" lon="7.87409" /><trkpt lat="47.45735" lon="7.87328" /><trkpt lat="47.45759" lon="7.87285" /><trkpt lat="47.45787" lon="7.87218" /><trkpt lat="47.45802" lon="7.87178" /><trkpt lat="47.45817" lon="7.87137" /><trkpt lat="47.45834" lon="7.87084" /><trkpt lat="47.45915" lon="7.86775" /><trkpt lat="47.45954" lon="7.86661" /><trkpt lat="47.45995" lon="7.86569" /><trkpt lat="47.46031" lon="7.865" /><trkpt lat="47.46069" lon="7.86437" /><trkpt lat="47.46122" lon="7.86362" /><trkpt lat="47.46178" lon="7.86295" /><trkpt lat="47.46238" lon="7.86238" /><trkpt lat="47.46302" lon="7.86185" /><trkpt lat="47.46507" lon="7.8602" /><trkpt lat="47.46525" lon="7.86002" /><trkpt lat="47.46543" lon="7.85983" /><trkpt lat="47.4656" lon="7.85964" /><trkpt lat="47.46572" lon="7.85948" /><trkpt lat="47.4658" lon="7.85937" /><trkpt lat="47.46606" lon="7.85899" /><trkpt lat="47.46624" lon="7.85868" /><trkpt lat="47.46638" lon="7.85842" /><trkpt lat="47.46658" lon="7.85796" /><trkpt lat="47.46669" lon="7.85768" /><trkpt lat="47.46681" lon="7.85734" /><trkpt lat="47.46687" lon="7.85715" /><trkpt lat="47.46701" lon="7.85659" /><trkpt lat="47.46709" lon="7.85618" /><trkpt lat="47.46716" lon="7.85569" /><trkpt lat="47.46721" lon="7.8552" /><trkpt lat="47.46724" lon="7.8547" /><trkpt lat="47.46723" lon="7.8542" /><trkpt lat="47.4672" lon="7.85371" /><trkpt lat="47.46715" lon="7.85322" /><trkpt lat="47.4671" lon="7.85289" /><trkpt lat="47.46703" lon="7.85248" /><trkpt lat="47.46687" lon="7.85166" /><trkpt lat="47.46677" lon="7.85118" /><trkpt lat="47.46669" lon="7.85077" /><trkpt lat="47.46635" lon="7.84878" /><trkpt lat="47.4662" lon="7.848" /><trkpt lat="47.46609" lon="7.84744" /><trkpt lat="47.4656" lon="7.84503" /><trkpt lat="47.4654" lon="7.84417" /><trkpt lat="47.46514" lon="7.84308" /><trkpt lat="47.46496" lon="7.84238" /><trkpt lat="47.46484" lon="7.84185" /><trkpt lat="47.46478" lon="7.84149" /><trkpt lat="47.4647" lon="7.84083" /><trkpt lat="47.46468" lon="7.84069" /><trkpt lat="47.46467" lon="7.84034" /><trkpt lat="47.46465" lon="7.83981" /><trkpt lat="47.4647" lon="7.83887" /><trkpt lat="47.46477" lon="7.83793" /><trkpt lat="47.46483" lon="7.83674" /><trkpt lat="47.46483" lon="7.83619" /><trkpt lat="47.46478" lon="7.83554" /><trkpt lat="47.46472" lon="7.83515" /><trkpt lat="47.46465" lon="7.83473" /><trkpt lat="47.46462" lon="7.83461" /><trkpt lat="47.46449" lon="7.83407" /><trkpt lat="47.46421" lon="7.83319" /><trkpt lat="47.46382" lon="7.83241" /><trkpt lat="47.46317" lon="7.83147" /><trkpt lat="47.46211" lon="7.83038" /><trkpt lat="47.46186" lon="7.83008" /><trkpt lat="47.46167" lon="7.82985" /><trkpt lat="47.46146" lon="7.82955" /><trkpt lat="47.46132" lon="7.82935" /><trkpt lat="47.46119" lon="7.82912" /><trkpt lat="47.46102" lon="7.8288" /><trkpt lat="47.46091" lon="7.82856" /><trkpt lat="47.46076" lon="7.82821" /><trkpt lat="47.46067" lon="7.82798" /><trkpt lat="47.46055" lon="7.82762" /><trkpt lat="47.46048" lon="7.82736" /><trkpt lat="47.46033" lon="7.82671" /><trkpt lat="47.46029" lon="7.82651" /><trkpt lat="47.4602" lon="7.82591" /><trkpt lat="47.46016" lon="7.8252" /><trkpt lat="47.46016" lon="7.82456" /><trkpt lat="47.46019" lon="7.82407" /><trkpt lat="47.46024" lon="7.82358" /><trkpt lat="47.46042" lon="7.82258" /><trkpt lat="47.46106" lon="7.81918" /><trkpt lat="47.46108" lon="7.81909" /><trkpt lat="47.4611" lon="7.81899" /><trkpt lat="47.4614" lon="7.81745" /><trkpt lat="47.46167" lon="7.8162" /><trkpt lat="47.46216" lon="7.81416" /><trkpt lat="47.4628" lon="7.81154" /><trkpt lat="47.46308" lon="7.81048" /><trkpt lat="47.46338" lon="7.80939" /><trkpt lat="47.46347" lon="7.80908" /><trkpt lat="47.46354" lon="7.80887" /><trkpt lat="47.46371" lon="7.80843" /><trkpt lat="47.4639" lon="7.80797" /><trkpt lat="47.46445" lon="7.80669" /><trkpt lat="47.46466" lon="7.80617" /><trkpt lat="47.46486" lon="7.80564" /><trkpt lat="47.46503" lon="7.80506" /><trkpt lat="47.46518" lon="7.80444" /><trkpt lat="47.46531" lon="7.80371" /><trkpt lat="47.46541" lon="7.80295" /><trkpt lat="47.4656" lon="7.80141" /><trkpt lat="47.46738" lon="7.7873" /><trkpt lat="47.46844" lon="7.77875" /><trkpt lat="47.46896" lon="7.77456" /><trkpt lat="47.46924" lon="7.77238" /><trkpt lat="47.46961" lon="7.76939" /><trkpt lat="47.46971" lon="7.76857" /><trkpt lat="47.46975" lon="7.76813" /><trkpt lat="47.46978" lon="7.76761" /><trkpt lat="47.46979" lon="7.76712" /><trkpt lat="47.46978" lon="7.76639" /><trkpt lat="47.46972" lon="7.76387" /><trkpt lat="47.46972" lon="7.76335" /><trkpt lat="47.46974" lon="7.76279" /><trkpt lat="47.46979" lon="7.76225" /><trkpt lat="47.46984" lon="7.7618" /><trkpt lat="47.46989" lon="7.76144" /><trkpt lat="47.46993" lon="7.76118" /><trkpt lat="47.47002" lon="7.76073" /><trkpt lat="47.47012" lon="7.76031" /><trkpt lat="47.47022" lon="7.75989" /><trkpt lat="47.4703" lon="7.75962" /><trkpt lat="47.47038" lon="7.75938" /><trkpt lat="47.47054" lon="7.7589" /><trkpt lat="47.47054" lon="7.75889" /><trkpt lat="47.47074" lon="7.75839" /><trkpt lat="47.47092" lon="7.75799" /><trkpt lat="47.47126" lon="7.75725" /><trkpt lat="47.47147" lon="7.75681" /><trkpt lat="47.4717" lon="7.75632" /><trkpt lat="47.47192" lon="7.75584" /><trkpt lat="47.47219" lon="7.75528" /><trkpt lat="47.47269" lon="7.75419" /><trkpt lat="47.47434" lon="7.75069" /><trkpt lat="47.47563" lon="7.74795" /><trkpt lat="47.47646" lon="7.74619" /><trkpt lat="47.47662" lon="7.74584" /><trkpt lat="47.47686" lon="7.74533" /><trkpt lat="47.47704" lon="7.74496" /><trkpt lat="47.47764" lon="7.74371" /><trkpt lat="47.47777" lon="7.74342" /><trkpt lat="47.47809" lon="7.74274" /><trkpt lat="47.47813" lon="7.74266" /><trkpt lat="47.47862" lon="7.74162" /><trkpt lat="47.4791" lon="7.7406" /><trkpt lat="47.47914" lon="7.74051" /><trkpt lat="47.47922" lon="7.74035" /><trkpt lat="47.47948" lon="7.7398" /><trkpt lat="47.47951" lon="7.73973" /><trkpt lat="47.47997" lon="7.73875" /><trkpt lat="47.4805" lon="7.73763" /><trkpt lat="47.48077" lon="7.7371" /><trkpt lat="47.48103" lon="7.73658" /><trkpt lat="47.48131" lon="7.73604" /><trkpt lat="47.4816" lon="7.73553" /><trkpt lat="47.48189" lon="7.73501" /><trkpt lat="47.48221" lon="7.73447" /><trkpt lat="47.48248" lon="7.73402" /><trkpt lat="47.48281" lon="7.73348" /><trkpt lat="47.48304" lon="7.73312" /><trkpt lat="47.48363" lon="7.73219" /><trkpt lat="47.48427" lon="7.73119" /><trkpt lat="47.48478" lon="7.73042" /><trkpt lat="47.48541" lon="7.72948" /><trkpt lat="47.48576" lon="7.72899" /><trkpt lat="47.48582" lon="7.7289" /><trkpt lat="47.48585" lon="7.72886" /><trkpt lat="47.48603" lon="7.72862" /><trkpt lat="47.48633" lon="7.72822" /><trkpt lat="47.48656" lon="7.72793" /><trkpt lat="47.48699" lon="7.72735" /><trkpt lat="47.48723" lon="7.72701" /><trkpt lat="47.48755" lon="7.72657" /><trkpt lat="47.48765" lon="7.72645" /><trkpt lat="47.48775" lon="7.72632" /><trkpt lat="47.48803" lon="7.72596" /><trkpt lat="47.48857" lon="7.72531" /><trkpt lat="47.48914" lon="7.72462" /><trkpt lat="47.48927" lon="7.72447" /><trkpt lat="47.48968" lon="7.72398" /><trkpt lat="47.49008" lon="7.7235" /><trkpt lat="47.49091" lon="7.72249" /><trkpt lat="47.49109" lon="7.72226" /><trkpt lat="47.49178" lon="7.72136" /><trkpt lat="47.49217" lon="7.72083" /><trkpt lat="47.49282" lon="7.7199" /><trkpt lat="47.49345" lon="7.71895" /><trkpt lat="47.49391" lon="7.71823" /><trkpt lat="47.49506" lon="7.71628" /><trkpt lat="47.49531" lon="7.71581" /><trkpt lat="47.49609" lon="7.71436" /><trkpt lat="47.49725" lon="7.71201" /><trkpt lat="47.498" lon="7.71041" /><trkpt lat="47.50056" lon="7.70497" /><trkpt lat="47.50211" lon="7.70179" /><trkpt lat="47.50315" lon="7.69989" /><trkpt lat="47.50469" lon="7.69707" /><trkpt lat="47.50488" lon="7.69674" /><trkpt lat="47.51154" lon="7.68458" /><trkpt lat="47.51175" lon="7.6842" /><trkpt lat="47.51253" lon="7.68278" /><trkpt lat="47.51586" lon="7.67673" /><trkpt lat="47.51703" lon="7.67454" /><trkpt lat="47.51825" lon="7.67244" /><trkpt lat="47.51888" lon="7.6715" /><trkpt lat="47.51927" lon="7.67092" /><trkpt lat="47.52019" lon="7.66972" /><trkpt lat="47.52162" lon="7.66818" /><trkpt lat="47.5226" lon="7.6672" /><trkpt lat="47.5232" lon="7.66668" /><trkpt lat="47.52376" lon="7.66618" /><trkpt lat="47.5249" lon="7.6653" /><trkpt lat="47.52535" lon="7.66497" /><trkpt lat="47.52547" lon="7.66488" /><trkpt lat="47.52548" lon="7.66487" /><trkpt lat="47.52559" lon="7.66479" /><trkpt lat="47.52581" lon="7.66461" /><trkpt lat="47.52606" lon="7.66441" /><trkpt lat="47.52629" lon="7.66421" /><trkpt lat="47.52654" lon="7.66398" /><trkpt lat="47.52678" lon="7.66374" /><trkpt lat="47.52702" lon="7.66349" /><trkpt lat="47.52725" lon="7.66324" /><trkpt lat="47.52752" lon="7.66293" /><trkpt lat="47.52777" lon="7.66263" /><trkpt lat="47.52797" lon="7.66236" /><trkpt lat="47.52809" lon="7.66221" /><trkpt lat="47.52817" lon="7.66209" /><trkpt lat="47.52842" lon="7.66174" /><trkpt lat="47.52863" lon="7.66142" /><trkpt lat="47.52878" lon="7.66118" /><trkpt lat="47.52892" lon="7.66094" /><trkpt lat="47.52908" lon="7.66067" /><trkpt lat="47.52924" lon="7.66038" /><trkpt lat="47.52939" lon="7.6601" /><trkpt lat="47.52953" lon="7.65982" /><trkpt lat="47.52966" lon="7.65956" /><trkpt lat="47.52968" lon="7.6595" /><trkpt lat="47.52978" lon="7.65929" /><trkpt lat="47.52993" lon="7.65896" /><trkpt lat="47.53007" lon="7.65863" /><trkpt lat="47.53025" lon="7.65818" /><trkpt lat="47.53038" lon="7.65785" /><trkpt lat="47.53059" lon="7.65728" /><trkpt lat="47.53074" lon="7.65686" /><trkpt lat="47.53085" lon="7.65653" /><trkpt lat="47.53096" lon="7.6562" /><trkpt lat="47.53105" lon="7.65588" /><trkpt lat="47.5312" lon="7.6554" /><trkpt lat="47.53146" lon="7.6546" /><trkpt lat="47.532" lon="7.65299" /><trkpt lat="47.532" lon="7.65297" /><trkpt lat="47.53297" lon="7.65009" /><trkpt lat="47.53312" lon="7.64964" /><trkpt lat="47.53342" lon="7.64875" /><trkpt lat="47.53363" lon="7.64812" /><trkpt lat="47.53447" lon="7.64562" /><trkpt lat="47.53468" lon="7.64498" /><trkpt lat="47.53474" lon="7.64479" /><trkpt lat="47.53501" lon="7.64403" /><trkpt lat="47.53516" lon="7.64363" /><trkpt lat="47.5353" lon="7.64324" /><trkpt lat="47.53553" lon="7.64256" /><trkpt lat="47.53563" lon="7.64228" /><trkpt lat="47.53592" lon="7.64141" /><trkpt lat="47.53602" lon="7.64111" /><trkpt lat="47.53641" lon="7.63996" /><trkpt lat="47.53654" lon="7.63954" /><trkpt lat="47.53678" lon="7.6388" /><trkpt lat="47.53694" lon="7.6383" /><trkpt lat="47.53702" lon="7.63806" /><trkpt lat="47.53725" lon="7.6373" /><trkpt lat="47.53749" lon="7.63657" /><trkpt lat="47.53812" lon="7.6347" /><trkpt lat="47.53833" lon="7.6341" /><trkpt lat="47.53849" lon="7.63362" /><trkpt lat="47.53882" lon="7.63272" /><trkpt lat="47.53883" lon="7.6327" /><trkpt lat="47.5389" lon="7.63251" /><trkpt lat="47.53909" lon="7.63195" /><trkpt lat="47.53928" lon="7.63139" /><trkpt lat="47.53985" lon="7.62969" /><trkpt lat="47.54042" lon="7.62798" /><trkpt lat="47.54088" lon="7.62664" /><trkpt lat="47.54096" lon="7.62639" /><trkpt lat="47.54105" lon="7.62606" /><trkpt lat="47.5411" lon="7.62591" /><trkpt lat="47.54128" lon="7.62525" /><trkpt lat="47.54161" lon="7.62392" /><trkpt lat="47.54172" lon="7.62352" /><trkpt lat="47.54185" lon="7.62308" /><trkpt lat="47.54227" lon="7.62185" /><trkpt lat="47.54266" lon="7.62071" /><trkpt lat="47.54294" lon="7.61989" /><trkpt lat="47.54297" lon="7.61979" /><trkpt lat="47.54298" lon="7.61977" /><trkpt lat="47.54323" lon="7.61902" /><trkpt lat="47.54336" lon="7.61864" /><trkpt lat="47.54336" lon="7.61863" /><trkpt lat="47.54359" lon="7.61795" /><trkpt lat="47.54384" lon="7.61726" /><trkpt lat="47.54396" lon="7.61695" /><trkpt lat="47.54408" lon="7.61664" /><trkpt lat="47.54429" lon="7.6161" /><trkpt lat="47.54441" lon="7.61581" /><trkpt lat="47.54453" lon="7.61551" /><trkpt lat="47.54476" lon="7.61494" /><trkpt lat="47.54486" lon="7.61467" /><trkpt lat="47.54493" lon="7.6145" /><trkpt lat="47.54497" lon="7.61437" /><trkpt lat="47.54507" lon="7.61411" /><trkpt lat="47.54516" lon="7.61384" /><trkpt lat="47.54525" lon="7.61356" /><trkpt lat="47.54533" lon="7.61329" /><trkpt lat="47.54542" lon="7.61299" /><trkpt lat="47.5455" lon="7.6127" /><trkpt lat="47.54558" lon="7.61239" /><trkpt lat="47.54565" lon="7.61208" /><trkpt lat="47.54569" lon="7.61189" /><trkpt lat="47.54573" lon="7.61169" /><trkpt lat="47.54578" lon="7.61144" /><trkpt lat="47.54583" lon="7.61115" /><trkpt lat="47.54587" lon="7.61089" /><trkpt lat="47.54591" lon="7.61053" /><trkpt lat="47.54591" lon="7.61051" /><trkpt lat="47.54594" lon="7.61022" /><trkpt lat="47.54596" lon="7.6098" /><trkpt lat="47.54597" lon="7.6096" /><trkpt lat="47.54598" lon="7.60941" /><trkpt lat="47.54599" lon="7.60891" /><trkpt lat="47.546" lon="7.60851" /><trkpt lat="47.54599" lon="7.60808" /><trkpt lat="47.54597" lon="7.60769" /><trkpt lat="47.54594" lon="7.60728" /><trkpt lat="47.54591" lon="7.60687" /><trkpt lat="47.54588" lon="7.60668" /><trkpt lat="47.54585" lon="7.60647" /><trkpt lat="47.54579" lon="7.60605" /><trkpt lat="47.54571" lon="7.60565" /><trkpt lat="47.54568" lon="7.6055" /><trkpt lat="47.54563" lon="7.60529" /><trkpt lat="47.54562" lon="7.60525" /><trkpt lat="47.54557" lon="7.60507" /><trkpt lat="47.54553" lon="7.6049" /><trkpt lat="47.54548" lon="7.60472" /><trkpt lat="47.54542" lon="7.60455" /><trkpt lat="47.54533" lon="7.60426" /><trkpt lat="47.54526" lon="7.60405" /><trkpt lat="47.54521" lon="7.6039" /><trkpt lat="47.54514" lon="7.60372" /><trkpt lat="47.54495" lon="7.60325" /><trkpt lat="47.54488" lon="7.60306" /><trkpt lat="47.54479" lon="7.60285" /><trkpt lat="47.54473" lon="7.60268" /><trkpt lat="47.54467" lon="7.60251" /><trkpt lat="47.54461" lon="7.60235" /><trkpt lat="47.54458" lon="7.60226" /><trkpt lat="47.54455" lon="7.60218" /><trkpt lat="47.54452" lon="7.60207" /><trkpt lat="47.54451" lon="7.60203" /><trkpt lat="47.54448" lon="7.60192" /><trkpt lat="47.54444" lon="7.60176" /><trkpt lat="47.54441" lon="7.60163" /><trkpt lat="47.54438" lon="7.60151" /><trkpt lat="47.54436" lon="7.60137" /><trkpt lat="47.54433" lon="7.6012" /><trkpt lat="47.54431" lon="7.60106" /><trkpt lat="47.54429" lon="7.60091" /><trkpt lat="47.54428" lon="7.6008" /><trkpt lat="47.54426" lon="7.60068" /><trkpt lat="47.54425" lon="7.60054" /><trkpt lat="47.54425" lon="7.60043" /><trkpt lat="47.54424" lon="7.60031" /><trkpt lat="47.54424" lon="7.60026" /><trkpt lat="47.54423" lon="7.60017" /><trkpt lat="47.54423" lon="7.60001" /><trkpt lat="47.54423" lon="7.59984" /><trkpt lat="47.54423" lon="7.59969" /><trkpt lat="47.54424" lon="7.59953" /><trkpt lat="47.54424" lon="7.59941" /><trkpt lat="47.54427" lon="7.59917" /><trkpt lat="47.54429" lon="7.59894" /><trkpt lat="47.54431" lon="7.59885" /><trkpt lat="47.54433" lon="7.59873" /><trkpt lat="47.54436" lon="7.59861" /><trkpt lat="47.54439" lon="7.59848" /><trkpt lat="47.54447" lon="7.59812" /><trkpt lat="47.54448" lon="7.59806" /><trkpt lat="47.54451" lon="7.59795" /><trkpt lat="47.54453" lon="7.59786" /><trkpt lat="47.54457" lon="7.59772" /><trkpt lat="47.54466" lon="7.59738" /><trkpt lat="47.54483" lon="7.59677" /><trkpt lat="47.54485" lon="7.59668" /><trkpt lat="47.54491" lon="7.59646" /><trkpt lat="47.54499" lon="7.59622" /><trkpt lat="47.54522" lon="7.59552" /><trkpt lat="47.54547" lon="7.59478" /><trkpt lat="47.54556" lon="7.59458" /><trkpt lat="47.54565" lon="7.59438" /><trkpt lat="47.54571" lon="7.59424" /><trkpt lat="47.54575" lon="7.59415" /><trkpt lat="47.54585" lon="7.59392" /><trkpt lat="47.54592" lon="7.59376" /><trkpt lat="47.54601" lon="7.59356" /><trkpt lat="47.54608" lon="7.59339" /><trkpt lat="47.54615" lon="7.5932" /><trkpt lat="47.54618" lon="7.59311" /><trkpt lat="47.54658" lon="7.59194" /><trkpt lat="47.54658" lon="7.59194" /></trkseg></trk></gpx>