<gpx version="1.1" creator="Trainlog.me"><trk><name>Trip Path</name><trkseg><trkpt lat="46.94916" lon="7.43955" /><trkpt lat="46.94919" lon="7.43959" /><trkpt lat="46.94937" lon="7.43978" /><trkpt lat="46.94951" lon="7.43988" /><trkpt lat="46.94966" lon="7.43997" /><trkpt lat="46.94992" lon="7.44008" /><trkpt lat="46.95013" lon="7.44014" /><trkpt lat="46.95016" lon="7.44015" /><trkpt lat="46.95064" lon="7.44023" /><trkpt lat="46.95074" lon="7.44025" /><trkpt lat="46.95084" lon="7.44028" /><trkpt lat="46.95093" lon="7.44031" /><trkpt lat="46.95103" lon="7.44034" /><trkpt lat="46.95122" lon="7.44043" /><trkpt lat="46.95134" lon="7.44049" /><trkpt lat="46.95142" lon="7.44052" /><trkpt lat="46.95148" lon="7.44056" /><trkpt lat="46.95152" lon="7.44058" /><trkpt lat="46.95156" lon="7.44061" /><trkpt lat="46.95189" lon="7.44082" /><trkpt lat="46.95206" lon="7.44092" /><trkpt lat="46.95238" lon="7.44107" /><trkpt lat="46.95246" lon="7.44112" /><trkpt lat="46.95284" lon="7.44135" /><trkpt lat="46.95291" lon="7.4414" /><trkpt lat="46.95305" lon="7.44148" /><trkpt lat="46.9537" lon="7.44184" /><trkpt lat="46.9537" lon="7.44185" /><trkpt lat="46.95371" lon="7.44185" /><trkpt lat="46.95418" lon="7.44211" /><trkpt lat="46.95452" lon="7.4423" /><trkpt lat="46.95485" lon="7.44249" /><trkpt lat="46.95508" lon="7.44261" /><trkpt lat="46.95531" lon="7.44272" /><trkpt lat="46.95555" lon="7.44281" /><trkpt lat="46.95579" lon="7.44288" /><trkpt lat="46.95604" lon="7.44293" /><trkpt lat="46.95629" lon="7.44296" /><trkpt lat="46.95655" lon="7.44297" /><trkpt lat="46.95666" lon="7.44298" /><trkpt lat="46.95666" lon="7.44298" /><trkpt lat="46.95666" lon="7.44298" /><trkpt lat="46.95782" lon="7.44301" /><trkpt lat="46.95807" lon="7.44303" /><trkpt lat="46.95831" lon="7.44305" /><trkpt lat="46.95855" lon="7.4431" /><trkpt lat="46.95879" lon="7.44316" /><trkpt lat="46.95903" lon="7.44325" /><trkpt lat="46.95926" lon="7.44336" /><trkpt lat="46.95949" lon="7.44349" /><trkpt lat="46.95971" lon="7.44363" /><trkpt lat="46.95992" lon="7.4438" /><trkpt lat="46.96013" lon="7.44399" /><trkpt lat="46.96039" lon="7.44423" /><trkpt lat="46.9604" lon="7.44423" /><trkpt lat="46.9604" lon="7.44424" /><trkpt lat="46.96063" lon="7.44445" /><trkpt lat="46.9608" lon="7.44461" /><trkpt lat="46.96087" lon="7.44468" /><trkpt lat="46.96102" lon="7.44481" /><trkpt lat="46.96121" lon="7.44497" /><trkpt lat="46.96137" lon="7.44511" /><trkpt lat="46.96146" lon="7.44519" /><trkpt lat="46.96162" lon="7.44535" /><trkpt lat="46.96181" lon="7.44553" /><trkpt lat="46.96202" lon="7.44574" /><trkpt lat="46.96214" lon="7.44586" /><trkpt lat="46.96226" lon="7.446" /><trkpt lat="46.96246" lon="7.44624" /><trkpt lat="46.96265" lon="7.4465" /><trkpt lat="46.96284" lon="7.44679" /><trkpt lat="46.963" lon="7.44709" /><trkpt lat="46.96316" lon="7.4474" /><trkpt lat="46.9632" lon="7.4475" /><trkpt lat="46.96334" lon="7.44781" /><trkpt lat="46.96334" lon="7.44782" /><trkpt lat="46.96338" lon="7.44792" /><trkpt lat="46.96342" lon="7.44802" /><trkpt lat="46.96345" lon="7.44812" /><trkpt lat="46.96349" lon="7.44822" /><trkpt lat="46.96352" lon="7.44832" /><trkpt lat="46.96355" lon="7.44842" /><trkpt lat="46.96359" lon="7.44852" /><trkpt lat="46.96362" lon="7.44862" /><trkpt lat="46.96367" lon="7.4488" /><trkpt lat="46.96371" lon="7.44897" /><trkpt lat="46.96376" lon="7.44912" /><trkpt lat="46.96378" lon="7.4492" /><trkpt lat="46.96403" lon="7.45012" /><trkpt lat="46.96423" lon="7.45087" /><trkpt lat="46.96435" lon="7.45131" /><trkpt lat="46.96448" lon="7.4518" /><trkpt lat="46.9653" lon="7.45488" /><trkpt lat="46.9654" lon="7.45531" /><trkpt lat="46.96547" lon="7.45562" /><trkpt lat="46.96548" lon="7.45564" /><trkpt lat="46.96553" lon="7.45594" /><trkpt lat="46.96558" lon="7.45619" /><trkpt lat="46.96562" lon="7.45648" /><trkpt lat="46.96569" lon="7.45696" /><trkpt lat="46.96579" lon="7.4576" /><trkpt lat="46.96587" lon="7.45812" /><trkpt lat="46.966" lon="7.45869" /><trkpt lat="46.96626" lon="7.45972" /><trkpt lat="46.96661" lon="7.46106" /><trkpt lat="46.96672" lon="7.46147" /><trkpt lat="46.96678" lon="7.46171" /><trkpt lat="46.96683" lon="7.46193" /><trkpt lat="46.96689" lon="7.4622" /><trkpt lat="46.9669" lon="7.46224" /><trkpt lat="46.96694" lon="7.46245" /><trkpt lat="46.96698" lon="7.46264" /><trkpt lat="46.96701" lon="7.46282" /><trkpt lat="46.96703" lon="7.46295" /><trkpt lat="46.96705" lon="7.4631" /><trkpt lat="46.96706" lon="7.46319" /><trkpt lat="46.96707" lon="7.4633" /><trkpt lat="46.96709" lon="7.46346" /><trkpt lat="46.96709" lon="7.46355" /><trkpt lat="46.9671" lon="7.46367" /><trkpt lat="46.96711" lon="7.46388" /><trkpt lat="46.96711" lon="7.46405" /><trkpt lat="46.96711" lon="7.46416" /><trkpt lat="46.96711" lon="7.46417" /><trkpt lat="46.96711" lon="7.46431" /><trkpt lat="46.9671" lon="7.46447" /><trkpt lat="46.96709" lon="7.46464" /><trkpt lat="46.96708" lon="7.46482" /><trkpt lat="46.96707" lon="7.46498" /><trkpt lat="46.96705" lon="7.46514" /><trkpt lat="46.96703" lon="7.46531" /><trkpt lat="46.96701" lon="7.46547" /><trkpt lat="46.96697" lon="7.46566" /><trkpt lat="46.96694" lon="7.46584" /><trkpt lat="46.9669" lon="7.46603" /><trkpt lat="46.96686" lon="7.46622" /><trkpt lat="46.96681" lon="7.46645" /><trkpt lat="46.96675" lon="7.46666" /><trkpt lat="46.9667" lon="7.46685" /><trkpt lat="46.96654" lon="7.46749" /><trkpt lat="46.96624" lon="7.46865" /><trkpt lat="46.96623" lon="7.46869" /><trkpt lat="46.96622" lon="7.46872" /><trkpt lat="46.96558" lon="7.47115" /><trkpt lat="46.96545" lon="7.47165" /><trkpt lat="46.96536" lon="7.47201" /><trkpt lat="46.96524" lon="7.47245" /><trkpt lat="46.96484" lon="7.47416" /><trkpt lat="46.96479" lon="7.47435" /><trkpt lat="46.96478" lon="7.4744" /><trkpt lat="46.96467" lon="7.47477" /><trkpt lat="46.96462" lon="7.47494" /><trkpt lat="46.96457" lon="7.4751" /><trkpt lat="46.96451" lon="7.47526" /><trkpt lat="46.96444" lon="7.47544" /><trkpt lat="46.96436" lon="7.47565" /><trkpt lat="46.96427" lon="7.47587" /><trkpt lat="46.96416" lon="7.47612" /><trkpt lat="46.96404" lon="7.47639" /><trkpt lat="46.96384" lon="7.47679" /><trkpt lat="46.96368" lon="7.4771" /><trkpt lat="46.96356" lon="7.47731" /><trkpt lat="46.96342" lon="7.47755" /><trkpt lat="46.96328" lon="7.47778" /><trkpt lat="46.96316" lon="7.47798" /><trkpt lat="46.96289" lon="7.47838" /><trkpt lat="46.96268" lon="7.47868" /><trkpt lat="46.96245" lon="7.47897" /><trkpt lat="46.96245" lon="7.47897" /><trkpt lat="46.96223" lon="7.47924" /><trkpt lat="46.96206" lon="7.47943" /><trkpt lat="46.96192" lon="7.47958" /><trkpt lat="46.96176" lon="7.47974" /><trkpt lat="46.96162" lon="7.47988" /><trkpt lat="46.96147" lon="7.48002" /><trkpt lat="46.96135" lon="7.48012" /><trkpt lat="46.96121" lon="7.48022" /><trkpt lat="46.96106" lon="7.48033" /><trkpt lat="46.9609" lon="7.48044" /><trkpt lat="46.96074" lon="7.48053" /><trkpt lat="46.96058" lon="7.48062" /><trkpt lat="46.96042" lon="7.4807" /><trkpt lat="46.96026" lon="7.48077" /><trkpt lat="46.96017" lon="7.4808" /><trkpt lat="46.96009" lon="7.48084" /><trkpt lat="46.95995" lon="7.48088" /><trkpt lat="46.95977" lon="7.48093" /><trkpt lat="46.95911" lon="7.48112" /><trkpt lat="46.95877" lon="7.48121" /><trkpt lat="46.9587" lon="7.48123" /><trkpt lat="46.95815" lon="7.48138" /><trkpt lat="46.95791" lon="7.48144" /><trkpt lat="46.95783" lon="7.48147" /><trkpt lat="46.95699" lon="7.48175" /><trkpt lat="46.95676" lon="7.48182" /><trkpt lat="46.95574" lon="7.4821" /><trkpt lat="46.95511" lon="7.48224" /><trkpt lat="46.95493" lon="7.48227" /><trkpt lat="46.95442" lon="7.48236" /><trkpt lat="46.95426" lon="7.48239" /><trkpt lat="46.95411" lon="7.48241" /><trkpt lat="46.95395" lon="7.48245" /><trkpt lat="46.95381" lon="7.48248" /><trkpt lat="46.95311" lon="7.48266" /><trkpt lat="46.95304" lon="7.48268" /><trkpt lat="46.95209" lon="7.48294" /><trkpt lat="46.95198" lon="7.48298" /><trkpt lat="46.95187" lon="7.48302" /><trkpt lat="46.95176" lon="7.48307" /><trkpt lat="46.95165" lon="7.48312" /><trkpt lat="46.95154" lon="7.48317" /><trkpt lat="46.95143" lon="7.48323" /><trkpt lat="46.95132" lon="7.48329" /><trkpt lat="46.95122" lon="7.48335" /><trkpt lat="46.95112" lon="7.48341" /><trkpt lat="46.95103" lon="7.48348" /><trkpt lat="46.95093" lon="7.48355" /><trkpt lat="46.95083" lon="7.48363" /><trkpt lat="46.95073" lon="7.48371" /><trkpt lat="46.95061" lon="7.48381" /><trkpt lat="46.9505" lon="7.48391" /><trkpt lat="46.95037" lon="7.48403" /><trkpt lat="46.95024" lon="7.48416" /><trkpt lat="46.94986" lon="7.48454" /><trkpt lat="46.94971" lon="7.48468" /><trkpt lat="46.94806" lon="7.48629" /><trkpt lat="46.94503" lon="7.48924" /><trkpt lat="46.94495" lon="7.48932" /><trkpt lat="46.94331" lon="7.49091" /><trkpt lat="46.9431" lon="7.49112" /><trkpt lat="46.9429" lon="7.49132" /><trkpt lat="46.94273" lon="7.4915" /><trkpt lat="46.94263" lon="7.4916" /><trkpt lat="46.94253" lon="7.4917" /><trkpt lat="46.94244" lon="7.49181" /><trkpt lat="46.94234" lon="7.49191" /><trkpt lat="46.94226" lon="7.492" /><trkpt lat="46.94218" lon="7.49209" /><trkpt lat="46.94205" lon="7.49224" /><trkpt lat="46.94192" lon="7.49239" /><trkpt lat="46.94179" lon="7.49255" /><trkpt lat="46.94165" lon="7.49272" /><trkpt lat="46.94152" lon="7.49288" /><trkpt lat="46.94139" lon="7.49305" /><trkpt lat="46.94127" lon="7.49322" /><trkpt lat="46.94114" lon="7.49339" /><trkpt lat="46.94103" lon="7.49355" /><trkpt lat="46.94091" lon="7.49371" /><trkpt lat="46.94079" lon="7.49389" /><trkpt lat="46.94066" lon="7.49408" /><trkpt lat="46.94054" lon="7.49426" /><trkpt lat="46.94043" lon="7.49444" /><trkpt lat="46.94027" lon="7.49469" /><trkpt lat="46.94013" lon="7.49493" /><trkpt lat="46.93987" lon="7.49537" /><trkpt lat="46.93909" lon="7.49673" /><trkpt lat="46.93816" lon="7.49839" /><trkpt lat="46.93793" lon="7.49879" /><trkpt lat="46.93767" lon="7.49923" /><trkpt lat="46.93734" lon="7.49981" /><trkpt lat="46.93702" lon="7.50042" /><trkpt lat="46.93639" lon="7.50158" /><trkpt lat="46.93622" lon="7.50188" /><trkpt lat="46.93584" lon="7.50254" /><trkpt lat="46.93515" lon="7.50376" /><trkpt lat="46.93417" lon="7.50552" /><trkpt lat="46.93348" lon="7.50675" /><trkpt lat="46.9329" lon="7.50777" /><trkpt lat="46.93245" lon="7.50857" /><trkpt lat="46.93182" lon="7.5097" /><trkpt lat="46.93156" lon="7.51014" /><trkpt lat="46.93125" lon="7.51066" /><trkpt lat="46.93079" lon="7.51148" /><trkpt lat="46.92943" lon="7.5139" /><trkpt lat="46.92929" lon="7.51416" /><trkpt lat="46.92899" lon="7.51469" /><trkpt lat="46.92845" lon="7.51567" /><trkpt lat="46.92831" lon="7.51593" /><trkpt lat="46.92777" lon="7.5169" /><trkpt lat="46.92591" lon="7.52022" /><trkpt lat="46.92287" lon="7.5257" /><trkpt lat="46.92177" lon="7.52767" /><trkpt lat="46.92145" lon="7.52824" /><trkpt lat="46.92129" lon="7.52852" /><trkpt lat="46.92112" lon="7.5288" /><trkpt lat="46.92095" lon="7.52906" /><trkpt lat="46.92078" lon="7.52933" /><trkpt lat="46.92069" lon="7.52946" /><trkpt lat="46.9206" lon="7.52959" /><trkpt lat="46.92042" lon="7.52986" /><trkpt lat="46.92033" lon="7.52999" /><trkpt lat="46.92024" lon="7.53011" /><trkpt lat="46.92006" lon="7.53036" /><trkpt lat="46.91996" lon="7.53049" /><trkpt lat="46.91986" lon="7.53061" /><trkpt lat="46.91977" lon="7.53073" /><trkpt lat="46.91967" lon="7.53086" /><trkpt lat="46.91948" lon="7.53109" /><trkpt lat="46.91929" lon="7.53131" /><trkpt lat="46.91909" lon="7.53154" /><trkpt lat="46.9189" lon="7.53175" /><trkpt lat="46.91868" lon="7.53198" /><trkpt lat="46.91847" lon="7.53221" /><trkpt lat="46.91681" lon="7.53397" /><trkpt lat="46.91588" lon="7.53499" /><trkpt lat="46.91579" lon="7.53509" /><trkpt lat="46.91513" lon="7.53575" /><trkpt lat="46.9147" lon="7.53617" /><trkpt lat="46.91449" lon="7.53636" /><trkpt lat="46.91428" lon="7.53655" /><trkpt lat="46.91405" lon="7.53674" /><trkpt lat="46.91383" lon="7.53692" /><trkpt lat="46.91361" lon="7.53709" /><trkpt lat="46.9134" lon="7.53725" /><trkpt lat="46.91317" lon="7.53741" /><trkpt lat="46.91295" lon="7.53757" /><trkpt lat="46.91272" lon="7.53772" /><trkpt lat="46.91249" lon="7.53786" /><trkpt lat="46.91225" lon="7.53801" /><trkpt lat="46.91201" lon="7.53815" /><trkpt lat="46.91176" lon="7.53829" /><trkpt lat="46.91152" lon="7.53843" /><trkpt lat="46.91056" lon="7.53898" /><trkpt lat="46.90646" lon="7.54133" /><trkpt lat="46.90633" lon="7.5414" /><trkpt lat="46.90302" lon="7.5433" /><trkpt lat="46.90187" lon="7.54395" /><trkpt lat="46.90074" lon="7.54461" /><trkpt lat="46.90065" lon="7.54466" /><trkpt lat="46.89947" lon="7.54533" /><trkpt lat="46.89623" lon="7.54718" /><trkpt lat="46.89618" lon="7.54721" /><trkpt lat="46.89549" lon="7.5476" /><trkpt lat="46.89261" lon="7.54922" /><trkpt lat="46.89242" lon="7.54935" /><trkpt lat="46.89221" lon="7.54949" /><trkpt lat="46.89195" lon="7.54967" /><trkpt lat="46.89172" lon="7.54984" /><trkpt lat="46.89156" lon="7.54996" /><trkpt lat="46.89141" lon="7.55008" /><trkpt lat="46.89125" lon="7.55021" /><trkpt lat="46.8911" lon="7.55033" /><trkpt lat="46.89092" lon="7.55048" /><trkpt lat="46.89075" lon="7.55063" /><trkpt lat="46.89057" lon="7.55079" /><trkpt lat="46.8904" lon="7.55095" /><trkpt lat="46.89018" lon="7.55115" /><trkpt lat="46.88997" lon="7.55136" /><trkpt lat="46.88956" lon="7.55178" /><trkpt lat="46.88924" lon="7.55212" /><trkpt lat="46.88892" lon="7.55245" /><trkpt lat="46.8886" lon="7.55279" /><trkpt lat="46.88844" lon="7.55296" /><trkpt lat="46.88827" lon="7.55313" /><trkpt lat="46.88806" lon="7.55333" /><trkpt lat="46.88785" lon="7.55353" /><trkpt lat="46.88764" lon="7.55372" /><trkpt lat="46.88742" lon="7.55391" /><trkpt lat="46.88732" lon="7.554" /><trkpt lat="46.88721" lon="7.55409" /><trkpt lat="46.8871" lon="7.55418" /><trkpt lat="46.88699" lon="7.55427" /><trkpt lat="46.88676" lon="7.55445" /><trkpt lat="46.88653" lon="7.55462" /><trkpt lat="46.88642" lon="7.5547" /><trkpt lat="46.88631" lon="7.55478" /><trkpt lat="46.88609" lon="7.55493" /><trkpt lat="46.88598" lon="7.55501" /><trkpt lat="46.88586" lon="7.55508" /><trkpt lat="46.88563" lon="7.55523" /><trkpt lat="46.88539" lon="7.55536" /><trkpt lat="46.88516" lon="7.55549" /><trkpt lat="46.88492" lon="7.55562" /><trkpt lat="46.88468" lon="7.55575" /><trkpt lat="46.88425" lon="7.55596" /><trkpt lat="46.88381" lon="7.55614" /><trkpt lat="46.88354" lon="7.55625" /><trkpt lat="46.88326" lon="7.55636" /><trkpt lat="46.88301" lon="7.55644" /><trkpt lat="46.88277" lon="7.55652" /><trkpt lat="46.88253" lon="7.55659" /><trkpt lat="46.88229" lon="7.55666" /><trkpt lat="46.87976" lon="7.55741" /><trkpt lat="46.87969" lon="7.55742" /><trkpt lat="46.87938" lon="7.55752" /><trkpt lat="46.87906" lon="7.5576" /><trkpt lat="46.87813" lon="7.55788" /><trkpt lat="46.87792" lon="7.55794" /><trkpt lat="46.87496" lon="7.55882" /><trkpt lat="46.87485" lon="7.55885" /><trkpt lat="46.87389" lon="7.55914" /><trkpt lat="46.87096" lon="7.56" /><trkpt lat="46.8707" lon="7.56008" /><trkpt lat="46.87059" lon="7.56011" /><trkpt lat="46.8702" lon="7.56023" /><trkpt lat="46.86946" lon="7.56045" /><trkpt lat="46.85796" lon="7.56386" /><trkpt lat="46.85779" lon="7.56391" /><trkpt lat="46.85446" lon="7.56489" /><trkpt lat="46.85404" lon="7.56502" /><trkpt lat="46.84648" lon="7.56725" /><trkpt lat="46.84594" lon="7.5674" /><trkpt lat="46.8456" lon="7.5675" /><trkpt lat="46.84347" lon="7.56813" /><trkpt lat="46.84208" lon="7.56854" /><trkpt lat="46.8416" lon="7.56868" /><trkpt lat="46.83828" lon="7.56966" /><trkpt lat="46.83538" lon="7.57053" /><trkpt lat="46.83166" lon="7.57163" /><trkpt lat="46.81945" lon="7.57522" /><trkpt lat="46.81934" lon="7.57525" /><trkpt lat="46.81663" lon="7.57606" /><trkpt lat="46.81652" lon="7.57609" /><trkpt lat="46.81636" lon="7.57614" /><trkpt lat="46.81607" lon="7.57622" /><trkpt lat="46.81521" lon="7.57649" /><trkpt lat="46.81394" lon="7.5769" /><trkpt lat="46.81374" lon="7.57696" /><trkpt lat="46.81224" lon="7.57741" /><trkpt lat="46.81148" lon="7.57764" /><trkpt lat="46.80865" lon="7.57848" /><trkpt lat="46.80844" lon="7.57854" /><trkpt lat="46.80642" lon="7.57913" /><trkpt lat="46.80542" lon="7.57942" /><trkpt lat="46.80441" lon="7.57972" /><trkpt lat="46.80426" lon="7.57977" /><trkpt lat="46.79942" lon="7.58119" /><trkpt lat="46.79856" lon="7.58144" /><trkpt lat="46.79764" lon="7.58172" /><trkpt lat="46.79705" lon="7.58189" /><trkpt lat="46.79567" lon="7.5823" /><trkpt lat="46.79519" lon="7.58244" /><trkpt lat="46.79426" lon="7.58271" /><trkpt lat="46.79327" lon="7.58301" /><trkpt lat="46.7919" lon="7.58341" /><trkpt lat="46.79132" lon="7.58358" /><trkpt lat="46.79061" lon="7.58378" /><trkpt lat="46.78973" lon="7.58405" /><trkpt lat="46.78884" lon="7.58431" /><trkpt lat="46.78854" lon="7.58441" /><trkpt lat="46.78824" lon="7.58451" /><trkpt lat="46.78804" lon="7.58458" /><trkpt lat="46.78785" lon="7.58466" /><trkpt lat="46.78765" lon="7.58474" /><trkpt lat="46.78746" lon="7.58482" /><trkpt lat="46.78709" lon="7.58497" /><trkpt lat="46.7869" lon="7.58506" /><trkpt lat="46.78672" lon="7.58515" /><trkpt lat="46.78651" lon="7.58525" /><trkpt lat="46.7863" lon="7.58535" /><trkpt lat="46.78608" lon="7.58546" /><trkpt lat="46.78587" lon="7.58557" /><trkpt lat="46.78561" lon="7.58572" /><trkpt lat="46.78534" lon="7.58587" /><trkpt lat="46.78515" lon="7.58599" /><trkpt lat="46.78495" lon="7.58611" /><trkpt lat="46.78475" lon="7.58623" /><trkpt lat="46.78455" lon="7.58636" /><trkpt lat="46.78433" lon="7.5865" /><trkpt lat="46.78411" lon="7.58665" /><trkpt lat="46.78389" lon="7.58681" /><trkpt lat="46.78378" lon="7.58689" /><trkpt lat="46.78367" lon="7.58697" /><trkpt lat="46.78345" lon="7.58713" /><trkpt lat="46.78322" lon="7.5873" /><trkpt lat="46.783" lon="7.58748" /><trkpt lat="46.78278" lon="7.58765" /><trkpt lat="46.78244" lon="7.58794" /><trkpt lat="46.7821" lon="7.58824" /><trkpt lat="46.78178" lon="7.58853" /><trkpt lat="46.78146" lon="7.58883" /><trkpt lat="46.78103" lon="7.58926" /><trkpt lat="46.78081" lon="7.58948" /><trkpt lat="46.78065" lon="7.58964" /><trkpt lat="46.7806" lon="7.5897" /><trkpt lat="46.78033" lon="7.58999" /><trkpt lat="46.77998" lon="7.59039" /><trkpt lat="46.77991" lon="7.59047" /><trkpt lat="46.77946" lon="7.591" /><trkpt lat="46.77903" lon="7.59154" /><trkpt lat="46.77394" lon="7.59795" /><trkpt lat="46.77381" lon="7.59812" /><trkpt lat="46.77372" lon="7.59823" /><trkpt lat="46.77173" lon="7.60074" /><trkpt lat="46.77054" lon="7.60223" /><trkpt lat="46.76833" lon="7.60501" /><trkpt lat="46.76657" lon="7.60723" /><trkpt lat="46.76419" lon="7.61023" /><trkpt lat="46.76292" lon="7.61182" /><trkpt lat="46.76261" lon="7.61222" /><trkpt lat="46.7623" lon="7.61262" /><trkpt lat="46.76212" lon="7.61285" /><trkpt lat="46.76199" lon="7.61302" /><trkpt lat="46.76183" lon="7.61322" /><trkpt lat="46.76168" lon="7.61343" /><trkpt lat="46.76159" lon="7.61356" /><trkpt lat="46.7615" lon="7.61371" /><trkpt lat="46.76141" lon="7.61386" /><trkpt lat="46.76132" lon="7.61403" /><trkpt lat="46.76124" lon="7.6142" /><trkpt lat="46.76117" lon="7.61438" /><trkpt lat="46.76111" lon="7.61456" /><trkpt lat="46.76105" lon="7.61475" /><trkpt lat="46.76102" lon="7.61486" /><trkpt lat="46.76099" lon="7.61498" /><trkpt lat="46.76097" lon="7.6151" /><trkpt lat="46.76094" lon="7.61522" /><trkpt lat="46.76092" lon="7.61534" /><trkpt lat="46.7609" lon="7.61547" /><trkpt lat="46.76089" lon="7.6156" /><trkpt lat="46.76088" lon="7.61573" /><trkpt lat="46.76087" lon="7.61585" /><trkpt lat="46.76086" lon="7.61596" /><trkpt lat="46.76086" lon="7.61609" /><trkpt lat="46.76086" lon="7.61621" /><trkpt lat="46.76086" lon="7.61634" /><trkpt lat="46.76087" lon="7.61647" /><trkpt lat="46.76087" lon="7.6166" /><trkpt lat="46.76088" lon="7.61674" /><trkpt lat="46.76093" lon="7.61743" /><trkpt lat="46.76096" lon="7.61773" /><trkpt lat="46.76097" lon="7.61789" /><trkpt lat="46.76098" lon="7.61804" /><trkpt lat="46.76098" lon="7.61819" /><trkpt lat="46.76099" lon="7.61835" /><trkpt lat="46.76098" lon="7.6185" /><trkpt lat="46.76098" lon="7.61865" /><trkpt lat="46.76097" lon="7.61879" /><trkpt lat="46.76095" lon="7.61895" /><trkpt lat="46.76093" lon="7.61908" /><trkpt lat="46.76092" lon="7.61916" /><trkpt lat="46.76091" lon="7.61923" /><trkpt lat="46.76088" lon="7.61937" /><trkpt lat="46.76085" lon="7.61952" /><trkpt lat="46.76081" lon="7.61965" /><trkpt lat="46.76077" lon="7.61978" /><trkpt lat="46.76073" lon="7.61992" /><trkpt lat="46.76068" lon="7.62006" /><trkpt lat="46.76061" lon="7.62022" /><trkpt lat="46.76056" lon="7.62033" /><trkpt lat="46.76051" lon="7.62044" /><trkpt lat="46.76044" lon="7.62058" /><trkpt lat="46.7603" lon="7.62086" /><trkpt lat="46.76016" lon="7.62112" /><trkpt lat="46.75999" lon="7.62146" /><trkpt lat="46.75983" lon="7.62177" /><trkpt lat="46.75969" lon="7.62205" /><trkpt lat="46.75955" lon="7.62231" /><trkpt lat="46.75916" lon="7.62308" /><trkpt lat="46.75905" lon="7.62328" /><trkpt lat="46.75895" lon="7.62347" /><trkpt lat="46.75888" lon="7.62359" /><trkpt lat="46.75881" lon="7.62371" /><trkpt lat="46.75873" lon="7.62382" /><trkpt lat="46.75866" lon="7.62393" /><trkpt lat="46.75853" lon="7.62413" /><trkpt lat="46.75839" lon="7.62433" /><trkpt lat="46.75799" lon="7.62489" /><trkpt lat="46.75745" lon="7.62565" /><trkpt lat="46.757" lon="7.62629" /><trkpt lat="46.75646" lon="7.62705" /><trkpt lat="46.75628" lon="7.62731" /><trkpt lat="46.75612" lon="7.62754" /><trkpt lat="46.75591" lon="7.62782" /><trkpt lat="46.75564" lon="7.62821" /><trkpt lat="46.75465" lon="7.62961" /><trkpt lat="46.75377" lon="7.63085" /><trkpt lat="46.75369" lon="7.63096" /><trkpt lat="46.7536" lon="7.63108" /><trkpt lat="46.75351" lon="7.63119" /><trkpt lat="46.75342" lon="7.6313" /><trkpt lat="46.75329" lon="7.63144" /><trkpt lat="46.75323" lon="7.6315" /><trkpt lat="46.75317" lon="7.63155" /><trkpt lat="46.75309" lon="7.63162" /><trkpt lat="46.75301" lon="7.63168" /><trkpt lat="46.75286" lon="7.63179" /><trkpt lat="46.75275" lon="7.63186" /><trkpt lat="46.75258" lon="7.63195" /><trkpt lat="46.75249" lon="7.632" /><trkpt lat="46.75224" lon="7.63211" /><trkpt lat="46.7516" lon="7.63241" /><trkpt lat="46.75135" lon="7.63253" /><trkpt lat="46.7512" lon="7.63259" /><trkpt lat="46.75113" lon="7.63263" /><trkpt lat="46.75075" lon="7.6328" /><trkpt lat="46.75057" lon="7.63289" /><trkpt lat="46.75041" lon="7.63296" /><trkpt lat="46.75033" lon="7.63299" /><trkpt lat="46.75018" lon="7.63305" /><trkpt lat="46.75004" lon="7.63308" /><trkpt lat="46.74991" lon="7.63312" /><trkpt lat="46.74979" lon="7.63313" /><trkpt lat="46.74967" lon="7.63314" /><trkpt lat="46.74954" lon="7.63314" /><trkpt lat="46.74942" lon="7.63313" /><trkpt lat="46.7493" lon="7.63312" /><trkpt lat="46.74917" lon="7.63309" /><trkpt lat="46.74907" lon="7.63307" /><trkpt lat="46.74897" lon="7.63303" /><trkpt lat="46.74883" lon="7.63298" /><trkpt lat="46.74869" lon="7.63292" /><trkpt lat="46.74858" lon="7.63285" /><trkpt lat="46.74846" lon="7.63278" /><trkpt lat="46.7484" lon="7.63274" /><trkpt lat="46.74834" lon="7.63269" /><trkpt lat="46.74828" lon="7.63265" /><trkpt lat="46.74822" lon="7.6326" /><trkpt lat="46.74817" lon="7.63255" /><trkpt lat="46.74807" lon="7.63245" /><trkpt lat="46.74797" lon="7.63235" /><trkpt lat="46.74788" lon="7.63225" /><trkpt lat="46.7478" lon="7.63214" /><trkpt lat="46.74771" lon="7.63203" /><trkpt lat="46.74762" lon="7.6319" /><trkpt lat="46.74748" lon="7.63168" /><trkpt lat="46.74736" lon="7.6315" /><trkpt lat="46.74729" lon="7.63138" /><trkpt lat="46.74707" lon="7.63103" /><trkpt lat="46.74696" lon="7.63085" /><trkpt lat="46.74631" lon="7.62981" /><trkpt lat="46.74556" lon="7.62858" /><trkpt lat="46.74482" lon="7.6274" /><trkpt lat="46.74469" lon="7.62719" /><trkpt lat="46.74455" lon="7.62697" /><trkpt lat="46.74446" lon="7.62684" /><trkpt lat="46.74436" lon="7.6267" /><trkpt lat="46.74423" lon="7.62655" /><trkpt lat="46.74412" lon="7.62641" /><trkpt lat="46.74405" lon="7.62634" /><trkpt lat="46.74398" lon="7.62627" /><trkpt lat="46.74392" lon="7.62621" /><trkpt lat="46.74385" lon="7.62615" /><trkpt lat="46.74377" lon="7.62608" /><trkpt lat="46.74369" lon="7.62601" /><trkpt lat="46.74361" lon="7.62594" /><trkpt lat="46.74352" lon="7.62589" /><trkpt lat="46.74344" lon="7.62583" /><trkpt lat="46.74336" lon="7.62577" /><trkpt lat="46.74327" lon="7.62572" /><trkpt lat="46.74319" lon="7.62568" /><trkpt lat="46.7431" lon="7.62563" /><trkpt lat="46.74301" lon="7.62559" /><trkpt lat="46.74292" lon="7.62555" /><trkpt lat="46.74283" lon="7.62552" /><trkpt lat="46.74272" lon="7.62548" /><trkpt lat="46.74262" lon="7.62545" /><trkpt lat="46.74241" lon="7.62539" /><trkpt lat="46.74152" lon="7.62516" /><trkpt lat="46.74066" lon="7.62494" /><trkpt lat="46.74052" lon="7.6249" /><trkpt lat="46.73826" lon="7.62432" /><trkpt lat="46.7374" lon="7.6241" /><trkpt lat="46.73712" lon="7.62402" /><trkpt lat="46.73683" lon="7.62393" /><trkpt lat="46.73655" lon="7.62383" /><trkpt lat="46.73597" lon="7.62363" /><trkpt lat="46.73489" lon="7.62324" /><trkpt lat="46.73476" lon="7.6232" /><trkpt lat="46.73018" lon="7.62159" /><trkpt lat="46.72909" lon="7.62121" /><trkpt lat="46.72798" lon="7.62082" /><trkpt lat="46.72769" lon="7.62071" /><trkpt lat="46.72715" lon="7.62051" /><trkpt lat="46.72678" lon="7.62036" /><trkpt lat="46.72641" lon="7.62022" /><trkpt lat="46.72591" lon="7.62003" /><trkpt lat="46.72536" lon="7.61984" /><trkpt lat="46.72483" lon="7.61967" /><trkpt lat="46.72447" lon="7.61956" /><trkpt lat="46.72434" lon="7.61953" /><trkpt lat="46.72422" lon="7.6195" /><trkpt lat="46.72411" lon="7.61947" /><trkpt lat="46.72398" lon="7.61944" /><trkpt lat="46.7239" lon="7.61943" /><trkpt lat="46.72382" lon="7.61942" /><trkpt lat="46.7237" lon="7.6194" /><trkpt lat="46.72356" lon="7.61939" /><trkpt lat="46.72342" lon="7.61939" /><trkpt lat="46.72329" lon="7.6194" /><trkpt lat="46.72314" lon="7.61942" /><trkpt lat="46.723" lon="7.61945" /><trkpt lat="46.72286" lon="7.61948" /><trkpt lat="46.72272" lon="7.61953" /><trkpt lat="46.72259" lon="7.61958" /><trkpt lat="46.72246" lon="7.61963" /><trkpt lat="46.72234" lon="7.61969" /><trkpt lat="46.72221" lon="7.61977" /><trkpt lat="46.72208" lon="7.61986" /><trkpt lat="46.72196" lon="7.61995" /><trkpt lat="46.72183" lon="7.62005" /><trkpt lat="46.72171" lon="7.62015" /><trkpt lat="46.7216" lon="7.62027" /><trkpt lat="46.72149" lon="7.62039" /><trkpt lat="46.72138" lon="7.62051" /><trkpt lat="46.72127" lon="7.62065" /><trkpt lat="46.72117" lon="7.62079" /><trkpt lat="46.72107" lon="7.62094" /><trkpt lat="46.72098" lon="7.62109" /><trkpt lat="46.7209" lon="7.62124" /><trkpt lat="46.72082" lon="7.6214" /><trkpt lat="46.72072" lon="7.6216" /><trkpt lat="46.72062" lon="7.62182" /><trkpt lat="46.72036" lon="7.62239" /><trkpt lat="46.72019" lon="7.62278" /><trkpt lat="46.71996" lon="7.62328" /><trkpt lat="46.71985" lon="7.62352" /><trkpt lat="46.71974" lon="7.62373" /><trkpt lat="46.71964" lon="7.62393" /><trkpt lat="46.71953" lon="7.62412" /><trkpt lat="46.71939" lon="7.62435" /><trkpt lat="46.71926" lon="7.62457" /><trkpt lat="46.7189" lon="7.62514" /><trkpt lat="46.7187" lon="7.62547" /><trkpt lat="46.71847" lon="7.62585" /><trkpt lat="46.71824" lon="7.62623" /><trkpt lat="46.71693" lon="7.62845" /><trkpt lat="46.71678" lon="7.62871" /><trkpt lat="46.7141" lon="7.63324" /><trkpt lat="46.71396" lon="7.63349" /><trkpt lat="46.71386" lon="7.63367" /><trkpt lat="46.71378" lon="7.63383" /><trkpt lat="46.71369" lon="7.63399" /><trkpt lat="46.7136" lon="7.63418" /><trkpt lat="46.71352" lon="7.63436" /><trkpt lat="46.71345" lon="7.63454" /><trkpt lat="46.71301" lon="7.63554" /><trkpt lat="46.7123" lon="7.63717" /><trkpt lat="46.71203" lon="7.63779" /><trkpt lat="46.71175" lon="7.63841" /><trkpt lat="46.71067" lon="7.64079" /><trkpt lat="46.71053" lon="7.64112" /><trkpt lat="46.71039" lon="7.64145" /><trkpt lat="46.71024" lon="7.64182" /><trkpt lat="46.71009" lon="7.64217" /><trkpt lat="46.70993" lon="7.64253" /><trkpt lat="46.70982" lon="7.64276" /><trkpt lat="46.70908" lon="7.64439" /><trkpt lat="46.70901" lon="7.64456" /><trkpt lat="46.70888" lon="7.64482" /><trkpt lat="46.70876" lon="7.64508" /><trkpt lat="46.70861" lon="7.64536" /><trkpt lat="46.70847" lon="7.64563" /><trkpt lat="46.70823" lon="7.64607" /><trkpt lat="46.70808" lon="7.64633" /><trkpt lat="46.70686" lon="7.64854" /><trkpt lat="46.70625" lon="7.64965" /><trkpt lat="46.70614" lon="7.64984" /><trkpt lat="46.70603" lon="7.65002" /><trkpt lat="46.70593" lon="7.65018" /><trkpt lat="46.70583" lon="7.65033" /><trkpt lat="46.70571" lon="7.65048" /><trkpt lat="46.7056" lon="7.65061" /><trkpt lat="46.70549" lon="7.65074" /><trkpt lat="46.70537" lon="7.65086" /><trkpt lat="46.70525" lon="7.65097" /><trkpt lat="46.70512" lon="7.65108" /><trkpt lat="46.705" lon="7.65118" /><trkpt lat="46.70487" lon="7.65127" /><trkpt lat="46.70473" lon="7.65135" /><trkpt lat="46.7046" lon="7.65143" /><trkpt lat="46.70446" lon="7.65149" /><trkpt lat="46.70433" lon="7.65155" /><trkpt lat="46.70418" lon="7.65161" /><trkpt lat="46.70403" lon="7.65165" /><trkpt lat="46.70384" lon="7.65171" /><trkpt lat="46.70365" lon="7.65176" /><trkpt lat="46.70343" lon="7.6518" /><trkpt lat="46.70322" lon="7.65186" /><trkpt lat="46.70308" lon="7.6519" /><trkpt lat="46.70294" lon="7.65195" /><trkpt lat="46.70286" lon="7.65198" /><trkpt lat="46.70281" lon="7.65201" /><trkpt lat="46.70267" lon="7.65207" /><trkpt lat="46.70254" lon="7.65214" /><trkpt lat="46.70241" lon="7.65222" /><trkpt lat="46.70229" lon="7.6523" /><trkpt lat="46.70217" lon="7.65239" /><trkpt lat="46.70205" lon="7.65249" /><trkpt lat="46.70193" lon="7.65259" /><trkpt lat="46.70181" lon="7.65271" /><trkpt lat="46.7017" lon="7.65283" /><trkpt lat="46.70159" lon="7.65295" /><trkpt lat="46.70148" lon="7.65308" /><trkpt lat="46.70138" lon="7.65322" /><trkpt lat="46.70128" lon="7.65337" /><trkpt lat="46.70116" lon="7.65355" /><trkpt lat="46.70103" lon="7.65374" /><trkpt lat="46.69919" lon="7.6566" /><trkpt lat="46.69899" lon="7.65691" /><trkpt lat="46.69879" lon="7.65723" /><trkpt lat="46.69856" lon="7.65762" /><trkpt lat="46.69807" lon="7.65846" /><trkpt lat="46.69668" lon="7.66085" /><trkpt lat="46.69655" lon="7.66108" /><trkpt lat="46.69639" lon="7.66133" /><trkpt lat="46.69629" lon="7.66149" /><trkpt lat="46.69619" lon="7.66163" /><trkpt lat="46.69609" lon="7.66177" /><trkpt lat="46.69598" lon="7.6619" /><trkpt lat="46.69587" lon="7.66203" /><trkpt lat="46.69575" lon="7.66215" /><trkpt lat="46.69572" lon="7.66218" /><trkpt lat="46.69561" lon="7.66228" /><trkpt lat="46.6955" lon="7.66238" /><trkpt lat="46.69537" lon="7.66249" /><trkpt lat="46.69525" lon="7.66258" /><trkpt lat="46.69514" lon="7.66266" /><trkpt lat="46.69502" lon="7.66274" /><trkpt lat="46.69487" lon="7.66283" /><trkpt lat="46.69472" lon="7.66291" /><trkpt lat="46.69456" lon="7.66299" /><trkpt lat="46.69441" lon="7.66306" /><trkpt lat="46.69426" lon="7.66311" /><trkpt lat="46.69412" lon="7.66317" /><trkpt lat="46.69331" lon="7.66345" /><trkpt lat="46.69314" lon="7.66351" /><trkpt lat="46.69296" lon="7.66358" /><trkpt lat="46.69278" lon="7.66365" /><trkpt lat="46.69262" lon="7.66373" /><trkpt lat="46.69261" lon="7.66374" /><trkpt lat="46.69251" lon="7.66379" /><trkpt lat="46.69233" lon="7.6639" /><trkpt lat="46.69209" lon="7.66406" /><trkpt lat="46.69185" lon="7.66425" /><trkpt lat="46.69174" lon="7.66434" /><trkpt lat="46.69162" lon="7.66446" /><trkpt lat="46.69143" lon="7.66466" /><trkpt lat="46.69127" lon="7.66483" /><trkpt lat="46.69117" lon="7.66496" /><trkpt lat="46.6911" lon="7.66505" /><trkpt lat="46.69108" lon="7.66508" /><trkpt lat="46.69099" lon="7.6652" /><trkpt lat="46.69082" lon="7.66546" /><trkpt lat="46.69069" lon="7.66567" /><trkpt lat="46.69058" lon="7.66587" /><trkpt lat="46.6905" lon="7.66602" /><trkpt lat="46.69044" lon="7.66614" /><trkpt lat="46.69032" lon="7.66641" /><trkpt lat="46.69021" lon="7.66666" /><trkpt lat="46.69013" lon="7.66687" /><trkpt lat="46.69003" lon="7.66718" /><trkpt lat="46.68996" lon="7.66745" /><trkpt lat="46.6899" lon="7.66766" /><trkpt lat="46.68986" lon="7.66785" /><trkpt lat="46.68981" lon="7.66814" /><trkpt lat="46.68977" lon="7.66839" /><trkpt lat="46.68974" lon="7.66865" /><trkpt lat="46.68972" lon="7.669" /><trkpt lat="46.68972" lon="7.66913" /><trkpt lat="46.68972" lon="7.6693" /><trkpt lat="46.68971" lon="7.6695" /><trkpt lat="46.68975" lon="7.67193" /><trkpt lat="46.68975" lon="7.67206" /><trkpt lat="46.68975" lon="7.67218" /><trkpt lat="46.68975" lon="7.67231" /><trkpt lat="46.68974" lon="7.67246" /><trkpt lat="46.68974" lon="7.6726" /><trkpt lat="46.68973" lon="7.67271" /><trkpt lat="46.68972" lon="7.67285" /><trkpt lat="46.6897" lon="7.67305" /><trkpt lat="46.68967" lon="7.6733" /><trkpt lat="46.68966" lon="7.67338" /><trkpt lat="46.68964" lon="7.67355" /><trkpt lat="46.68961" lon="7.67372" /><trkpt lat="46.68959" lon="7.67385" /><trkpt lat="46.68956" lon="7.674" /><trkpt lat="46.68951" lon="7.67422" /><trkpt lat="46.68945" lon="7.67447" /><trkpt lat="46.68941" lon="7.67462" /><trkpt lat="46.68937" lon="7.67477" /><trkpt lat="46.68933" lon="7.67488" /><trkpt lat="46.68928" lon="7.67502" /><trkpt lat="46.68923" lon="7.67517" /><trkpt lat="46.68918" lon="7.67532" /><trkpt lat="46.68909" lon="7.67553" /><trkpt lat="46.68899" lon="7.67576" /><trkpt lat="46.68891" lon="7.67596" /><trkpt lat="46.68879" lon="7.67622" /><trkpt lat="46.68836" lon="7.67721" /><trkpt lat="46.68831" lon="7.67731" /><trkpt lat="46.68823" lon="7.67747" /><trkpt lat="46.68818" lon="7.67757" /><trkpt lat="46.68813" lon="7.67767" /><trkpt lat="46.68807" lon="7.67778" /><trkpt lat="46.68801" lon="7.67788" /><trkpt lat="46.68795" lon="7.67796" /><trkpt lat="46.68789" lon="7.67806" /><trkpt lat="46.68783" lon="7.67815" /><trkpt lat="46.68775" lon="7.67826" /><trkpt lat="46.68768" lon="7.67836" /><trkpt lat="46.68668" lon="7.67962" /><trkpt lat="46.68655" lon="7.67978" /><trkpt lat="46.6854" lon="7.68124" /><trkpt lat="46.6852" lon="7.68149" /><trkpt lat="46.68516" lon="7.68154" /><trkpt lat="46.68507" lon="7.68166" /><trkpt lat="46.68503" lon="7.68172" /><trkpt lat="46.68495" lon="7.68183" /><trkpt lat="46.68487" lon="7.68193" /><trkpt lat="46.68478" lon="7.68206" /><trkpt lat="46.68467" lon="7.68221" /><trkpt lat="46.68461" lon="7.68231" /><trkpt lat="46.68455" lon="7.68241" /><trkpt lat="46.68447" lon="7.68254" /><trkpt lat="46.68439" lon="7.68266" /><trkpt lat="46.68431" lon="7.6828" /><trkpt lat="46.68408" lon="7.68323" /><trkpt lat="46.68399" lon="7.68339" /><trkpt lat="46.68389" lon="7.6836" /><trkpt lat="46.68381" lon="7.68374" /><trkpt lat="46.68373" lon="7.68391" /><trkpt lat="46.68344" lon="7.68451" /><trkpt lat="46.68341" lon="7.68458" /><trkpt lat="46.68335" lon="7.6847" /><trkpt lat="46.68329" lon="7.68483" /><trkpt lat="46.68321" lon="7.68499" /><trkpt lat="46.68316" lon="7.68508" /><trkpt lat="46.6831" lon="7.68519" /><trkpt lat="46.68304" lon="7.6853" /><trkpt lat="46.68294" lon="7.68547" /><trkpt lat="46.68285" lon="7.68561" /><trkpt lat="46.68271" lon="7.68581" /><trkpt lat="46.68256" lon="7.68599" /><trkpt lat="46.68248" lon="7.68609" /><trkpt lat="46.6824" lon="7.68618" /><trkpt lat="46.6822" lon="7.68637" /><trkpt lat="46.6822" lon="7.68638" /><trkpt lat="46.68201" lon="7.68657" /><trkpt lat="46.68168" lon="7.68688" /><trkpt lat="46.67917" lon="7.68932" /><trkpt lat="46.67881" lon="7.68968" /><trkpt lat="46.67847" lon="7.69008" /><trkpt lat="46.67815" lon="7.69058" /><trkpt lat="46.67768" lon="7.69138" /><trkpt lat="46.67759" lon="7.69154" /><trkpt lat="46.67741" lon="7.69185" /><trkpt lat="46.67698" lon="7.69256" /><trkpt lat="46.67671" lon="7.69292" /><trkpt lat="46.67645" lon="7.69326" /><trkpt lat="46.67614" lon="7.69365" /><trkpt lat="46.67536" lon="7.69454" /><trkpt lat="46.67516" lon="7.69479" /><trkpt lat="46.6748" lon="7.69527" /><trkpt lat="46.67451" lon="7.69577" /><trkpt lat="46.67415" lon="7.69654" /><trkpt lat="46.67393" lon="7.69713" /><trkpt lat="46.67367" lon="7.69786" /><trkpt lat="46.67295" lon="7.69986" /><trkpt lat="46.67269" lon="7.70081" /><trkpt lat="46.67236" lon="7.70204" /><trkpt lat="46.67224" lon="7.70251" /><trkpt lat="46.67205" lon="7.70321" /><trkpt lat="46.67198" lon="7.70354" /><trkpt lat="46.67192" lon="7.70387" /><trkpt lat="46.67187" lon="7.70424" /><trkpt lat="46.67185" lon="7.70456" /><trkpt lat="46.67179" lon="7.70519" /><trkpt lat="46.67176" lon="7.70547" /><trkpt lat="46.67173" lon="7.70563" /><trkpt lat="46.67171" lon="7.70577" /><trkpt lat="46.67166" lon="7.70597" /><trkpt lat="46.67161" lon="7.70621" /><trkpt lat="46.67154" lon="7.70646" /><trkpt lat="46.67145" lon="7.70674" /><trkpt lat="46.67137" lon="7.70694" /><trkpt lat="46.67128" lon="7.70719" /><trkpt lat="46.67119" lon="7.70743" /><trkpt lat="46.67111" lon="7.70764" /><trkpt lat="46.67104" lon="7.70782" /><trkpt lat="46.67098" lon="7.70802" /><trkpt lat="46.67091" lon="7.70826" /><trkpt lat="46.67089" lon="7.70835" /><trkpt lat="46.67074" lon="7.70891" /><trkpt lat="46.6707" lon="7.70907" /><trkpt lat="46.67056" lon="7.70959" /><trkpt lat="46.67042" lon="7.71021" /><trkpt lat="46.6698" lon="7.71288" /><trkpt lat="46.66966" lon="7.71348" /><trkpt lat="46.66957" lon="7.71383" /><trkpt lat="46.66949" lon="7.71408" /><trkpt lat="46.6694" lon="7.71434" /><trkpt lat="46.66931" lon="7.71456" /><trkpt lat="46.66923" lon="7.71478" /><trkpt lat="46.66908" lon="7.71511" /><trkpt lat="46.66883" lon="7.71562" /><trkpt lat="46.66856" lon="7.71616" /><trkpt lat="46.66822" lon="7.71686" /><trkpt lat="46.66793" lon="7.71745" /><trkpt lat="46.66775" lon="7.71781" /><trkpt lat="46.66767" lon="7.71799" /><trkpt lat="46.66759" lon="7.71818" /><trkpt lat="46.66752" lon="7.71836" /><trkpt lat="46.66746" lon="7.71857" /><trkpt lat="46.66741" lon="7.71873" /><trkpt lat="46.66738" lon="7.71888" /><trkpt lat="46.66734" lon="7.71906" /><trkpt lat="46.66731" lon="7.71924" /><trkpt lat="46.66729" lon="7.71937" /><trkpt lat="46.66727" lon="7.71954" /><trkpt lat="46.66725" lon="7.71977" /><trkpt lat="46.66724" lon="7.72" /><trkpt lat="46.66721" lon="7.72075" /><trkpt lat="46.66719" lon="7.72113" /><trkpt lat="46.66718" lon="7.72125" /><trkpt lat="46.66718" lon="7.72137" /><trkpt lat="46.66716" lon="7.72152" /><trkpt lat="46.66715" lon="7.72167" /><trkpt lat="46.66713" lon="7.72187" /><trkpt lat="46.6671" lon="7.72204" /><trkpt lat="46.66706" lon="7.72229" /><trkpt lat="46.66701" lon="7.72252" /><trkpt lat="46.66697" lon="7.72268" /><trkpt lat="46.66693" lon="7.72285" /><trkpt lat="46.66688" lon="7.72301" /><trkpt lat="46.66682" lon="7.7232" /><trkpt lat="46.66662" lon="7.72368" /><trkpt lat="46.66648" lon="7.72393" /><trkpt lat="46.66631" lon="7.72417" /><trkpt lat="46.66598" lon="7.72461" /><trkpt lat="46.66593" lon="7.72467" /><trkpt lat="46.66574" lon="7.72492" /><trkpt lat="46.66568" lon="7.72499" /><trkpt lat="46.66559" lon="7.72513" /><trkpt lat="46.66549" lon="7.72528" /><trkpt lat="46.66542" lon="7.72541" /><trkpt lat="46.66533" lon="7.72557" /><trkpt lat="46.66524" lon="7.72576" /><trkpt lat="46.66516" lon="7.72595" /><trkpt lat="46.6651" lon="7.72613" /><trkpt lat="46.66504" lon="7.72631" /><trkpt lat="46.66498" lon="7.72652" /><trkpt lat="46.66484" lon="7.72703" /><trkpt lat="46.66474" lon="7.7274" /><trkpt lat="46.66456" lon="7.7279" /><trkpt lat="46.66434" lon="7.72829" /><trkpt lat="46.664" lon="7.72884" /><trkpt lat="46.66384" lon="7.72912" /><trkpt lat="46.66361" lon="7.72973" /><trkpt lat="46.66349" lon="7.73039" /><trkpt lat="46.66346" lon="7.73085" /><trkpt lat="46.66347" lon="7.73136" /><trkpt lat="46.66355" lon="7.73192" /><trkpt lat="46.66365" lon="7.73235" /><trkpt lat="46.66379" lon="7.73305" /><trkpt lat="46.66381" lon="7.7332" /><trkpt lat="46.66382" lon="7.73335" /><trkpt lat="46.66383" lon="7.7335" /><trkpt lat="46.66383" lon="7.73364" /><trkpt lat="46.66383" lon="7.73383" /><trkpt lat="46.66382" lon="7.734" /><trkpt lat="46.66381" lon="7.73414" /><trkpt lat="46.66379" lon="7.7343" /><trkpt lat="46.66377" lon="7.73448" /><trkpt lat="46.66374" lon="7.73462" /><trkpt lat="46.66371" lon="7.73477" /><trkpt lat="46.66367" lon="7.73496" /><trkpt lat="46.66362" lon="7.73513" /><trkpt lat="46.66356" lon="7.7353" /><trkpt lat="46.66335" lon="7.73588" /><trkpt lat="46.6633" lon="7.73603" /><trkpt lat="46.66323" lon="7.73623" /><trkpt lat="46.66315" lon="7.73654" /><trkpt lat="46.66309" lon="7.7368" /><trkpt lat="46.66305" lon="7.73703" /><trkpt lat="46.66301" lon="7.73731" /><trkpt lat="46.66296" lon="7.73767" /><trkpt lat="46.66255" lon="7.74041" /><trkpt lat="46.66252" lon="7.74064" /><trkpt lat="46.66248" lon="7.74084" /><trkpt lat="46.66245" lon="7.741" /><trkpt lat="46.66241" lon="7.7412" /><trkpt lat="46.66235" lon="7.7414" /><trkpt lat="46.6623" lon="7.74154" /><trkpt lat="46.66224" lon="7.74168" /><trkpt lat="46.66214" lon="7.74196" /><trkpt lat="46.66192" lon="7.74247" /><trkpt lat="46.66155" lon="7.74336" /><trkpt lat="46.66147" lon="7.74357" /><trkpt lat="46.66141" lon="7.7437" /><trkpt lat="46.66134" lon="7.74384" /><trkpt lat="46.66128" lon="7.74397" /><trkpt lat="46.6612" lon="7.7441" /><trkpt lat="46.66113" lon="7.74422" /><trkpt lat="46.66105" lon="7.74433" /><trkpt lat="46.66096" lon="7.74444" /><trkpt lat="46.66086" lon="7.74456" /><trkpt lat="46.66075" lon="7.74467" /><trkpt lat="46.66064" lon="7.74477" /><trkpt lat="46.66057" lon="7.74482" /><trkpt lat="46.66049" lon="7.74488" /><trkpt lat="46.66039" lon="7.74496" /><trkpt lat="46.66" lon="7.74523" /><trkpt lat="46.6599" lon="7.74532" /><trkpt lat="46.65981" lon="7.74541" /><trkpt lat="46.65971" lon="7.74552" /><trkpt lat="46.65961" lon="7.74564" /><trkpt lat="46.65953" lon="7.74574" /><trkpt lat="46.65946" lon="7.74584" /><trkpt lat="46.65939" lon="7.74596" /><trkpt lat="46.6593" lon="7.74612" /><trkpt lat="46.65866" lon="7.74742" /><trkpt lat="46.65813" lon="7.7484" /><trkpt lat="46.65783" lon="7.74892" /><trkpt lat="46.65715" lon="7.75017" /><trkpt lat="46.65703" lon="7.75038" /><trkpt lat="46.65692" lon="7.75057" /><trkpt lat="46.65682" lon="7.75075" /><trkpt lat="46.65678" lon="7.75082" /><trkpt lat="46.65658" lon="7.75119" /><trkpt lat="46.65652" lon="7.7513" /><trkpt lat="46.65644" lon="7.75146" /><trkpt lat="46.65639" lon="7.75158" /><trkpt lat="46.65634" lon="7.75171" /><trkpt lat="46.65628" lon="7.75187" /><trkpt lat="46.65624" lon="7.752" /><trkpt lat="46.65619" lon="7.75218" /><trkpt lat="46.65614" lon="7.75241" /><trkpt lat="46.6561" lon="7.75256" /><trkpt lat="46.65607" lon="7.75274" /><trkpt lat="46.65603" lon="7.75296" /><trkpt lat="46.65599" lon="7.75319" /><trkpt lat="46.65578" lon="7.75439" /><trkpt lat="46.65566" lon="7.75509" /><trkpt lat="46.65564" lon="7.75517" /><trkpt lat="46.65558" lon="7.7555" /><trkpt lat="46.65548" lon="7.75612" /><trkpt lat="46.65545" lon="7.75628" /><trkpt lat="46.6554" lon="7.75659" /><trkpt lat="46.65537" lon="7.75673" /><trkpt lat="46.65534" lon="7.75688" /><trkpt lat="46.6553" lon="7.75707" /><trkpt lat="46.65526" lon="7.75719" /><trkpt lat="46.65522" lon="7.75733" /><trkpt lat="46.65518" lon="7.75745" /><trkpt lat="46.65515" lon="7.75756" /><trkpt lat="46.65511" lon="7.75765" /><trkpt lat="46.65506" lon="7.75778" /><trkpt lat="46.65498" lon="7.75799" /><trkpt lat="46.65467" lon="7.75868" /><trkpt lat="46.65458" lon="7.75889" /><trkpt lat="46.65452" lon="7.75907" /><trkpt lat="46.65447" lon="7.75922" /><trkpt lat="46.65443" lon="7.75936" /><trkpt lat="46.65439" lon="7.75953" /><trkpt lat="46.65436" lon="7.7597" /><trkpt lat="46.65432" lon="7.75989" /><trkpt lat="46.6543" lon="7.76007" /><trkpt lat="46.65429" lon="7.76023" /><trkpt lat="46.65428" lon="7.76037" /><trkpt lat="46.65428" lon="7.76053" /><trkpt lat="46.65428" lon="7.76067" /><trkpt lat="46.65429" lon="7.7608" /><trkpt lat="46.6543" lon="7.76096" /><trkpt lat="46.65431" lon="7.76111" /><trkpt lat="46.65433" lon="7.76128" /><trkpt lat="46.65435" lon="7.76142" /><trkpt lat="46.65438" lon="7.76159" /><trkpt lat="46.65442" lon="7.76174" /><trkpt lat="46.65445" lon="7.76188" /><trkpt lat="46.65448" lon="7.762" /><trkpt lat="46.65452" lon="7.76211" /><trkpt lat="46.65456" lon="7.76223" /><trkpt lat="46.65463" lon="7.76242" /><trkpt lat="46.65472" lon="7.76265" /><trkpt lat="46.6548" lon="7.76284" /><trkpt lat="46.65486" lon="7.76299" /><trkpt lat="46.65494" lon="7.76317" /><trkpt lat="46.65502" lon="7.76338" /><trkpt lat="46.65511" lon="7.76358" /><trkpt lat="46.65515" lon="7.76368" /><trkpt lat="46.65522" lon="7.76383" /><trkpt lat="46.65531" lon="7.76406" /><trkpt lat="46.65539" lon="7.76426" /><trkpt lat="46.65545" lon="7.76442" /><trkpt lat="46.6555" lon="7.76458" /><trkpt lat="46.65555" lon="7.76475" /><trkpt lat="46.65559" lon="7.76491" /><trkpt lat="46.65564" lon="7.76511" /><trkpt lat="46.65567" lon="7.76529" /><trkpt lat="46.6557" lon="7.76543" /><trkpt lat="46.65573" lon="7.76563" /><trkpt lat="46.65575" lon="7.76581" /><trkpt lat="46.65577" lon="7.76596" /><trkpt lat="46.65578" lon="7.76613" /><trkpt lat="46.65579" lon="7.76636" /><trkpt lat="46.65579" lon="7.76651" /><trkpt lat="46.65579" lon="7.76668" /><trkpt lat="46.65579" lon="7.76686" /><trkpt lat="46.65578" lon="7.76702" /><trkpt lat="46.65576" lon="7.76722" /><trkpt lat="46.65575" lon="7.76736" /><trkpt lat="46.65573" lon="7.76752" /><trkpt lat="46.65571" lon="7.76766" /><trkpt lat="46.65568" lon="7.76782" /><trkpt lat="46.65564" lon="7.76801" /><trkpt lat="46.65561" lon="7.76818" /><trkpt lat="46.65557" lon="7.76834" /><trkpt lat="46.65553" lon="7.76847" /><trkpt lat="46.65547" lon="7.76865" /><trkpt lat="46.65541" lon="7.76882" /><trkpt lat="46.65534" lon="7.76901" /><trkpt lat="46.65526" lon="7.76923" /><trkpt lat="46.65519" lon="7.76939" /><trkpt lat="46.65498" lon="7.76989" /><trkpt lat="46.65492" lon="7.77004" /><trkpt lat="46.65487" lon="7.77019" /><trkpt lat="46.65483" lon="7.77029" /><trkpt lat="46.65479" lon="7.77043" /><trkpt lat="46.65476" lon="7.77056" /><trkpt lat="46.65472" lon="7.7707" /><trkpt lat="46.65469" lon="7.77085" /><trkpt lat="46.65467" lon="7.77098" /><trkpt lat="46.65465" lon="7.77114" /><trkpt lat="46.65463" lon="7.77125" /><trkpt lat="46.65462" lon="7.7714" /><trkpt lat="46.65461" lon="7.77156" /><trkpt lat="46.65461" lon="7.77168" /><trkpt lat="46.65461" lon="7.77184" /><trkpt lat="46.65461" lon="7.77206" /><trkpt lat="46.65462" lon="7.77226" /><trkpt lat="46.65463" lon="7.77237" /><trkpt lat="46.65464" lon="7.77249" /><trkpt lat="46.65465" lon="7.77261" /><trkpt lat="46.65466" lon="7.7727" /><trkpt lat="46.65467" lon="7.77282" /><trkpt lat="46.65469" lon="7.77293" /><trkpt lat="46.65471" lon="7.77308" /><trkpt lat="46.65474" lon="7.77321" /><trkpt lat="46.65476" lon="7.77334" /><trkpt lat="46.65479" lon="7.77346" /><trkpt lat="46.65482" lon="7.77358" /><trkpt lat="46.65486" lon="7.77373" /><trkpt lat="46.6549" lon="7.77385" /><trkpt lat="46.65493" lon="7.77395" /><trkpt lat="46.65497" lon="7.77405" /><trkpt lat="46.65501" lon="7.77416" /><trkpt lat="46.65506" lon="7.7743" /><trkpt lat="46.6552" lon="7.77462" /><trkpt lat="46.65541" lon="7.7751" /><trkpt lat="46.65559" lon="7.77553" /><trkpt lat="46.65576" lon="7.77592" /><trkpt lat="46.65595" lon="7.77636" /><trkpt lat="46.65603" lon="7.77655" /><trkpt lat="46.65608" lon="7.77667" /><trkpt lat="46.65615" lon="7.77686" /><trkpt lat="46.6562" lon="7.77699" /><trkpt lat="46.65622" lon="7.77706" /><trkpt lat="46.65627" lon="7.7772" /><trkpt lat="46.6563" lon="7.77733" /><trkpt lat="46.65634" lon="7.77747" /><trkpt lat="46.65637" lon="7.77761" /><trkpt lat="46.65641" lon="7.77775" /><trkpt lat="46.65649" lon="7.77815" /><trkpt lat="46.65651" lon="7.77824" /><trkpt lat="46.65659" lon="7.77864" /><trkpt lat="46.65667" lon="7.77902" /><trkpt lat="46.65677" lon="7.77949" /><trkpt lat="46.65686" lon="7.77991" /><trkpt lat="46.65709" lon="7.78087" /><trkpt lat="46.65721" lon="7.78138" /><trkpt lat="46.6573" lon="7.78173" /><trkpt lat="46.65735" lon="7.78196" /><trkpt lat="46.65741" lon="7.78223" /><trkpt lat="46.65745" lon="7.7824" /><trkpt lat="46.65749" lon="7.7826" /><trkpt lat="46.65752" lon="7.78279" /><trkpt lat="46.65755" lon="7.78298" /><trkpt lat="46.65758" lon="7.78319" /><trkpt lat="46.6576" lon="7.78339" /><trkpt lat="46.65762" lon="7.78358" /><trkpt lat="46.65764" lon="7.78378" /><trkpt lat="46.65765" lon="7.78399" /><trkpt lat="46.65766" lon="7.78421" /><trkpt lat="46.65767" lon="7.78442" /><trkpt lat="46.65767" lon="7.78466" /><trkpt lat="46.65767" lon="7.78486" /><trkpt lat="46.65767" lon="7.785" /><trkpt lat="46.65766" lon="7.78569" /><trkpt lat="46.65766" lon="7.78593" /><trkpt lat="46.65766" lon="7.78638" /><trkpt lat="46.65766" lon="7.78664" /><trkpt lat="46.65768" lon="7.78684" /><trkpt lat="46.65769" lon="7.78703" /><trkpt lat="46.65772" lon="7.78718" /><trkpt lat="46.65775" lon="7.78739" /><trkpt lat="46.65779" lon="7.78756" /><trkpt lat="46.65784" lon="7.78771" /><trkpt lat="46.65788" lon="7.78786" /><trkpt lat="46.65794" lon="7.78801" /><trkpt lat="46.658" lon="7.78816" /><trkpt lat="46.65806" lon="7.78829" /><trkpt lat="46.65812" lon="7.7884" /><trkpt lat="46.65818" lon="7.78852" /><trkpt lat="46.65824" lon="7.78862" /><trkpt lat="46.65831" lon="7.78872" /><trkpt lat="46.65837" lon="7.78881" /><trkpt lat="46.65847" lon="7.78894" /><trkpt lat="46.65864" lon="7.78918" /><trkpt lat="46.65877" lon="7.78934" /><trkpt lat="46.65888" lon="7.7895" /><trkpt lat="46.659" lon="7.78966" /><trkpt lat="46.65907" lon="7.78978" /><trkpt lat="46.65914" lon="7.78989" /><trkpt lat="46.65921" lon="7.79001" /><trkpt lat="46.65927" lon="7.79013" /><trkpt lat="46.65933" lon="7.79027" /><trkpt lat="46.65938" lon="7.7904" /><trkpt lat="46.65943" lon="7.79053" /><trkpt lat="46.65947" lon="7.79067" /><trkpt lat="46.65951" lon="7.79078" /><trkpt lat="46.65954" lon="7.79091" /><trkpt lat="46.65958" lon="7.7911" /><trkpt lat="46.65961" lon="7.79128" /><trkpt lat="46.65969" lon="7.79173" /><trkpt lat="46.65973" lon="7.79192" /><trkpt lat="46.65977" lon="7.79209" /><trkpt lat="46.65981" lon="7.79226" /><trkpt lat="46.65986" lon="7.79242" /><trkpt lat="46.65992" lon="7.7926" /><trkpt lat="46.65997" lon="7.79273" /><trkpt lat="46.66002" lon="7.79286" /><trkpt lat="46.66009" lon="7.79302" /><trkpt lat="46.66016" lon="7.79317" /><trkpt lat="46.66023" lon="7.7933" /><trkpt lat="46.66044" lon="7.79366" /><trkpt lat="46.66066" lon="7.79405" /><trkpt lat="46.66083" lon="7.79443" /><trkpt lat="46.6609" lon="7.79459" /><trkpt lat="46.66094" lon="7.79471" /><trkpt lat="46.66098" lon="7.79484" /><trkpt lat="46.66113" lon="7.79533" /><trkpt lat="46.6612" lon="7.79556" /><trkpt lat="46.66124" lon="7.79569" /><trkpt lat="46.66129" lon="7.79583" /><trkpt lat="46.66133" lon="7.79594" /><trkpt lat="46.6614" lon="7.79611" /><trkpt lat="46.66147" lon="7.79626" /><trkpt lat="46.66164" lon="7.79661" /><trkpt lat="46.6618" lon="7.79693" /><trkpt lat="46.66198" lon="7.7973" /><trkpt lat="46.66205" lon="7.79746" /><trkpt lat="46.66212" lon="7.79763" /><trkpt lat="46.66216" lon="7.79775" /><trkpt lat="46.66222" lon="7.79793" /><trkpt lat="46.66226" lon="7.79809" /><trkpt lat="46.66232" lon="7.79831" /><trkpt lat="46.66241" lon="7.79865" /><trkpt lat="46.66246" lon="7.79883" /><trkpt lat="46.6625" lon="7.79895" /><trkpt lat="46.66254" lon="7.79908" /><trkpt lat="46.66257" lon="7.79918" /><trkpt lat="46.66263" lon="7.79933" /><trkpt lat="46.6627" lon="7.79949" /><trkpt lat="46.66276" lon="7.79963" /><trkpt lat="46.66283" lon="7.79975" /><trkpt lat="46.66291" lon="7.7999" /><trkpt lat="46.66303" lon="7.80009" /><trkpt lat="46.66321" lon="7.80038" /><trkpt lat="46.66359" lon="7.80098" /><trkpt lat="46.66369" lon="7.80116" /><trkpt lat="46.66379" lon="7.80135" /><trkpt lat="46.66389" lon="7.80157" /><trkpt lat="46.66395" lon="7.80174" /><trkpt lat="46.66401" lon="7.80193" /><trkpt lat="46.66408" lon="7.80216" /><trkpt lat="46.66416" lon="7.80248" /><trkpt lat="46.66429" lon="7.80306" /><trkpt lat="46.66433" lon="7.80324" /><trkpt lat="46.66438" lon="7.80352" /><trkpt lat="46.66442" lon="7.80373" /><trkpt lat="46.66445" lon="7.8039" /><trkpt lat="46.66447" lon="7.80411" /><trkpt lat="46.66448" lon="7.80429" /><trkpt lat="46.66449" lon="7.80452" /><trkpt lat="46.66449" lon="7.80472" /><trkpt lat="46.66448" lon="7.80492" /><trkpt lat="46.66447" lon="7.80512" /><trkpt lat="46.66445" lon="7.80527" /><trkpt lat="46.66444" lon="7.80538" /><trkpt lat="46.66442" lon="7.80556" /><trkpt lat="46.66438" lon="7.80576" /><trkpt lat="46.66435" lon="7.80595" /><trkpt lat="46.66431" lon="7.80613" /><trkpt lat="46.66427" lon="7.80629" /><trkpt lat="46.66423" lon="7.80642" /><trkpt lat="46.66418" lon="7.80655" /><trkpt lat="46.66413" lon="7.80669" /><trkpt lat="46.66406" lon="7.80684" /><trkpt lat="46.66399" lon="7.80698" /><trkpt lat="46.66391" lon="7.80712" /><trkpt lat="46.66383" lon="7.80725" /><trkpt lat="46.66375" lon="7.80736" /><trkpt lat="46.66368" lon="7.80746" /><trkpt lat="46.66359" lon="7.80756" /><trkpt lat="46.66346" lon="7.8077" /><trkpt lat="46.66335" lon="7.80781" /><trkpt lat="46.66304" lon="7.80811" /><trkpt lat="46.66295" lon="7.8082" /><trkpt lat="46.66287" lon="7.80829" /><trkpt lat="46.66281" lon="7.80837" /><trkpt lat="46.66274" lon="7.80847" /><trkpt lat="46.66267" lon="7.80857" /><trkpt lat="46.66259" lon="7.8087" /><trkpt lat="46.66251" lon="7.80886" /><trkpt lat="46.66245" lon="7.80899" /><trkpt lat="46.66239" lon="7.80914" /><trkpt lat="46.66233" lon="7.80929" /><trkpt lat="46.66228" lon="7.80946" /><trkpt lat="46.66217" lon="7.80979" /><trkpt lat="46.66208" lon="7.81006" /><trkpt lat="46.66203" lon="7.81022" /><trkpt lat="46.66197" lon="7.81039" /><trkpt lat="46.66191" lon="7.81055" /><trkpt lat="46.66183" lon="7.81073" /><trkpt lat="46.66175" lon="7.81089" /><trkpt lat="46.66167" lon="7.81106" /><trkpt lat="46.6616" lon="7.81118" /><trkpt lat="46.66152" lon="7.81132" /><trkpt lat="46.66139" lon="7.81152" /><trkpt lat="46.66105" lon="7.81203" /><trkpt lat="46.66102" lon="7.81208" /><trkpt lat="46.66091" lon="7.81226" /><trkpt lat="46.6608" lon="7.81245" /><trkpt lat="46.66076" lon="7.8125" /><trkpt lat="46.66063" lon="7.81275" /><trkpt lat="46.66055" lon="7.81292" /><trkpt lat="46.66048" lon="7.81307" /><trkpt lat="46.66041" lon="7.81324" /><trkpt lat="46.66036" lon="7.81337" /><trkpt lat="46.66027" lon="7.81361" /><trkpt lat="46.66021" lon="7.81378" /><trkpt lat="46.66012" lon="7.81404" /><trkpt lat="46.66" lon="7.81438" /><trkpt lat="46.65987" lon="7.8148" /><trkpt lat="46.65983" lon="7.81492" /><trkpt lat="46.65979" lon="7.81507" /><trkpt lat="46.65977" lon="7.81518" /><trkpt lat="46.65974" lon="7.81533" /><trkpt lat="46.65972" lon="7.81543" /><trkpt lat="46.65969" lon="7.8156" /><trkpt lat="46.65968" lon="7.81575" /><trkpt lat="46.65966" lon="7.8159" /><trkpt lat="46.65966" lon="7.81605" /><trkpt lat="46.65965" lon="7.81617" /><trkpt lat="46.65965" lon="7.81631" /><trkpt lat="46.65965" lon="7.81649" /><trkpt lat="46.65966" lon="7.81665" /><trkpt lat="46.65967" lon="7.81682" /><trkpt lat="46.6597" lon="7.81705" /><trkpt lat="46.65972" lon="7.81722" /><trkpt lat="46.65975" lon="7.81743" /><trkpt lat="46.65981" lon="7.81776" /><trkpt lat="46.65994" lon="7.81847" /><trkpt lat="46.65999" lon="7.81891" /><trkpt lat="46.66005" lon="7.81948" /><trkpt lat="46.66007" lon="7.81967" /><trkpt lat="46.66009" lon="7.81982" /><trkpt lat="46.66012" lon="7.82" /><trkpt lat="46.66015" lon="7.82013" /><trkpt lat="46.66019" lon="7.82029" /><trkpt lat="46.66023" lon="7.82044" /><trkpt lat="46.66028" lon="7.82061" /><trkpt lat="46.66035" lon="7.82076" /><trkpt lat="46.66045" lon="7.82098" /><trkpt lat="46.66063" lon="7.82135" /><trkpt lat="46.66091" lon="7.82185" /><trkpt lat="46.66103" lon="7.82212" /><trkpt lat="46.66114" lon="7.82242" /><trkpt lat="46.66124" lon="7.82275" /><trkpt lat="46.66138" lon="7.8232" /><trkpt lat="46.66153" lon="7.82362" /><trkpt lat="46.6617" lon="7.82394" /><trkpt lat="46.66189" lon="7.82425" /><trkpt lat="46.66249" lon="7.82498" /><trkpt lat="46.6627" lon="7.82526" /><trkpt lat="46.66291" lon="7.82562" /><trkpt lat="46.66336" lon="7.82652" /><trkpt lat="46.66359" lon="7.82691" /><trkpt lat="46.66367" lon="7.82703" /><trkpt lat="46.66382" lon="7.82725" /><trkpt lat="46.66394" lon="7.8274" /><trkpt lat="46.66446" lon="7.828" /><trkpt lat="46.66456" lon="7.82811" /><trkpt lat="46.66458" lon="7.82814" /><trkpt lat="46.66464" lon="7.82822" /><trkpt lat="46.66478" lon="7.82841" /><trkpt lat="46.66491" lon="7.82864" /><trkpt lat="46.66498" lon="7.82876" /><trkpt lat="46.66514" lon="7.82911" /><trkpt lat="46.66529" lon="7.82946" /><trkpt lat="46.66553" lon="7.83001" /><trkpt lat="46.66581" lon="7.8306" /><trkpt lat="46.66783" lon="7.83481" /><trkpt lat="46.66862" lon="7.83646" /><trkpt lat="46.6688" lon="7.83687" /><trkpt lat="46.66923" lon="7.83789" /><trkpt lat="46.66945" lon="7.83842" /><trkpt lat="46.66964" lon="7.83884" /><trkpt lat="46.66981" lon="7.83919" /><trkpt lat="46.67002" lon="7.83962" /><trkpt lat="46.67032" lon="7.84016" /><trkpt lat="46.67058" lon="7.8406" /><trkpt lat="46.67092" lon="7.84111" /><trkpt lat="46.67111" lon="7.84139" /><trkpt lat="46.6714" lon="7.84176" /><trkpt lat="46.6716" lon="7.84202" /><trkpt lat="46.67188" lon="7.84234" /><trkpt lat="46.67272" lon="7.8433" /><trkpt lat="46.67289" lon="7.84348" /><trkpt lat="46.67299" lon="7.8436" /><trkpt lat="46.67322" lon="7.84387" /><trkpt lat="46.67346" lon="7.8442" /><trkpt lat="46.67357" lon="7.84435" /><trkpt lat="46.67418" lon="7.84526" /><trkpt lat="46.6744" lon="7.84559" /><trkpt lat="46.67462" lon="7.84589" /><trkpt lat="46.6748" lon="7.84613" /><trkpt lat="46.67481" lon="7.84614" /><trkpt lat="46.67617" lon="7.84795" /><trkpt lat="46.67651" lon="7.8484" /><trkpt lat="46.67682" lon="7.84883" /><trkpt lat="46.67736" lon="7.84953" /><trkpt lat="46.67746" lon="7.84965" /><trkpt lat="46.67757" lon="7.84978" /><trkpt lat="46.67766" lon="7.84988" /><trkpt lat="46.67775" lon="7.84996" /><trkpt lat="46.67783" lon="7.85004" /><trkpt lat="46.67791" lon="7.8501" /><trkpt lat="46.67798" lon="7.85016" /><trkpt lat="46.67807" lon="7.85022" /><trkpt lat="46.67816" lon="7.85028" /><trkpt lat="46.67824" lon="7.85032" /><trkpt lat="46.67834" lon="7.85037" /><trkpt lat="46.67845" lon="7.85042" /><trkpt lat="46.67855" lon="7.85046" /><trkpt lat="46.67867" lon="7.85049" /><trkpt lat="46.67899" lon="7.85058" /><trkpt lat="46.67921" lon="7.85066" /><trkpt lat="46.67966" lon="7.85077" /><trkpt lat="46.67991" lon="7.85083" /><trkpt lat="46.68002" lon="7.85085" /><trkpt lat="46.68016" lon="7.85088" /><trkpt lat="46.68029" lon="7.85089" /><trkpt lat="46.68042" lon="7.85091" /><trkpt lat="46.68065" lon="7.85093" /><trkpt lat="46.68077" lon="7.85095" /><trkpt lat="46.68088" lon="7.85097" /><trkpt lat="46.68099" lon="7.85099" /><trkpt lat="46.68115" lon="7.85103" /><trkpt lat="46.68306" lon="7.85145" /><trkpt lat="46.68381" lon="7.85162" /><trkpt lat="46.68387" lon="7.85163" /><trkpt lat="46.68446" lon="7.85177" /><trkpt lat="46.68472" lon="7.85184" /><trkpt lat="46.68479" lon="7.85186" /><trkpt lat="46.685" lon="7.85196" /><trkpt lat="46.68512" lon="7.85203" /><trkpt lat="46.68532" lon="7.85216" /><trkpt lat="46.68541" lon="7.85223" /><trkpt lat="46.68554" lon="7.85234" /><trkpt lat="46.68563" lon="7.85243" /><trkpt lat="46.68573" lon="7.85254" /><trkpt lat="46.68588" lon="7.85272" /><trkpt lat="46.68608" lon="7.85298" /><trkpt lat="46.68663" lon="7.8537" /><trkpt lat="46.68673" lon="7.85383" /><trkpt lat="46.68687" lon="7.854" /><trkpt lat="46.68694" lon="7.85408" /><trkpt lat="46.68702" lon="7.85416" /><trkpt lat="46.68711" lon="7.85424" /><trkpt lat="46.68717" lon="7.8543" /><trkpt lat="46.68723" lon="7.85434" /><trkpt lat="46.68731" lon="7.8544" /><trkpt lat="46.68739" lon="7.85446" /><trkpt lat="46.68747" lon="7.85451" /><trkpt lat="46.68759" lon="7.85458" /><trkpt lat="46.68771" lon="7.85465" /><trkpt lat="46.68847" lon="7.85505" /><trkpt lat="46.68883" lon="7.85527" /><trkpt lat="46.68956" lon="7.85571" /><trkpt lat="46.68961" lon="7.85575" /><trkpt lat="46.68973" lon="7.85583" /><trkpt lat="46.6898" lon="7.85589" /><trkpt lat="46.68987" lon="7.85594" /><trkpt lat="46.68993" lon="7.856" /><trkpt lat="46.69003" lon="7.85611" /><trkpt lat="46.69008" lon="7.85616" /><trkpt lat="46.69013" lon="7.85622" /><trkpt lat="46.69019" lon="7.85629" /><trkpt lat="46.69023" lon="7.85635" /><trkpt lat="46.6903" lon="7.85645" /><trkpt lat="46.69036" lon="7.85654" /><trkpt lat="46.69041" lon="7.85663" /><trkpt lat="46.69046" lon="7.85671" /><trkpt lat="46.69051" lon="7.85681" /><trkpt lat="46.69055" lon="7.8569" /><trkpt lat="46.6906" lon="7.85702" /><trkpt lat="46.69064" lon="7.85713" /><trkpt lat="46.69067" lon="7.85722" /><trkpt lat="46.69071" lon="7.85733" /><trkpt lat="46.69074" lon="7.85744" /><trkpt lat="46.69077" lon="7.85757" /><trkpt lat="46.6908" lon="7.85766" /><trkpt lat="46.69082" lon="7.85777" /><trkpt lat="46.69084" lon="7.85786" /><trkpt lat="46.69085" lon="7.85795" /><trkpt lat="46.69086" lon="7.85804" /><trkpt lat="46.69088" lon="7.85814" /><trkpt lat="46.69089" lon="7.85823" /><trkpt lat="46.6909" lon="7.85831" /><trkpt lat="46.6909" lon="7.85839" /><trkpt lat="46.69091" lon="7.85847" /><trkpt lat="46.69091" lon="7.85856" /><trkpt lat="46.69091" lon="7.85865" /><trkpt lat="46.69091" lon="7.85872" /><trkpt lat="46.69091" lon="7.8588" /><trkpt lat="46.69091" lon="7.85888" /><trkpt lat="46.69091" lon="7.85896" /><trkpt lat="46.6909" lon="7.85904" /><trkpt lat="46.69089" lon="7.85912" /><trkpt lat="46.69088" lon="7.8592" /><trkpt lat="46.69087" lon="7.85928" /><trkpt lat="46.69086" lon="7.85936" /><trkpt lat="46.69084" lon="7.85948" /><trkpt lat="46.69082" lon="7.8596" /><trkpt lat="46.69079" lon="7.85974" /><trkpt lat="46.69074" lon="7.85992" /><trkpt lat="46.6907" lon="7.86011" /><trkpt lat="46.69056" lon="7.86064" /><trkpt lat="46.69051" lon="7.86081" /><trkpt lat="46.69048" lon="7.86094" /><trkpt lat="46.69045" lon="7.86108" /><trkpt lat="46.69043" lon="7.86119" /><trkpt lat="46.69042" lon="7.86129" /><trkpt lat="46.6904" lon="7.86141" /><trkpt lat="46.69038" lon="7.86152" /><trkpt lat="46.69037" lon="7.86162" /><trkpt lat="46.69035" lon="7.86181" /><trkpt lat="46.69035" lon="7.86191" /><trkpt lat="46.69034" lon="7.86201" /><trkpt lat="46.69034" lon="7.8622" /><trkpt lat="46.69034" lon="7.86237" /><trkpt lat="46.69034" lon="7.86253" /><trkpt lat="46.69035" lon="7.8627" /><trkpt lat="46.69036" lon="7.86285" /><trkpt lat="46.69037" lon="7.86298" /><trkpt lat="46.69039" lon="7.86313" /><trkpt lat="46.69043" lon="7.86358" /><trkpt lat="46.69044" lon="7.86372" /><trkpt lat="46.69046" lon="7.86384" /><trkpt lat="46.69047" lon="7.86393" /><trkpt lat="46.69049" lon="7.86401" /><trkpt lat="46.6905" lon="7.8641" /><trkpt lat="46.69053" lon="7.86422" /><trkpt lat="46.69056" lon="7.86433" /><trkpt lat="46.69061" lon="7.86452" /><trkpt lat="46.69065" lon="7.86468" /><trkpt lat="46.6907" lon="7.86483" /><trkpt lat="46.69073" lon="7.86497" /><trkpt lat="46.69074" lon="7.865" /><trkpt lat="46.69076" lon="7.86508" /><trkpt lat="46.69078" lon="7.8652" /><trkpt lat="46.6908" lon="7.86529" /><trkpt lat="46.69082" lon="7.86539" /><trkpt lat="46.69083" lon="7.86549" /><trkpt lat="46.69085" lon="7.86559" /><trkpt lat="46.69086" lon="7.86568" /><trkpt lat="46.69086" lon="7.86576" /><trkpt lat="46.69087" lon="7.86584" /><trkpt lat="46.69087" lon="7.86592" /><trkpt lat="46.69087" lon="7.86602" /><trkpt lat="46.69087" lon="7.86613" /><trkpt lat="46.69087" lon="7.86627" /><trkpt lat="46.69086" lon="7.86639" /><trkpt lat="46.69086" lon="7.86641" /><trkpt lat="46.69086" lon="7.86641" /></trkseg></trk></gpx>