<gpx version="1.1" creator="Trainlog.me"><trk><name>Trip Path</name><trkseg><trkpt lat="47.13281" lon="7.2428" /><trkpt lat="47.13227" lon="7.24446" /><trkpt lat="47.13223" lon="7.24458" /><trkpt lat="47.13219" lon="7.24468" /><trkpt lat="47.13201" lon="7.24516" /><trkpt lat="47.13194" lon="7.24533" /><trkpt lat="47.13189" lon="7.24548" /><trkpt lat="47.1318" lon="7.24571" /><trkpt lat="47.13175" lon="7.24586" /><trkpt lat="47.13167" lon="7.24612" /><trkpt lat="47.13154" lon="7.24641" /><trkpt lat="47.1315" lon="7.24649" /><trkpt lat="47.13145" lon="7.24665" /><trkpt lat="47.13107" lon="7.2478" /><trkpt lat="47.13104" lon="7.24788" /><trkpt lat="47.13073" lon="7.24885" /><trkpt lat="47.13056" lon="7.24938" /><trkpt lat="47.13051" lon="7.24954" /><trkpt lat="47.13047" lon="7.2497" /><trkpt lat="47.13043" lon="7.24985" /><trkpt lat="47.1304" lon="7.24999" /><trkpt lat="47.13037" lon="7.25014" /><trkpt lat="47.13034" lon="7.25028" /><trkpt lat="47.13033" lon="7.2504" /><trkpt lat="47.13032" lon="7.25041" /><trkpt lat="47.13032" lon="7.25043" /><trkpt lat="47.13029" lon="7.25061" /><trkpt lat="47.13028" lon="7.25075" /><trkpt lat="47.13027" lon="7.25088" /><trkpt lat="47.13025" lon="7.25107" /><trkpt lat="47.13024" lon="7.25127" /><trkpt lat="47.13024" lon="7.25145" /><trkpt lat="47.13023" lon="7.25163" /><trkpt lat="47.13024" lon="7.25182" /><trkpt lat="47.13025" lon="7.252" /><trkpt lat="47.13026" lon="7.25222" /><trkpt lat="47.13028" lon="7.25239" /><trkpt lat="47.1303" lon="7.2526" /><trkpt lat="47.13033" lon="7.25276" /><trkpt lat="47.13036" lon="7.25296" /><trkpt lat="47.1304" lon="7.25314" /><trkpt lat="47.13045" lon="7.25337" /><trkpt lat="47.13049" lon="7.2535" /><trkpt lat="47.13052" lon="7.25363" /><trkpt lat="47.13058" lon="7.25382" /><trkpt lat="47.13067" lon="7.25406" /><trkpt lat="47.13074" lon="7.25427" /><trkpt lat="47.13087" lon="7.25458" /><trkpt lat="47.13107" lon="7.2551" /><trkpt lat="47.13124" lon="7.2555" /><trkpt lat="47.13133" lon="7.2557" /><trkpt lat="47.13139" lon="7.25583" /><trkpt lat="47.13147" lon="7.256" /><trkpt lat="47.13155" lon="7.25615" /><trkpt lat="47.13164" lon="7.2563" /><trkpt lat="47.13173" lon="7.25645" /><trkpt lat="47.13183" lon="7.25659" /><trkpt lat="47.13193" lon="7.25672" /><trkpt lat="47.13202" lon="7.25685" /><trkpt lat="47.13213" lon="7.25698" /><trkpt lat="47.13225" lon="7.2571" /><trkpt lat="47.13235" lon="7.2572" /><trkpt lat="47.13247" lon="7.25731" /><trkpt lat="47.13258" lon="7.2574" /><trkpt lat="47.13272" lon="7.25751" /><trkpt lat="47.13283" lon="7.25758" /><trkpt lat="47.13296" lon="7.25766" /><trkpt lat="47.13309" lon="7.25773" /><trkpt lat="47.13322" lon="7.2578" /><trkpt lat="47.13334" lon="7.25786" /><trkpt lat="47.13369" lon="7.258" /><trkpt lat="47.13421" lon="7.2582" /><trkpt lat="47.13441" lon="7.25828" /><trkpt lat="47.13443" lon="7.25828" /><trkpt lat="47.13447" lon="7.2583" /><trkpt lat="47.13516" lon="7.25857" /><trkpt lat="47.13647" lon="7.25908" /><trkpt lat="47.13668" lon="7.25916" /><trkpt lat="47.1367" lon="7.25917" /><trkpt lat="47.13699" lon="7.25928" /><trkpt lat="47.13716" lon="7.25935" /><trkpt lat="47.13731" lon="7.25942" /><trkpt lat="47.13741" lon="7.25947" /><trkpt lat="47.13756" lon="7.25955" /><trkpt lat="47.13773" lon="7.25965" /><trkpt lat="47.13789" lon="7.25975" /><trkpt lat="47.13798" lon="7.25982" /><trkpt lat="47.13812" lon="7.25993" /><trkpt lat="47.13824" lon="7.26003" /><trkpt lat="47.13837" lon="7.26015" /><trkpt lat="47.1385" lon="7.26027" /><trkpt lat="47.13863" lon="7.26041" /><trkpt lat="47.13876" lon="7.26055" /><trkpt lat="47.13888" lon="7.26071" /><trkpt lat="47.139" lon="7.26085" /><trkpt lat="47.13912" lon="7.26102" /><trkpt lat="47.13921" lon="7.26116" /><trkpt lat="47.13933" lon="7.26135" /><trkpt lat="47.13947" lon="7.2616" /><trkpt lat="47.13957" lon="7.26178" /><trkpt lat="47.13966" lon="7.26196" /><trkpt lat="47.13977" lon="7.26219" /><trkpt lat="47.14011" lon="7.2629" /><trkpt lat="47.14118" lon="7.26517" /><trkpt lat="47.14184" lon="7.26656" /><trkpt lat="47.14414" lon="7.27144" /><trkpt lat="47.14427" lon="7.27168" /><trkpt lat="47.14434" lon="7.27181" /><trkpt lat="47.14441" lon="7.27194" /><trkpt lat="47.14459" lon="7.27224" /><trkpt lat="47.14477" lon="7.27251" /><trkpt lat="47.14485" lon="7.27261" /><trkpt lat="47.14515" lon="7.27302" /><trkpt lat="47.14555" lon="7.27345" /><trkpt lat="47.14561" lon="7.27351" /><trkpt lat="47.14575" lon="7.27365" /><trkpt lat="47.14603" lon="7.27395" /><trkpt lat="47.14613" lon="7.27407" /><trkpt lat="47.14625" lon="7.27422" /><trkpt lat="47.14634" lon="7.27432" /><trkpt lat="47.14643" lon="7.27443" /><trkpt lat="47.1465" lon="7.27453" /><trkpt lat="47.14658" lon="7.27465" /><trkpt lat="47.14668" lon="7.27479" /><trkpt lat="47.14675" lon="7.2749" /><trkpt lat="47.14686" lon="7.27508" /><trkpt lat="47.14695" lon="7.27522" /><trkpt lat="47.14727" lon="7.27577" /><trkpt lat="47.14733" lon="7.27586" /><trkpt lat="47.14813" lon="7.27723" /><trkpt lat="47.15293" lon="7.28537" /><trkpt lat="47.15385" lon="7.28693" /><trkpt lat="47.15398" lon="7.28715" /><trkpt lat="47.15447" lon="7.28805" /><trkpt lat="47.1546" lon="7.28827" /><trkpt lat="47.1557" lon="7.29013" /><trkpt lat="47.1557" lon="7.29014" /><trkpt lat="47.15734" lon="7.29292" /><trkpt lat="47.15837" lon="7.29467" /><trkpt lat="47.15917" lon="7.29602" /><trkpt lat="47.15949" lon="7.29657" /><trkpt lat="47.1602" lon="7.2978" /><trkpt lat="47.16078" lon="7.29895" /><trkpt lat="47.16131" lon="7.30017" /><trkpt lat="47.16168" lon="7.3012" /><trkpt lat="47.16201" lon="7.30224" /><trkpt lat="47.16219" lon="7.30289" /><trkpt lat="47.16233" lon="7.30344" /><trkpt lat="47.16253" lon="7.30425" /><trkpt lat="47.16329" lon="7.30731" /><trkpt lat="47.16355" lon="7.3084" /><trkpt lat="47.16532" lon="7.31558" /><trkpt lat="47.16586" lon="7.31779" /><trkpt lat="47.16849" lon="7.3285" /><trkpt lat="47.16943" lon="7.3323" /><trkpt lat="47.17134" lon="7.34012" /><trkpt lat="47.17154" lon="7.34091" /><trkpt lat="47.17227" lon="7.34392" /><trkpt lat="47.1724" lon="7.34445" /><trkpt lat="47.17249" lon="7.34494" /><trkpt lat="47.17257" lon="7.34541" /><trkpt lat="47.17263" lon="7.34591" /><trkpt lat="47.17327" lon="7.35122" /><trkpt lat="47.17336" lon="7.35176" /><trkpt lat="47.17345" lon="7.3523" /><trkpt lat="47.17357" lon="7.35283" /><trkpt lat="47.1737" lon="7.35335" /><trkpt lat="47.17385" lon="7.35387" /><trkpt lat="47.17402" lon="7.35436" /><trkpt lat="47.1742" lon="7.35485" /><trkpt lat="47.1745" lon="7.35559" /><trkpt lat="47.1747" lon="7.35603" /><trkpt lat="47.17479" lon="7.35625" /><trkpt lat="47.17661" lon="7.3604" /><trkpt lat="47.17673" lon="7.36068" /><trkpt lat="47.17763" lon="7.36276" /><trkpt lat="47.17782" lon="7.36321" /><trkpt lat="47.17886" lon="7.36558" /><trkpt lat="47.17898" lon="7.36585" /><trkpt lat="47.17936" lon="7.36672" /><trkpt lat="47.18083" lon="7.37009" /><trkpt lat="47.18094" lon="7.37038" /><trkpt lat="47.18118" lon="7.371" /><trkpt lat="47.18137" lon="7.37145" /><trkpt lat="47.18162" lon="7.37209" /><trkpt lat="47.18185" lon="7.3727" /><trkpt lat="47.18198" lon="7.3731" /><trkpt lat="47.18217" lon="7.37373" /><trkpt lat="47.18358" lon="7.37851" /><trkpt lat="47.18362" lon="7.37866" /><trkpt lat="47.18467" lon="7.3822" /><trkpt lat="47.18488" lon="7.38284" /><trkpt lat="47.18527" lon="7.38373" /><trkpt lat="47.18573" lon="7.38448" /><trkpt lat="47.18615" lon="7.385" /><trkpt lat="47.18632" lon="7.38518" /><trkpt lat="47.18676" lon="7.38557" /><trkpt lat="47.18707" lon="7.38582" /><trkpt lat="47.1888" lon="7.38719" /><trkpt lat="47.18904" lon="7.38738" /><trkpt lat="47.18936" lon="7.38762" /><trkpt lat="47.18939" lon="7.38765" /><trkpt lat="47.18943" lon="7.38768" /><trkpt lat="47.18976" lon="7.38794" /><trkpt lat="47.19" lon="7.38813" /><trkpt lat="47.19178" lon="7.38949" /><trkpt lat="47.19259" lon="7.39011" /><trkpt lat="47.19296" lon="7.3904" /><trkpt lat="47.19308" lon="7.3905" /><trkpt lat="47.1932" lon="7.3906" /><trkpt lat="47.19332" lon="7.39071" /><trkpt lat="47.19345" lon="7.39084" /><trkpt lat="47.19359" lon="7.391" /><trkpt lat="47.19376" lon="7.39119" /><trkpt lat="47.19395" lon="7.39145" /><trkpt lat="47.1943" lon="7.39198" /><trkpt lat="47.19444" lon="7.39221" /><trkpt lat="47.19471" lon="7.39263" /><trkpt lat="47.19502" lon="7.3931" /><trkpt lat="47.19533" lon="7.39357" /><trkpt lat="47.19573" lon="7.3942" /><trkpt lat="47.19592" lon="7.39446" /><trkpt lat="47.19604" lon="7.39463" /><trkpt lat="47.19616" lon="7.39477" /><trkpt lat="47.19627" lon="7.3949" /><trkpt lat="47.19639" lon="7.39503" /><trkpt lat="47.19656" lon="7.3952" /><trkpt lat="47.19673" lon="7.39534" /><trkpt lat="47.1969" lon="7.39549" /><trkpt lat="47.19721" lon="7.3957" /><trkpt lat="47.19755" lon="7.3959" /><trkpt lat="47.19781" lon="7.39602" /><trkpt lat="47.19798" lon="7.39607" /><trkpt lat="47.19807" lon="7.39609" /><trkpt lat="47.19816" lon="7.39612" /><trkpt lat="47.1985" lon="7.39621" /><trkpt lat="47.19888" lon="7.39625" /><trkpt lat="47.19919" lon="7.39623" /><trkpt lat="47.19949" lon="7.3962" /><trkpt lat="47.19982" lon="7.39612" /><trkpt lat="47.2003" lon="7.39598" /><trkpt lat="47.2238" lon="7.38846" /><trkpt lat="47.27527" lon="7.37198" /><trkpt lat="47.27545" lon="7.37193" /><trkpt lat="47.27556" lon="7.3719" /><trkpt lat="47.27569" lon="7.37188" /><trkpt lat="47.27585" lon="7.37187" /><trkpt lat="47.27601" lon="7.37186" /><trkpt lat="47.27619" lon="7.37188" /><trkpt lat="47.27627" lon="7.37189" /><trkpt lat="47.27635" lon="7.37191" /><trkpt lat="47.27643" lon="7.37192" /><trkpt lat="47.27649" lon="7.37194" /><trkpt lat="47.27657" lon="7.37197" /><trkpt lat="47.27664" lon="7.37199" /><trkpt lat="47.27676" lon="7.37204" /><trkpt lat="47.27685" lon="7.37209" /><trkpt lat="47.27694" lon="7.37214" /><trkpt lat="47.27701" lon="7.37218" /><trkpt lat="47.27712" lon="7.37225" /><trkpt lat="47.27721" lon="7.37232" /><trkpt lat="47.27732" lon="7.37241" /><trkpt lat="47.27744" lon="7.37252" /><trkpt lat="47.27754" lon="7.37263" /><trkpt lat="47.2777" lon="7.37281" /><trkpt lat="47.27783" lon="7.37298" /><trkpt lat="47.27795" lon="7.37314" /><trkpt lat="47.27852" lon="7.37394" /><trkpt lat="47.27863" lon="7.3741" /><trkpt lat="47.27869" lon="7.3742" /><trkpt lat="47.27879" lon="7.37437" /><trkpt lat="47.27888" lon="7.37456" /><trkpt lat="47.27897" lon="7.37477" /><trkpt lat="47.27903" lon="7.3749" /><trkpt lat="47.27908" lon="7.37505" /><trkpt lat="47.27913" lon="7.37519" /><trkpt lat="47.27919" lon="7.37539" /><trkpt lat="47.27925" lon="7.37562" /><trkpt lat="47.27928" lon="7.37576" /><trkpt lat="47.27932" lon="7.37599" /><trkpt lat="47.27944" lon="7.37658" /><trkpt lat="47.27946" lon="7.3767" /><trkpt lat="47.27947" lon="7.3768" /><trkpt lat="47.27951" lon="7.37721" /><trkpt lat="47.27956" lon="7.37769" /><trkpt lat="47.27991" lon="7.37952" /><trkpt lat="47.27998" lon="7.37989" /><trkpt lat="47.28" lon="7.37999" /><trkpt lat="47.28002" lon="7.38009" /><trkpt lat="47.28005" lon="7.38018" /><trkpt lat="47.28007" lon="7.38028" /><trkpt lat="47.2801" lon="7.38037" /><trkpt lat="47.28013" lon="7.38046" /><trkpt lat="47.28015" lon="7.38054" /><trkpt lat="47.28018" lon="7.38062" /><trkpt lat="47.28021" lon="7.38069" /><trkpt lat="47.28025" lon="7.38079" /><trkpt lat="47.2803" lon="7.38091" /><trkpt lat="47.28035" lon="7.38103" /><trkpt lat="47.28039" lon="7.38111" /><trkpt lat="47.28043" lon="7.38118" /><trkpt lat="47.28049" lon="7.38131" /><trkpt lat="47.28055" lon="7.38141" /><trkpt lat="47.2806" lon="7.38149" /><trkpt lat="47.28066" lon="7.38158" /><trkpt lat="47.28074" lon="7.3817" /><trkpt lat="47.28083" lon="7.38181" /><trkpt lat="47.28087" lon="7.38186" /><trkpt lat="47.28091" lon="7.38191" /><trkpt lat="47.28097" lon="7.38197" /><trkpt lat="47.28103" lon="7.38204" /><trkpt lat="47.2811" lon="7.3821" /><trkpt lat="47.28119" lon="7.38218" /><trkpt lat="47.28128" lon="7.38224" /><trkpt lat="47.28136" lon="7.3823" /><trkpt lat="47.28141" lon="7.38234" /><trkpt lat="47.28147" lon="7.38238" /><trkpt lat="47.28154" lon="7.38242" /><trkpt lat="47.28159" lon="7.38245" /><trkpt lat="47.28167" lon="7.3825" /><trkpt lat="47.28174" lon="7.38253" /><trkpt lat="47.28181" lon="7.38256" /><trkpt lat="47.28188" lon="7.3826" /><trkpt lat="47.28199" lon="7.38264" /><trkpt lat="47.28216" lon="7.38269" /><trkpt lat="47.28228" lon="7.38273" /><trkpt lat="47.28236" lon="7.38275" /><trkpt lat="47.28244" lon="7.38277" /><trkpt lat="47.28252" lon="7.38278" /><trkpt lat="47.2826" lon="7.38279" /><trkpt lat="47.28267" lon="7.3828" /><trkpt lat="47.28274" lon="7.3828" /><trkpt lat="47.2828" lon="7.38279" /><trkpt lat="47.28286" lon="7.38278" /><trkpt lat="47.28293" lon="7.38276" /><trkpt lat="47.28302" lon="7.38273" /><trkpt lat="47.28306" lon="7.38272" /><trkpt lat="47.28325" lon="7.38264" /><trkpt lat="47.28363" lon="7.3825" /><trkpt lat="47.28369" lon="7.38249" /><trkpt lat="47.28398" lon="7.38242" /><trkpt lat="47.28508" lon="7.38214" /><trkpt lat="47.28521" lon="7.38211" /><trkpt lat="47.2853" lon="7.38209" /><trkpt lat="47.28538" lon="7.38208" /><trkpt lat="47.2856" lon="7.38204" /><trkpt lat="47.28579" lon="7.38202" /><trkpt lat="47.286" lon="7.382" /><trkpt lat="47.28629" lon="7.38199" /><trkpt lat="47.28638" lon="7.38199" /><trkpt lat="47.28809" lon="7.38198" /><trkpt lat="47.28971" lon="7.38198" /><trkpt lat="47.28991" lon="7.38197" /><trkpt lat="47.29" lon="7.38196" /><trkpt lat="47.29009" lon="7.38195" /><trkpt lat="47.29016" lon="7.38194" /><trkpt lat="47.29023" lon="7.38193" /><trkpt lat="47.29031" lon="7.38191" /><trkpt lat="47.2904" lon="7.38189" /><trkpt lat="47.29049" lon="7.38186" /><trkpt lat="47.29058" lon="7.38182" /><trkpt lat="47.29084" lon="7.38172" /><trkpt lat="47.2911" lon="7.38151" /><trkpt lat="47.29117" lon="7.38146" /><trkpt lat="47.29123" lon="7.3814" /><trkpt lat="47.29131" lon="7.38133" /><trkpt lat="47.29142" lon="7.38123" /><trkpt lat="47.29153" lon="7.38111" /><trkpt lat="47.29185" lon="7.38079" /><trkpt lat="47.29203" lon="7.38059" /><trkpt lat="47.29221" lon="7.38041" /><trkpt lat="47.29262" lon="7.37999" /><trkpt lat="47.29277" lon="7.37983" /><trkpt lat="47.29288" lon="7.37973" /><trkpt lat="47.29298" lon="7.37964" /><trkpt lat="47.29311" lon="7.37952" /><trkpt lat="47.29319" lon="7.37946" /><trkpt lat="47.2933" lon="7.37938" /><trkpt lat="47.2934" lon="7.37932" /><trkpt lat="47.29349" lon="7.37926" /><trkpt lat="47.29361" lon="7.37919" /><trkpt lat="47.29373" lon="7.37913" /><trkpt lat="47.29379" lon="7.3791" /><trkpt lat="47.29386" lon="7.37906" /><trkpt lat="47.29404" lon="7.37899" /><trkpt lat="47.29445" lon="7.37885" /><trkpt lat="47.29524" lon="7.37861" /><trkpt lat="47.29536" lon="7.37858" /><trkpt lat="47.2955" lon="7.37855" /><trkpt lat="47.29561" lon="7.37853" /><trkpt lat="47.29572" lon="7.37852" /><trkpt lat="47.29584" lon="7.37851" /><trkpt lat="47.29597" lon="7.37851" /><trkpt lat="47.29612" lon="7.37852" /><trkpt lat="47.29626" lon="7.37853" /><trkpt lat="47.29662" lon="7.37857" /><trkpt lat="47.29679" lon="7.37859" /><trkpt lat="47.29692" lon="7.37861" /><trkpt lat="47.29703" lon="7.37863" /><trkpt lat="47.29717" lon="7.37867" /><trkpt lat="47.29724" lon="7.37869" /><trkpt lat="47.29732" lon="7.37872" /><trkpt lat="47.29742" lon="7.37876" /><trkpt lat="47.29757" lon="7.37884" /><trkpt lat="47.2977" lon="7.37891" /><trkpt lat="47.29779" lon="7.37897" /><trkpt lat="47.2979" lon="7.37906" /><trkpt lat="47.29802" lon="7.37916" /><trkpt lat="47.29813" lon="7.37926" /><trkpt lat="47.29823" lon="7.37937" /><trkpt lat="47.29834" lon="7.37949" /><trkpt lat="47.29843" lon="7.37961" /><trkpt lat="47.29853" lon="7.37975" /><trkpt lat="47.29864" lon="7.37991" /><trkpt lat="47.29881" lon="7.38016" /><trkpt lat="47.2998" lon="7.38164" /><trkpt lat="47.30004" lon="7.38199" /><trkpt lat="47.30011" lon="7.38209" /><trkpt lat="47.30019" lon="7.3822" /><trkpt lat="47.30025" lon="7.38228" /><trkpt lat="47.30032" lon="7.38236" /><trkpt lat="47.30039" lon="7.38245" /><trkpt lat="47.30047" lon="7.38254" /><trkpt lat="47.30058" lon="7.38264" /><trkpt lat="47.30067" lon="7.38272" /><trkpt lat="47.30077" lon="7.3828" /><trkpt lat="47.30089" lon="7.38289" /><trkpt lat="47.30097" lon="7.38294" /><trkpt lat="47.30104" lon="7.38298" /><trkpt lat="47.30114" lon="7.38303" /><trkpt lat="47.30122" lon="7.38307" /><trkpt lat="47.30132" lon="7.38311" /><trkpt lat="47.30141" lon="7.38314" /><trkpt lat="47.3015" lon="7.38317" /><trkpt lat="47.3016" lon="7.3832" /><trkpt lat="47.3017" lon="7.38321" /><trkpt lat="47.3018" lon="7.38323" /><trkpt lat="47.30191" lon="7.38324" /><trkpt lat="47.30215" lon="7.38325" /><trkpt lat="47.3029" lon="7.38329" /><trkpt lat="47.30331" lon="7.38337" /><trkpt lat="47.30355" lon="7.38347" /><trkpt lat="47.30379" lon="7.38359" /><trkpt lat="47.30403" lon="7.38376" /><trkpt lat="47.30425" lon="7.38395" /><trkpt lat="47.30458" lon="7.38434" /><trkpt lat="47.30476" lon="7.3846" /><trkpt lat="47.305" lon="7.38499" /><trkpt lat="47.30522" lon="7.38539" /><trkpt lat="47.3057" lon="7.38634" /><trkpt lat="47.30594" lon="7.3868" /><trkpt lat="47.30622" lon="7.38732" /><trkpt lat="47.30689" lon="7.38846" /><trkpt lat="47.30706" lon="7.38874" /><trkpt lat="47.30723" lon="7.38897" /><trkpt lat="47.30742" lon="7.38922" /><trkpt lat="47.30765" lon="7.3894" /><trkpt lat="47.30785" lon="7.38958" /><trkpt lat="47.30802" lon="7.38967" /><trkpt lat="47.30876" lon="7.39002" /><trkpt lat="47.30933" lon="7.39031" /><trkpt lat="47.30956" lon="7.39044" /><trkpt lat="47.30968" lon="7.39051" /><trkpt lat="47.30974" lon="7.39053" /><trkpt lat="47.3098" lon="7.39056" /><trkpt lat="47.30986" lon="7.39059" /><trkpt lat="47.30992" lon="7.39061" /><trkpt lat="47.30999" lon="7.39063" /><trkpt lat="47.31006" lon="7.39066" /><trkpt lat="47.31012" lon="7.39067" /><trkpt lat="47.31017" lon="7.39068" /><trkpt lat="47.31023" lon="7.3907" /><trkpt lat="47.31029" lon="7.39071" /><trkpt lat="47.31035" lon="7.39071" /><trkpt lat="47.31041" lon="7.39072" /><trkpt lat="47.31048" lon="7.39073" /><trkpt lat="47.31053" lon="7.39073" /><trkpt lat="47.31059" lon="7.39073" /><trkpt lat="47.31067" lon="7.39072" /><trkpt lat="47.31077" lon="7.39072" /><trkpt lat="47.31085" lon="7.3907" /><trkpt lat="47.31099" lon="7.39068" /><trkpt lat="47.31113" lon="7.39065" /><trkpt lat="47.31346" lon="7.39013" /><trkpt lat="47.31361" lon="7.39009" /><trkpt lat="47.31369" lon="7.39007" /><trkpt lat="47.31376" lon="7.39006" /><trkpt lat="47.31382" lon="7.39004" /><trkpt lat="47.31408" lon="7.38992" /><trkpt lat="47.31441" lon="7.38974" /><trkpt lat="47.31474" lon="7.38949" /><trkpt lat="47.31481" lon="7.38942" /><trkpt lat="47.31488" lon="7.38935" /><trkpt lat="47.31496" lon="7.38926" /><trkpt lat="47.31502" lon="7.38918" /><trkpt lat="47.31509" lon="7.3891" /><trkpt lat="47.31516" lon="7.389" /><trkpt lat="47.31522" lon="7.38891" /><trkpt lat="47.31528" lon="7.38882" /><trkpt lat="47.31533" lon="7.38874" /><trkpt lat="47.31538" lon="7.38864" /><trkpt lat="47.31543" lon="7.38855" /><trkpt lat="47.31547" lon="7.38848" /><trkpt lat="47.31551" lon="7.3884" /><trkpt lat="47.31556" lon="7.38828" /><trkpt lat="47.31559" lon="7.3882" /><trkpt lat="47.31563" lon="7.3881" /><trkpt lat="47.31567" lon="7.38799" /><trkpt lat="47.31571" lon="7.38788" /><trkpt lat="47.31576" lon="7.38774" /><trkpt lat="47.31582" lon="7.38756" /><trkpt lat="47.31588" lon="7.38738" /><trkpt lat="47.31593" lon="7.3872" /><trkpt lat="47.31598" lon="7.38704" /><trkpt lat="47.31608" lon="7.38663" /><trkpt lat="47.31612" lon="7.38642" /><trkpt lat="47.31614" lon="7.38626" /><trkpt lat="47.31616" lon="7.3861" /><trkpt lat="47.31618" lon="7.38593" /><trkpt lat="47.31618" lon="7.38578" /><trkpt lat="47.31619" lon="7.38562" /><trkpt lat="47.3162" lon="7.38547" /><trkpt lat="47.3162" lon="7.38524" /><trkpt lat="47.3162" lon="7.38497" /><trkpt lat="47.3162" lon="7.38463" /><trkpt lat="47.3162" lon="7.38444" /><trkpt lat="47.31621" lon="7.38426" /><trkpt lat="47.31622" lon="7.38409" /><trkpt lat="47.31623" lon="7.38394" /><trkpt lat="47.31625" lon="7.38379" /><trkpt lat="47.31627" lon="7.38364" /><trkpt lat="47.31629" lon="7.38351" /><trkpt lat="47.31631" lon="7.38339" /><trkpt lat="47.31633" lon="7.38325" /><trkpt lat="47.31636" lon="7.38313" /><trkpt lat="47.31639" lon="7.383" /><trkpt lat="47.31642" lon="7.38284" /><trkpt lat="47.31647" lon="7.3827" /><trkpt lat="47.3165" lon="7.38259" /><trkpt lat="47.31654" lon="7.38246" /><trkpt lat="47.3166" lon="7.38231" /><trkpt lat="47.31664" lon="7.38218" /><trkpt lat="47.3167" lon="7.38204" /><trkpt lat="47.31675" lon="7.38193" /><trkpt lat="47.3168" lon="7.38182" /><trkpt lat="47.31688" lon="7.38167" /><trkpt lat="47.31695" lon="7.38153" /><trkpt lat="47.31703" lon="7.38139" /><trkpt lat="47.31712" lon="7.38125" /><trkpt lat="47.31723" lon="7.38108" /><trkpt lat="47.3173" lon="7.38097" /><trkpt lat="47.31739" lon="7.38085" /><trkpt lat="47.31749" lon="7.38073" /><trkpt lat="47.31757" lon="7.38063" /><trkpt lat="47.31768" lon="7.38051" /><trkpt lat="47.31779" lon="7.3804" /><trkpt lat="47.3179" lon="7.3803" /><trkpt lat="47.31803" lon="7.38018" /><trkpt lat="47.31817" lon="7.38007" /><trkpt lat="47.31829" lon="7.37998" /><trkpt lat="47.31844" lon="7.37988" /><trkpt lat="47.31856" lon="7.3798" /><trkpt lat="47.31905" lon="7.37949" /><trkpt lat="47.31919" lon="7.37939" /><trkpt lat="47.31946" lon="7.37921" /><trkpt lat="47.31982" lon="7.37896" /><trkpt lat="47.32028" lon="7.37861" /><trkpt lat="47.32177" lon="7.37735" /><trkpt lat="47.32311" lon="7.37619" /><trkpt lat="47.32336" lon="7.376" /><trkpt lat="47.32349" lon="7.37591" /><trkpt lat="47.32361" lon="7.37584" /><trkpt lat="47.32373" lon="7.37577" /><trkpt lat="47.32388" lon="7.37571" /><trkpt lat="47.32398" lon="7.37568" /><trkpt lat="47.32408" lon="7.37565" /><trkpt lat="47.32418" lon="7.37562" /><trkpt lat="47.32427" lon="7.37561" /><trkpt lat="47.32432" lon="7.3756" /><trkpt lat="47.32437" lon="7.37559" /><trkpt lat="47.32446" lon="7.37558" /><trkpt lat="47.32455" lon="7.37558" /><trkpt lat="47.32465" lon="7.37558" /><trkpt lat="47.32473" lon="7.37559" /><trkpt lat="47.32482" lon="7.37559" /><trkpt lat="47.3249" lon="7.37561" /><trkpt lat="47.32498" lon="7.37562" /><trkpt lat="47.32529" lon="7.37572" /><trkpt lat="47.32547" lon="7.3758" /><trkpt lat="47.32557" lon="7.37585" /><trkpt lat="47.32566" lon="7.37591" /><trkpt lat="47.32585" lon="7.37604" /><trkpt lat="47.32611" lon="7.37627" /><trkpt lat="47.32679" lon="7.37692" /><trkpt lat="47.32699" lon="7.3771" /><trkpt lat="47.3271" lon="7.37718" /><trkpt lat="47.3272" lon="7.37726" /><trkpt lat="47.32731" lon="7.37733" /><trkpt lat="47.3274" lon="7.37739" /><trkpt lat="47.32752" lon="7.37746" /><trkpt lat="47.32764" lon="7.37751" /><trkpt lat="47.32776" lon="7.37756" /><trkpt lat="47.32791" lon="7.37761" /><trkpt lat="47.32826" lon="7.37767" /><trkpt lat="47.32853" lon="7.37768" /><trkpt lat="47.32876" lon="7.37766" /><trkpt lat="47.32916" lon="7.37757" /><trkpt lat="47.32947" lon="7.37746" /><trkpt lat="47.32981" lon="7.37726" /><trkpt lat="47.33013" lon="7.37702" /><trkpt lat="47.33021" lon="7.37696" /><trkpt lat="47.33029" lon="7.37688" /><trkpt lat="47.33039" lon="7.37678" /><trkpt lat="47.33049" lon="7.37667" /><trkpt lat="47.3306" lon="7.37654" /><trkpt lat="47.33068" lon="7.37643" /><trkpt lat="47.33076" lon="7.37632" /><trkpt lat="47.33085" lon="7.3762" /><trkpt lat="47.33094" lon="7.37605" /><trkpt lat="47.33103" lon="7.3759" /><trkpt lat="47.33111" lon="7.37576" /><trkpt lat="47.33176" lon="7.37454" /><trkpt lat="47.33201" lon="7.37408" /><trkpt lat="47.33264" lon="7.37283" /><trkpt lat="47.33272" lon="7.37269" /><trkpt lat="47.3328" lon="7.37253" /><trkpt lat="47.33285" lon="7.37245" /><trkpt lat="47.33292" lon="7.37233" /><trkpt lat="47.33301" lon="7.37218" /><trkpt lat="47.3331" lon="7.37205" /><trkpt lat="47.33322" lon="7.37188" /><trkpt lat="47.33331" lon="7.37175" /><trkpt lat="47.33339" lon="7.37166" /><trkpt lat="47.33347" lon="7.37155" /><trkpt lat="47.33359" lon="7.37141" /><trkpt lat="47.33375" lon="7.37125" /><trkpt lat="47.33391" lon="7.37109" /><trkpt lat="47.33397" lon="7.37103" /><trkpt lat="47.33496" lon="7.3701" /><trkpt lat="47.33507" lon="7.37" /><trkpt lat="47.33519" lon="7.3699" /><trkpt lat="47.33535" lon="7.36978" /><trkpt lat="47.33548" lon="7.36968" /><trkpt lat="47.33565" lon="7.36956" /><trkpt lat="47.33582" lon="7.36945" /><trkpt lat="47.33599" lon="7.36935" /><trkpt lat="47.33616" lon="7.36927" /><trkpt lat="47.33634" lon="7.36918" /><trkpt lat="47.33652" lon="7.36911" /><trkpt lat="47.33664" lon="7.36907" /><trkpt lat="47.33676" lon="7.36903" /><trkpt lat="47.3369" lon="7.36899" /><trkpt lat="47.33708" lon="7.36895" /><trkpt lat="47.33717" lon="7.36893" /><trkpt lat="47.33757" lon="7.36884" /><trkpt lat="47.33865" lon="7.36866" /><trkpt lat="47.33983" lon="7.36848" /><trkpt lat="47.34047" lon="7.3684" /><trkpt lat="47.34111" lon="7.36834" /><trkpt lat="47.34309" lon="7.36805" /><trkpt lat="47.34318" lon="7.36804" /><trkpt lat="47.34409" lon="7.3679" /><trkpt lat="47.34445" lon="7.36785" /><trkpt lat="47.34462" lon="7.36781" /><trkpt lat="47.3448" lon="7.36777" /><trkpt lat="47.34494" lon="7.36774" /><trkpt lat="47.34508" lon="7.36771" /><trkpt lat="47.34522" lon="7.36767" /><trkpt lat="47.34539" lon="7.36762" /><trkpt lat="47.34557" lon="7.36757" /><trkpt lat="47.34572" lon="7.36752" /><trkpt lat="47.34606" lon="7.36737" /><trkpt lat="47.34665" lon="7.36714" /><trkpt lat="47.35148" lon="7.36505" /><trkpt lat="47.35182" lon="7.3649" /><trkpt lat="47.35959" lon="7.36152" /><trkpt lat="47.35989" lon="7.3614" /><trkpt lat="47.36018" lon="7.36127" /><trkpt lat="47.36028" lon="7.36122" /><trkpt lat="47.36038" lon="7.36117" /><trkpt lat="47.36051" lon="7.3611" /><trkpt lat="47.3606" lon="7.36105" /><trkpt lat="47.36071" lon="7.36097" /><trkpt lat="47.36082" lon="7.3609" /><trkpt lat="47.36095" lon="7.36079" /><trkpt lat="47.36106" lon="7.3607" /><trkpt lat="47.36116" lon="7.36061" /><trkpt lat="47.36129" lon="7.36047" /><trkpt lat="47.36144" lon="7.36031" /><trkpt lat="47.36156" lon="7.36016" /><trkpt lat="47.36165" lon="7.36004" /><trkpt lat="47.36173" lon="7.35993" /><trkpt lat="47.3618" lon="7.35982" /><trkpt lat="47.36187" lon="7.35971" /><trkpt lat="47.36194" lon="7.35959" /><trkpt lat="47.362" lon="7.35948" /><trkpt lat="47.36206" lon="7.35937" /><trkpt lat="47.36211" lon="7.35925" /><trkpt lat="47.36217" lon="7.35913" /><trkpt lat="47.36223" lon="7.35901" /><trkpt lat="47.36228" lon="7.35888" /><trkpt lat="47.36234" lon="7.35873" /><trkpt lat="47.36239" lon="7.35858" /><trkpt lat="47.36244" lon="7.35842" /><trkpt lat="47.3625" lon="7.35824" /><trkpt lat="47.36255" lon="7.35805" /><trkpt lat="47.36259" lon="7.35787" /><trkpt lat="47.36263" lon="7.35769" /><trkpt lat="47.36266" lon="7.3575" /><trkpt lat="47.36269" lon="7.35736" /><trkpt lat="47.36271" lon="7.35723" /><trkpt lat="47.36272" lon="7.35706" /><trkpt lat="47.36274" lon="7.35687" /><trkpt lat="47.36275" lon="7.35671" /><trkpt lat="47.36275" lon="7.35656" /><trkpt lat="47.36275" lon="7.35638" /><trkpt lat="47.36275" lon="7.35624" /><trkpt lat="47.36274" lon="7.3561" /><trkpt lat="47.36273" lon="7.35593" /><trkpt lat="47.36271" lon="7.35576" /><trkpt lat="47.36269" lon="7.3555" /><trkpt lat="47.36266" lon="7.35523" /><trkpt lat="47.36256" lon="7.3543" /><trkpt lat="47.36236" lon="7.35356" /><trkpt lat="47.36229" lon="7.35328" /><trkpt lat="47.3622" lon="7.35295" /><trkpt lat="47.36217" lon="7.35284" /><trkpt lat="47.36215" lon="7.35275" /><trkpt lat="47.36213" lon="7.35264" /><trkpt lat="47.3621" lon="7.3524" /><trkpt lat="47.36208" lon="7.35231" /><trkpt lat="47.36206" lon="7.35216" /><trkpt lat="47.3617" lon="7.35022" /><trkpt lat="47.36142" lon="7.34869" /><trkpt lat="47.36115" lon="7.34717" /><trkpt lat="47.36112" lon="7.34701" /><trkpt lat="47.3611" lon="7.34691" /><trkpt lat="47.36107" lon="7.34679" /><trkpt lat="47.36104" lon="7.34667" /><trkpt lat="47.36101" lon="7.34655" /><trkpt lat="47.36097" lon="7.34642" /><trkpt lat="47.36093" lon="7.34628" /><trkpt lat="47.36089" lon="7.34617" /><trkpt lat="47.36085" lon="7.34605" /><trkpt lat="47.36081" lon="7.34593" /><trkpt lat="47.36076" lon="7.34581" /><trkpt lat="47.36071" lon="7.34571" /><trkpt lat="47.36066" lon="7.34559" /><trkpt lat="47.3606" lon="7.34548" /><trkpt lat="47.36054" lon="7.34537" /><trkpt lat="47.36049" lon="7.34528" /><trkpt lat="47.36047" lon="7.34525" /><trkpt lat="47.3604" lon="7.34513" /><trkpt lat="47.36035" lon="7.34505" /><trkpt lat="47.36027" lon="7.34494" /><trkpt lat="47.36019" lon="7.34481" /><trkpt lat="47.35979" lon="7.34421" /><trkpt lat="47.35962" lon="7.3439" /><trkpt lat="47.35957" lon="7.34381" /><trkpt lat="47.35952" lon="7.34372" /><trkpt lat="47.35944" lon="7.34359" /><trkpt lat="47.35931" lon="7.34339" /><trkpt lat="47.35919" lon="7.34322" /><trkpt lat="47.35912" lon="7.3431" /><trkpt lat="47.35904" lon="7.34297" /><trkpt lat="47.35894" lon="7.3428" /><trkpt lat="47.35888" lon="7.34269" /><trkpt lat="47.35881" lon="7.34258" /><trkpt lat="47.35869" lon="7.34239" /><trkpt lat="47.35776" lon="7.341" /><trkpt lat="47.35742" lon="7.3405" /><trkpt lat="47.35726" lon="7.34025" /><trkpt lat="47.35708" lon="7.33999" /><trkpt lat="47.35641" lon="7.33905" /><trkpt lat="47.35352" lon="7.33501" /><trkpt lat="47.35016" lon="7.33032" /><trkpt lat="47.3487" lon="7.32828" /><trkpt lat="47.34658" lon="7.3253" /><trkpt lat="47.34561" lon="7.32376" /><trkpt lat="47.34515" lon="7.323" /><trkpt lat="47.34455" lon="7.32191" /><trkpt lat="47.34401" lon="7.32085" /><trkpt lat="47.34323" lon="7.31922" /><trkpt lat="47.343" lon="7.3187" /><trkpt lat="47.34281" lon="7.31826" /><trkpt lat="47.34272" lon="7.31805" /><trkpt lat="47.34244" lon="7.31735" /><trkpt lat="47.34196" lon="7.3161" /><trkpt lat="47.34149" lon="7.31486" /><trkpt lat="47.34143" lon="7.31472" /><trkpt lat="47.33894" lon="7.30838" /><trkpt lat="47.33871" lon="7.30779" /><trkpt lat="47.33784" lon="7.30557" /><trkpt lat="47.33726" lon="7.30408" /><trkpt lat="47.33698" lon="7.30338" /><trkpt lat="47.3367" lon="7.30265" /><trkpt lat="47.33656" lon="7.3023" /><trkpt lat="47.33643" lon="7.30196" /><trkpt lat="47.33634" lon="7.30173" /><trkpt lat="47.33622" lon="7.30138" /><trkpt lat="47.33608" lon="7.30091" /><trkpt lat="47.33596" lon="7.30051" /><trkpt lat="47.33589" lon="7.30024" /><trkpt lat="47.33582" lon="7.29997" /><trkpt lat="47.33575" lon="7.29966" /><trkpt lat="47.3357" lon="7.29943" /><trkpt lat="47.33565" lon="7.29914" /><trkpt lat="47.33561" lon="7.29895" /><trkpt lat="47.33558" lon="7.29875" /><trkpt lat="47.33555" lon="7.29857" /><trkpt lat="47.33552" lon="7.29836" /><trkpt lat="47.33549" lon="7.29814" /><trkpt lat="47.33546" lon="7.29797" /><trkpt lat="47.33544" lon="7.2978" /><trkpt lat="47.33542" lon="7.29761" /><trkpt lat="47.33541" lon="7.29744" /><trkpt lat="47.33539" lon="7.29722" /><trkpt lat="47.33537" lon="7.297" /><trkpt lat="47.33536" lon="7.29681" /><trkpt lat="47.33534" lon="7.29653" /><trkpt lat="47.33533" lon="7.29622" /><trkpt lat="47.33532" lon="7.29591" /><trkpt lat="47.33531" lon="7.29528" /><trkpt lat="47.33529" lon="7.29389" /><trkpt lat="47.33528" lon="7.29361" /><trkpt lat="47.33527" lon="7.29325" /><trkpt lat="47.33523" lon="7.29185" /><trkpt lat="47.33519" lon="7.29063" /><trkpt lat="47.33517" lon="7.28978" /><trkpt lat="47.33515" lon="7.28932" /><trkpt lat="47.33514" lon="7.28906" /><trkpt lat="47.33513" lon="7.28893" /><trkpt lat="47.33508" lon="7.2881" /><trkpt lat="47.33508" lon="7.2879" /><trkpt lat="47.33507" lon="7.2877" /><trkpt lat="47.33506" lon="7.28744" /><trkpt lat="47.33506" lon="7.28731" /><trkpt lat="47.33505" lon="7.28719" /><trkpt lat="47.33506" lon="7.28705" /><trkpt lat="47.33506" lon="7.28691" /><trkpt lat="47.33507" lon="7.28673" /><trkpt lat="47.33508" lon="7.28658" /><trkpt lat="47.33509" lon="7.28643" /><trkpt lat="47.3351" lon="7.28626" /><trkpt lat="47.33513" lon="7.28604" /><trkpt lat="47.33515" lon="7.28587" /><trkpt lat="47.33517" lon="7.28571" /><trkpt lat="47.3352" lon="7.28556" /><trkpt lat="47.33522" lon="7.28541" /><trkpt lat="47.33526" lon="7.28525" /><trkpt lat="47.33529" lon="7.2851" /><trkpt lat="47.33534" lon="7.28486" /><trkpt lat="47.33541" lon="7.28462" /><trkpt lat="47.33545" lon="7.28447" /><trkpt lat="47.3355" lon="7.28431" /><trkpt lat="47.33555" lon="7.28415" /><trkpt lat="47.3356" lon="7.28399" /><trkpt lat="47.33565" lon="7.28384" /><trkpt lat="47.33572" lon="7.28368" /><trkpt lat="47.33578" lon="7.28352" /><trkpt lat="47.33604" lon="7.28288" /><trkpt lat="47.33613" lon="7.28268" /><trkpt lat="47.33617" lon="7.28255" /><trkpt lat="47.33621" lon="7.28245" /><trkpt lat="47.33624" lon="7.28239" /><trkpt lat="47.33631" lon="7.28218" /><trkpt lat="47.3364" lon="7.28192" /><trkpt lat="47.33644" lon="7.28178" /><trkpt lat="47.33648" lon="7.28164" /><trkpt lat="47.33655" lon="7.28137" /><trkpt lat="47.3366" lon="7.28117" /><trkpt lat="47.33664" lon="7.28096" /><trkpt lat="47.33668" lon="7.28075" /><trkpt lat="47.3367" lon="7.28058" /><trkpt lat="47.33673" lon="7.28041" /><trkpt lat="47.33675" lon="7.2802" /><trkpt lat="47.33676" lon="7.28007" /><trkpt lat="47.33678" lon="7.2799" /><trkpt lat="47.33679" lon="7.2796" /><trkpt lat="47.3368" lon="7.27933" /><trkpt lat="47.3368" lon="7.27917" /><trkpt lat="47.3368" lon="7.27902" /><trkpt lat="47.3368" lon="7.27891" /><trkpt lat="47.3368" lon="7.27878" /><trkpt lat="47.33676" lon="7.2709" /><trkpt lat="47.3367" lon="7.2607" /><trkpt lat="47.33667" lon="7.25607" /><trkpt lat="47.33665" lon="7.25125" /><trkpt lat="47.33664" lon="7.25106" /><trkpt lat="47.33664" lon="7.25086" /><trkpt lat="47.33661" lon="7.25036" /><trkpt lat="47.3366" lon="7.25015" /><trkpt lat="47.3366" lon="7.24993" /><trkpt lat="47.33659" lon="7.24785" /><trkpt lat="47.33658" lon="7.24687" /><trkpt lat="47.33657" lon="7.24648" /><trkpt lat="47.33655" lon="7.24556" /><trkpt lat="47.33655" lon="7.24542" /><trkpt lat="47.33654" lon="7.24528" /><trkpt lat="47.33654" lon="7.24511" /><trkpt lat="47.33651" lon="7.24479" /><trkpt lat="47.33647" lon="7.24432" /><trkpt lat="47.33608" lon="7.24043" /><trkpt lat="47.33605" lon="7.24016" /><trkpt lat="47.33568" lon="7.23643" /><trkpt lat="47.33538" lon="7.23343" /><trkpt lat="47.3346" lon="7.22566" /><trkpt lat="47.33459" lon="7.2256" /><trkpt lat="47.33385" lon="7.21819" /><trkpt lat="47.33374" lon="7.21717" /><trkpt lat="47.3337" lon="7.21661" /><trkpt lat="47.33368" lon="7.21628" /><trkpt lat="47.33368" lon="7.21593" /><trkpt lat="47.3337" lon="7.21542" /><trkpt lat="47.33374" lon="7.21499" /><trkpt lat="47.33382" lon="7.21453" /><trkpt lat="47.33388" lon="7.21421" /><trkpt lat="47.33401" lon="7.21368" /><trkpt lat="47.33415" lon="7.2131" /><trkpt lat="47.33439" lon="7.21221" /><trkpt lat="47.33451" lon="7.2118" /><trkpt lat="47.33461" lon="7.21148" /><trkpt lat="47.33504" lon="7.21026" /><trkpt lat="47.33533" lon="7.20943" /><trkpt lat="47.33555" lon="7.20882" /><trkpt lat="47.33612" lon="7.20715" /><trkpt lat="47.33628" lon="7.20672" /><trkpt lat="47.33654" lon="7.20605" /><trkpt lat="47.34" lon="7.19799" /><trkpt lat="47.34596" lon="7.18334" /><trkpt lat="47.34879" lon="7.17755" /><trkpt lat="47.34907" lon="7.17708" /><trkpt lat="47.34936" lon="7.17668" /><trkpt lat="47.3497" lon="7.17631" /><trkpt lat="47.35004" lon="7.17602" /><trkpt lat="47.35035" lon="7.17583" /><trkpt lat="47.35072" lon="7.17567" /><trkpt lat="47.35095" lon="7.17561" /><trkpt lat="47.35118" lon="7.17558" /><trkpt lat="47.35137" lon="7.17557" /><trkpt lat="47.35157" lon="7.17558" /><trkpt lat="47.35163" lon="7.17559" /><trkpt lat="47.35234" lon="7.17576" /><trkpt lat="47.35266" lon="7.17589" /><trkpt lat="47.35299" lon="7.17599" /><trkpt lat="47.35337" lon="7.17605" /><trkpt lat="47.35357" lon="7.17607" /><trkpt lat="47.3538" lon="7.17609" /><trkpt lat="47.35428" lon="7.17603" /><trkpt lat="47.3546" lon="7.17596" /><trkpt lat="47.3549" lon="7.17585" /><trkpt lat="47.35533" lon="7.17564" /><trkpt lat="47.35578" lon="7.17538" /><trkpt lat="47.35781" lon="7.17408" /><trkpt lat="47.35907" lon="7.17331" /><trkpt lat="47.36037" lon="7.17248" /><trkpt lat="47.36088" lon="7.17226" /><trkpt lat="47.36139" lon="7.17213" /><trkpt lat="47.36217" lon="7.17204" /><trkpt lat="47.36293" lon="7.17194" /><trkpt lat="47.36374" lon="7.17163" /><trkpt lat="47.36452" lon="7.17128" /><trkpt lat="47.36478" lon="7.17116" /><trkpt lat="47.36513" lon="7.17099" /><trkpt lat="47.36528" lon="7.1709" /><trkpt lat="47.36547" lon="7.17077" /><trkpt lat="47.36556" lon="7.17071" /><trkpt lat="47.3657" lon="7.17059" /><trkpt lat="47.36581" lon="7.17049" /><trkpt lat="47.36599" lon="7.1703" /><trkpt lat="47.36611" lon="7.17017" /><trkpt lat="47.36619" lon="7.17007" /><trkpt lat="47.36629" lon="7.16995" /><trkpt lat="47.36646" lon="7.1697" /><trkpt lat="47.36655" lon="7.16954" /><trkpt lat="47.36666" lon="7.16935" /><trkpt lat="47.36677" lon="7.16914" /><trkpt lat="47.36684" lon="7.16901" /><trkpt lat="47.36694" lon="7.16878" /><trkpt lat="47.36701" lon="7.16861" /><trkpt lat="47.36707" lon="7.16845" /><trkpt lat="47.36712" lon="7.16832" /><trkpt lat="47.36716" lon="7.16818" /><trkpt lat="47.36722" lon="7.16797" /><trkpt lat="47.3673" lon="7.1676" /><trkpt lat="47.36766" lon="7.16594" /><trkpt lat="47.36766" lon="7.16594" /></trkseg></trk></gpx>