<gpx version="1.1" creator="Trainlog.me"><trk><name>Trip Path</name><trkseg><trkpt lat="46.39662" lon="7.10177" /><trkpt lat="46.39632" lon="7.10192" /><trkpt lat="46.39612" lon="7.10203" /><trkpt lat="46.39591" lon="7.10214" /><trkpt lat="46.39586" lon="7.10215" /><trkpt lat="46.39581" lon="7.10217" /><trkpt lat="46.39575" lon="7.10218" /><trkpt lat="46.3957" lon="7.10219" /><trkpt lat="46.3956" lon="7.1022" /><trkpt lat="46.39547" lon="7.10218" /><trkpt lat="46.39538" lon="7.10216" /><trkpt lat="46.39524" lon="7.10211" /><trkpt lat="46.39513" lon="7.10205" /><trkpt lat="46.39506" lon="7.10199" /><trkpt lat="46.39497" lon="7.10191" /><trkpt lat="46.39489" lon="7.1018" /><trkpt lat="46.39483" lon="7.10172" /><trkpt lat="46.3948" lon="7.10166" /><trkpt lat="46.3947" lon="7.10144" /><trkpt lat="46.39468" lon="7.10136" /><trkpt lat="46.39467" lon="7.10134" /><trkpt lat="46.39464" lon="7.10122" /><trkpt lat="46.3946" lon="7.10107" /><trkpt lat="46.39459" lon="7.10099" /><trkpt lat="46.39452" lon="7.10062" /><trkpt lat="46.3945" lon="7.10057" /><trkpt lat="46.39442" lon="7.10025" /><trkpt lat="46.39436" lon="7.10006" /><trkpt lat="46.39424" lon="7.09981" /><trkpt lat="46.39391" lon="7.09917" /><trkpt lat="46.39383" lon="7.09902" /><trkpt lat="46.39335" lon="7.09818" /><trkpt lat="46.3933" lon="7.09808" /><trkpt lat="46.39314" lon="7.09765" /><trkpt lat="46.39306" lon="7.09735" /><trkpt lat="46.39299" lon="7.09713" /><trkpt lat="46.39291" lon="7.09693" /><trkpt lat="46.39283" lon="7.09677" /><trkpt lat="46.39268" lon="7.09656" /><trkpt lat="46.39262" lon="7.09647" /><trkpt lat="46.3925" lon="7.09631" /><trkpt lat="46.39226" lon="7.096" /><trkpt lat="46.3921" lon="7.09581" /><trkpt lat="46.39201" lon="7.09572" /><trkpt lat="46.39189" lon="7.09564" /><trkpt lat="46.39179" lon="7.09558" /><trkpt lat="46.39174" lon="7.09555" /><trkpt lat="46.39169" lon="7.09552" /><trkpt lat="46.39162" lon="7.0955" /><trkpt lat="46.39155" lon="7.09549" /><trkpt lat="46.39147" lon="7.09548" /><trkpt lat="46.39141" lon="7.09548" /><trkpt lat="46.39116" lon="7.09549" /><trkpt lat="46.39114" lon="7.0955" /><trkpt lat="46.39089" lon="7.09551" /><trkpt lat="46.39077" lon="7.09551" /><trkpt lat="46.39065" lon="7.0955" /><trkpt lat="46.39059" lon="7.09547" /><trkpt lat="46.39054" lon="7.09545" /><trkpt lat="46.3905" lon="7.09543" /><trkpt lat="46.39045" lon="7.0954" /><trkpt lat="46.3904" lon="7.09535" /><trkpt lat="46.39035" lon="7.0953" /><trkpt lat="46.39032" lon="7.09526" /><trkpt lat="46.39029" lon="7.09521" /><trkpt lat="46.39022" lon="7.09509" /><trkpt lat="46.39011" lon="7.0949" /><trkpt lat="46.39002" lon="7.09477" /><trkpt lat="46.38999" lon="7.09473" /><trkpt lat="46.38996" lon="7.09469" /><trkpt lat="46.38974" lon="7.09444" /><trkpt lat="46.38781" lon="7.09237" /><trkpt lat="46.38773" lon="7.09229" /><trkpt lat="46.38726" lon="7.09176" /><trkpt lat="46.38662" lon="7.09103" /><trkpt lat="46.38648" lon="7.09086" /><trkpt lat="46.38634" lon="7.09064" /><trkpt lat="46.38627" lon="7.09052" /><trkpt lat="46.3862" lon="7.09038" /><trkpt lat="46.38605" lon="7.0901" /><trkpt lat="46.38595" lon="7.08991" /><trkpt lat="46.38581" lon="7.08971" /><trkpt lat="46.38554" lon="7.08942" /><trkpt lat="46.38527" lon="7.08915" /><trkpt lat="46.385" lon="7.08887" /><trkpt lat="46.3847" lon="7.0886" /><trkpt lat="46.38434" lon="7.08833" /><trkpt lat="46.38402" lon="7.08807" /><trkpt lat="46.38388" lon="7.08797" /><trkpt lat="46.38367" lon="7.08778" /><trkpt lat="46.38351" lon="7.08763" /><trkpt lat="46.38343" lon="7.08755" /><trkpt lat="46.38326" lon="7.08735" /><trkpt lat="46.38306" lon="7.08711" /><trkpt lat="46.38294" lon="7.08696" /><trkpt lat="46.38285" lon="7.08686" /><trkpt lat="46.38245" lon="7.08637" /><trkpt lat="46.38227" lon="7.08617" /><trkpt lat="46.38207" lon="7.08598" /><trkpt lat="46.38177" lon="7.08575" /><trkpt lat="46.38168" lon="7.08568" /><trkpt lat="46.38148" lon="7.08554" /><trkpt lat="46.3814" lon="7.08548" /><trkpt lat="46.38127" lon="7.08537" /><trkpt lat="46.38115" lon="7.08525" /><trkpt lat="46.38105" lon="7.08514" /><trkpt lat="46.38103" lon="7.08511" /><trkpt lat="46.3808" lon="7.08483" /><trkpt lat="46.38058" lon="7.08456" /><trkpt lat="46.3804" lon="7.08435" /><trkpt lat="46.38035" lon="7.08428" /><trkpt lat="46.38022" lon="7.0841" /><trkpt lat="46.38016" lon="7.08399" /><trkpt lat="46.38011" lon="7.08388" /><trkpt lat="46.38" lon="7.08365" /><trkpt lat="46.37995" lon="7.08354" /><trkpt lat="46.37988" lon="7.08343" /><trkpt lat="46.37983" lon="7.08337" /><trkpt lat="46.3798" lon="7.08333" /><trkpt lat="46.37971" lon="7.08323" /><trkpt lat="46.37965" lon="7.08319" /><trkpt lat="46.37952" lon="7.08306" /><trkpt lat="46.37944" lon="7.08299" /><trkpt lat="46.37936" lon="7.0829" /><trkpt lat="46.37929" lon="7.08282" /><trkpt lat="46.37922" lon="7.08272" /><trkpt lat="46.37904" lon="7.08243" /><trkpt lat="46.37896" lon="7.0823" /><trkpt lat="46.37885" lon="7.08212" /><trkpt lat="46.37876" lon="7.08198" /><trkpt lat="46.37865" lon="7.08184" /><trkpt lat="46.37852" lon="7.08169" /><trkpt lat="46.37844" lon="7.08161" /><trkpt lat="46.37836" lon="7.08151" /><trkpt lat="46.3783" lon="7.08145" /><trkpt lat="46.37827" lon="7.08141" /><trkpt lat="46.37811" lon="7.08126" /><trkpt lat="46.37806" lon="7.0812" /><trkpt lat="46.37799" lon="7.08113" /><trkpt lat="46.37791" lon="7.08106" /><trkpt lat="46.37786" lon="7.08102" /><trkpt lat="46.37782" lon="7.08099" /><trkpt lat="46.37777" lon="7.08097" /><trkpt lat="46.37771" lon="7.08095" /><trkpt lat="46.37755" lon="7.0809" /><trkpt lat="46.37742" lon="7.08085" /><trkpt lat="46.37735" lon="7.08081" /><trkpt lat="46.3773" lon="7.08077" /><trkpt lat="46.37724" lon="7.08073" /><trkpt lat="46.37718" lon="7.08068" /><trkpt lat="46.37711" lon="7.0806" /><trkpt lat="46.37705" lon="7.08051" /><trkpt lat="46.377" lon="7.08043" /><trkpt lat="46.37696" lon="7.08033" /><trkpt lat="46.37687" lon="7.08013" /><trkpt lat="46.37682" lon="7.07998" /><trkpt lat="46.3768" lon="7.07994" /><trkpt lat="46.37676" lon="7.07984" /><trkpt lat="46.37672" lon="7.07979" /><trkpt lat="46.37669" lon="7.07974" /><trkpt lat="46.37663" lon="7.07967" /><trkpt lat="46.37657" lon="7.0796" /><trkpt lat="46.3762" lon="7.07928" /><trkpt lat="46.37584" lon="7.07898" /><trkpt lat="46.37572" lon="7.07888" /><trkpt lat="46.37559" lon="7.07875" /><trkpt lat="46.3755" lon="7.07865" /><trkpt lat="46.37541" lon="7.0785" /><trkpt lat="46.37535" lon="7.07839" /><trkpt lat="46.3753" lon="7.07823" /><trkpt lat="46.37523" lon="7.07802" /><trkpt lat="46.37517" lon="7.07787" /><trkpt lat="46.37512" lon="7.07775" /><trkpt lat="46.37509" lon="7.07768" /><trkpt lat="46.37505" lon="7.07761" /><trkpt lat="46.37502" lon="7.07757" /><trkpt lat="46.37498" lon="7.07753" /><trkpt lat="46.37496" lon="7.07749" /><trkpt lat="46.37491" lon="7.07744" /><trkpt lat="46.37483" lon="7.07736" /><trkpt lat="46.37479" lon="7.07733" /><trkpt lat="46.37469" lon="7.07726" /><trkpt lat="46.37455" lon="7.0772" /><trkpt lat="46.37444" lon="7.07717" /><trkpt lat="46.37431" lon="7.07717" /><trkpt lat="46.37417" lon="7.07716" /><trkpt lat="46.37404" lon="7.07714" /><trkpt lat="46.37393" lon="7.07711" /><trkpt lat="46.37386" lon="7.07709" /><trkpt lat="46.37381" lon="7.07706" /><trkpt lat="46.37371" lon="7.07699" /><trkpt lat="46.37361" lon="7.07692" /><trkpt lat="46.37356" lon="7.07689" /><trkpt lat="46.37353" lon="7.07688" /><trkpt lat="46.37347" lon="7.07687" /><trkpt lat="46.37342" lon="7.07687" /><trkpt lat="46.37338" lon="7.07689" /><trkpt lat="46.37334" lon="7.07691" /><trkpt lat="46.3733" lon="7.07694" /><trkpt lat="46.37327" lon="7.07698" /><trkpt lat="46.37322" lon="7.07705" /><trkpt lat="46.37317" lon="7.07711" /><trkpt lat="46.37311" lon="7.07715" /><trkpt lat="46.37305" lon="7.07717" /><trkpt lat="46.37284" lon="7.07725" /><trkpt lat="46.37239" lon="7.0774" /><trkpt lat="46.3722" lon="7.07756" /><trkpt lat="46.37212" lon="7.07766" /><trkpt lat="46.37202" lon="7.07778" /><trkpt lat="46.37198" lon="7.07784" /><trkpt lat="46.37193" lon="7.07788" /><trkpt lat="46.37187" lon="7.07792" /><trkpt lat="46.37179" lon="7.07794" /><trkpt lat="46.37174" lon="7.07794" /><trkpt lat="46.37168" lon="7.07791" /><trkpt lat="46.37162" lon="7.07788" /><trkpt lat="46.37156" lon="7.07783" /><trkpt lat="46.37147" lon="7.07769" /><trkpt lat="46.37141" lon="7.07761" /><trkpt lat="46.37137" lon="7.07757" /><trkpt lat="46.37132" lon="7.07753" /><trkpt lat="46.37124" lon="7.0775" /><trkpt lat="46.3711" lon="7.07747" /><trkpt lat="46.37101" lon="7.07747" /><trkpt lat="46.37091" lon="7.07751" /><trkpt lat="46.37078" lon="7.07763" /><trkpt lat="46.37069" lon="7.07769" /><trkpt lat="46.37061" lon="7.07774" /><trkpt lat="46.37044" lon="7.07776" /><trkpt lat="46.37019" lon="7.07772" /><trkpt lat="46.36996" lon="7.07764" /><trkpt lat="46.36969" lon="7.07754" /><trkpt lat="46.36944" lon="7.07739" /><trkpt lat="46.36895" lon="7.07705" /><trkpt lat="46.36849" lon="7.07668" /><trkpt lat="46.36825" lon="7.0765" /><trkpt lat="46.36804" lon="7.07629" /><trkpt lat="46.36793" lon="7.07616" /><trkpt lat="46.36782" lon="7.07603" /><trkpt lat="46.3676" lon="7.07577" /><trkpt lat="46.3674" lon="7.0755" /><trkpt lat="46.36721" lon="7.07519" /><trkpt lat="46.36703" lon="7.07477" /><trkpt lat="46.36685" lon="7.07437" /><trkpt lat="46.3667" lon="7.07405" /><trkpt lat="46.36651" lon="7.07376" /><trkpt lat="46.36631" lon="7.0735" /><trkpt lat="46.36608" lon="7.07324" /><trkpt lat="46.36566" lon="7.0727" /><trkpt lat="46.36512" lon="7.07177" /><trkpt lat="46.36458" lon="7.07087" /><trkpt lat="46.36406" lon="7.06996" /><trkpt lat="46.36366" lon="7.06934" /><trkpt lat="46.36326" lon="7.06877" /><trkpt lat="46.36286" lon="7.06826" /><trkpt lat="46.36245" lon="7.06772" /><trkpt lat="46.36241" lon="7.06765" /><trkpt lat="46.36237" lon="7.06755" /><trkpt lat="46.36232" lon="7.06743" /><trkpt lat="46.36229" lon="7.0673" /><trkpt lat="46.36222" lon="7.06708" /><trkpt lat="46.36215" lon="7.0669" /><trkpt lat="46.36211" lon="7.06681" /><trkpt lat="46.36206" lon="7.06673" /><trkpt lat="46.36195" lon="7.06658" /><trkpt lat="46.36182" lon="7.06642" /><trkpt lat="46.36172" lon="7.06626" /><trkpt lat="46.36168" lon="7.06615" /><trkpt lat="46.36165" lon="7.06603" /><trkpt lat="46.36162" lon="7.06591" /><trkpt lat="46.3616" lon="7.06576" /><trkpt lat="46.36156" lon="7.06557" /><trkpt lat="46.36153" lon="7.06539" /><trkpt lat="46.36148" lon="7.06521" /><trkpt lat="46.36144" lon="7.06504" /><trkpt lat="46.36138" lon="7.06486" /><trkpt lat="46.36129" lon="7.06466" /><trkpt lat="46.36115" lon="7.06437" /><trkpt lat="46.36106" lon="7.06421" /><trkpt lat="46.36099" lon="7.06405" /><trkpt lat="46.36095" lon="7.06396" /><trkpt lat="46.36092" lon="7.06386" /><trkpt lat="46.3609" lon="7.06375" /><trkpt lat="46.36089" lon="7.06365" /><trkpt lat="46.36088" lon="7.06354" /><trkpt lat="46.36088" lon="7.06342" /><trkpt lat="46.36088" lon="7.06331" /><trkpt lat="46.3609" lon="7.0632" /><trkpt lat="46.36092" lon="7.06309" /><trkpt lat="46.36095" lon="7.06298" /><trkpt lat="46.36099" lon="7.06288" /><trkpt lat="46.36103" lon="7.06279" /><trkpt lat="46.36111" lon="7.06266" /><trkpt lat="46.3612" lon="7.06255" /><trkpt lat="46.36139" lon="7.06231" /><trkpt lat="46.36151" lon="7.06217" /><trkpt lat="46.36159" lon="7.06207" /><trkpt lat="46.36168" lon="7.06197" /><trkpt lat="46.36178" lon="7.06187" /><trkpt lat="46.36191" lon="7.06175" /><trkpt lat="46.36195" lon="7.06172" /><trkpt lat="46.36199" lon="7.06169" /><trkpt lat="46.36205" lon="7.06165" /><trkpt lat="46.36221" lon="7.06154" /><trkpt lat="46.36235" lon="7.06145" /><trkpt lat="46.3625" lon="7.06136" /><trkpt lat="46.36264" lon="7.06127" /><trkpt lat="46.36278" lon="7.06117" /><trkpt lat="46.36292" lon="7.06104" /><trkpt lat="46.36312" lon="7.06083" /><trkpt lat="46.36334" lon="7.0606" /><trkpt lat="46.36355" lon="7.06044" /><trkpt lat="46.36367" lon="7.06036" /><trkpt lat="46.36372" lon="7.06032" /><trkpt lat="46.36375" lon="7.06029" /><trkpt lat="46.36377" lon="7.06026" /><trkpt lat="46.36378" lon="7.06023" /><trkpt lat="46.36379" lon="7.0602" /><trkpt lat="46.36379" lon="7.06016" /><trkpt lat="46.36379" lon="7.06014" /><trkpt lat="46.36378" lon="7.06011" /><trkpt lat="46.36377" lon="7.06009" /><trkpt lat="46.36376" lon="7.06007" /><trkpt lat="46.36375" lon="7.06005" /><trkpt lat="46.36372" lon="7.06003" /><trkpt lat="46.3637" lon="7.06003" /><trkpt lat="46.36367" lon="7.06003" /><trkpt lat="46.36365" lon="7.06004" /><trkpt lat="46.36359" lon="7.06006" /><trkpt lat="46.36354" lon="7.06011" /><trkpt lat="46.3632" lon="7.06038" /><trkpt lat="46.36285" lon="7.06065" /><trkpt lat="46.3627" lon="7.06072" /><trkpt lat="46.36255" lon="7.06077" /><trkpt lat="46.36238" lon="7.06081" /><trkpt lat="46.3623" lon="7.06083" /><trkpt lat="46.36224" lon="7.06085" /><trkpt lat="46.36209" lon="7.06092" /><trkpt lat="46.36207" lon="7.06092" /><trkpt lat="46.36206" lon="7.06093" /><trkpt lat="46.36193" lon="7.06099" /><trkpt lat="46.36166" lon="7.06115" /><trkpt lat="46.36147" lon="7.06125" /><trkpt lat="46.36127" lon="7.06137" /><trkpt lat="46.36109" lon="7.06149" /><trkpt lat="46.36092" lon="7.06165" /><trkpt lat="46.36066" lon="7.06196" /><trkpt lat="46.3606" lon="7.06203" /><trkpt lat="46.36039" lon="7.06229" /><trkpt lat="46.36013" lon="7.06264" /><trkpt lat="46.36002" lon="7.06284" /><trkpt lat="46.35992" lon="7.06306" /><trkpt lat="46.35986" lon="7.06325" /><trkpt lat="46.3598" lon="7.06346" /><trkpt lat="46.35975" lon="7.06367" /><trkpt lat="46.35972" lon="7.0639" /><trkpt lat="46.35969" lon="7.06421" /><trkpt lat="46.35968" lon="7.06437" /><trkpt lat="46.35969" lon="7.06453" /><trkpt lat="46.35971" lon="7.06469" /><trkpt lat="46.35974" lon="7.06478" /><trkpt lat="46.35978" lon="7.06485" /><trkpt lat="46.35988" lon="7.06504" /><trkpt lat="46.36" lon="7.0652" /><trkpt lat="46.36015" lon="7.06532" /><trkpt lat="46.36022" lon="7.06538" /><trkpt lat="46.36025" lon="7.06542" /><trkpt lat="46.36028" lon="7.06546" /><trkpt lat="46.36029" lon="7.06549" /><trkpt lat="46.3603" lon="7.06553" /><trkpt lat="46.36029" lon="7.06558" /><trkpt lat="46.36028" lon="7.06563" /><trkpt lat="46.36026" lon="7.06565" /><trkpt lat="46.36024" lon="7.06566" /><trkpt lat="46.36021" lon="7.06567" /><trkpt lat="46.36019" lon="7.06567" /><trkpt lat="46.36015" lon="7.06566" /><trkpt lat="46.36012" lon="7.06563" /><trkpt lat="46.36005" lon="7.06555" /><trkpt lat="46.35991" lon="7.06531" /><trkpt lat="46.35977" lon="7.0651" /><trkpt lat="46.3597" lon="7.06499" /><trkpt lat="46.35963" lon="7.06487" /><trkpt lat="46.35959" lon="7.06477" /><trkpt lat="46.35955" lon="7.06466" /><trkpt lat="46.35952" lon="7.06452" /><trkpt lat="46.3595" lon="7.0643" /><trkpt lat="46.35949" lon="7.06372" /><trkpt lat="46.35948" lon="7.06346" /><trkpt lat="46.35949" lon="7.06318" /><trkpt lat="46.35951" lon="7.06291" /><trkpt lat="46.35955" lon="7.06272" /><trkpt lat="46.35959" lon="7.06251" /><trkpt lat="46.35965" lon="7.06232" /><trkpt lat="46.35983" lon="7.06189" /><trkpt lat="46.36002" lon="7.06145" /><trkpt lat="46.36012" lon="7.06122" /><trkpt lat="46.36023" lon="7.06097" /><trkpt lat="46.3604" lon="7.06059" /><trkpt lat="46.36047" lon="7.06039" /><trkpt lat="46.36049" lon="7.06031" /><trkpt lat="46.36052" lon="7.06016" /><trkpt lat="46.36054" lon="7.05997" /><trkpt lat="46.36054" lon="7.05992" /><trkpt lat="46.36055" lon="7.05985" /><trkpt lat="46.36056" lon="7.05929" /><trkpt lat="46.36057" lon="7.05904" /><trkpt lat="46.36057" lon="7.05896" /><trkpt lat="46.36058" lon="7.05873" /><trkpt lat="46.36058" lon="7.05861" /><trkpt lat="46.36059" lon="7.05847" /><trkpt lat="46.36061" lon="7.05832" /><trkpt lat="46.36062" lon="7.05824" /><trkpt lat="46.36064" lon="7.05818" /><trkpt lat="46.36066" lon="7.05812" /><trkpt lat="46.3607" lon="7.05806" /><trkpt lat="46.36082" lon="7.0579" /><trkpt lat="46.36094" lon="7.05776" /><trkpt lat="46.36099" lon="7.05771" /><trkpt lat="46.36103" lon="7.05764" /><trkpt lat="46.36106" lon="7.05761" /><trkpt lat="46.36108" lon="7.05756" /><trkpt lat="46.36111" lon="7.05747" /><trkpt lat="46.36112" lon="7.05739" /><trkpt lat="46.36113" lon="7.05729" /><trkpt lat="46.36113" lon="7.05719" /><trkpt lat="46.36112" lon="7.05714" /><trkpt lat="46.36112" lon="7.0571" /><trkpt lat="46.36111" lon="7.05709" /><trkpt lat="46.3611" lon="7.05702" /><trkpt lat="46.36107" lon="7.05694" /><trkpt lat="46.36104" lon="7.05688" /><trkpt lat="46.36101" lon="7.05684" /><trkpt lat="46.36097" lon="7.05679" /><trkpt lat="46.36093" lon="7.05675" /><trkpt lat="46.36087" lon="7.05671" /><trkpt lat="46.36081" lon="7.05668" /><trkpt lat="46.36074" lon="7.05665" /><trkpt lat="46.36068" lon="7.05664" /><trkpt lat="46.36021" lon="7.05659" /><trkpt lat="46.36021" lon="7.05659" /><trkpt lat="46.36022" lon="7.05655" /><trkpt lat="46.36023" lon="7.05647" /><trkpt lat="46.36024" lon="7.05641" /><trkpt lat="46.36025" lon="7.05638" /><trkpt lat="46.36026" lon="7.05636" /><trkpt lat="46.36027" lon="7.05633" /><trkpt lat="46.36029" lon="7.05631" /><trkpt lat="46.36032" lon="7.05627" /><trkpt lat="46.36044" lon="7.05612" /><trkpt lat="46.36055" lon="7.05598" /><trkpt lat="46.36065" lon="7.05584" /><trkpt lat="46.36081" lon="7.05562" /><trkpt lat="46.36091" lon="7.05541" /><trkpt lat="46.36098" lon="7.05513" /><trkpt lat="46.36101" lon="7.05479" /><trkpt lat="46.36104" lon="7.05449" /><trkpt lat="46.36105" lon="7.05443" /><trkpt lat="46.36107" lon="7.05437" /><trkpt lat="46.36108" lon="7.05433" /><trkpt lat="46.3611" lon="7.05428" /><trkpt lat="46.36115" lon="7.05421" /><trkpt lat="46.3612" lon="7.05414" /><trkpt lat="46.36154" lon="7.05373" /><trkpt lat="46.36158" lon="7.05367" /><trkpt lat="46.36161" lon="7.05359" /><trkpt lat="46.36163" lon="7.05354" /><trkpt lat="46.36164" lon="7.05348" /><trkpt lat="46.36165" lon="7.05342" /><trkpt lat="46.36166" lon="7.05333" /><trkpt lat="46.36168" lon="7.05294" /><trkpt lat="46.36169" lon="7.05277" /><trkpt lat="46.36169" lon="7.05251" /><trkpt lat="46.3617" lon="7.05223" /><trkpt lat="46.36171" lon="7.05205" /><trkpt lat="46.36168" lon="7.05194" /><trkpt lat="46.36166" lon="7.05189" /><trkpt lat="46.36163" lon="7.05187" /><trkpt lat="46.36163" lon="7.05187" /><trkpt lat="46.36159" lon="7.05191" /><trkpt lat="46.36152" lon="7.05203" /><trkpt lat="46.36149" lon="7.05213" /><trkpt lat="46.36146" lon="7.05228" /><trkpt lat="46.36144" lon="7.05248" /><trkpt lat="46.36143" lon="7.05257" /><trkpt lat="46.36143" lon="7.05257" /><trkpt lat="46.3614" lon="7.05259" /><trkpt lat="46.36139" lon="7.05261" /><trkpt lat="46.36135" lon="7.05276" /><trkpt lat="46.36135" lon="7.05276" /></trkseg></trk></gpx>