<gpx version="1.1" creator="Trainlog.me"><trk><name>Trip Path</name><trkseg><trkpt lat="46.11541" lon="8.29663" /><trkpt lat="46.11713" lon="8.29678" /><trkpt lat="46.11737" lon="8.29683" /><trkpt lat="46.11778" lon="8.29696" /><trkpt lat="46.11783" lon="8.29697" /><trkpt lat="46.11788" lon="8.29698" /><trkpt lat="46.11799" lon="8.297" /><trkpt lat="46.11828" lon="8.29705" /><trkpt lat="46.11876" lon="8.29713" /><trkpt lat="46.11903" lon="8.29716" /><trkpt lat="46.11919" lon="8.29718" /><trkpt lat="46.1198" lon="8.29714" /><trkpt lat="46.12009" lon="8.29709" /><trkpt lat="46.12037" lon="8.29702" /><trkpt lat="46.12114" lon="8.29671" /><trkpt lat="46.12179" lon="8.29635" /><trkpt lat="46.12193" lon="8.29628" /><trkpt lat="46.12238" lon="8.29604" /><trkpt lat="46.123" lon="8.2956" /><trkpt lat="46.12348" lon="8.29518" /><trkpt lat="46.12434" lon="8.29426" /><trkpt lat="46.12491" lon="8.29358" /><trkpt lat="46.12561" lon="8.29278" /><trkpt lat="46.1259" lon="8.29246" /><trkpt lat="46.12615" lon="8.29225" /><trkpt lat="46.12966" lon="8.28826" /><trkpt lat="46.13039" lon="8.28743" /><trkpt lat="46.13119" lon="8.28653" /><trkpt lat="46.13177" lon="8.28591" /><trkpt lat="46.1321" lon="8.28555" /><trkpt lat="46.13247" lon="8.28525" /><trkpt lat="46.13283" lon="8.28505" /><trkpt lat="46.13315" lon="8.28488" /><trkpt lat="46.13349" lon="8.28475" /><trkpt lat="46.13385" lon="8.28465" /><trkpt lat="46.13425" lon="8.2846" /><trkpt lat="46.13461" lon="8.28458" /><trkpt lat="46.13491" lon="8.28461" /><trkpt lat="46.13538" lon="8.28469" /><trkpt lat="46.13574" lon="8.28481" /><trkpt lat="46.13615" lon="8.28502" /><trkpt lat="46.13639" lon="8.28518" /><trkpt lat="46.13664" lon="8.28535" /><trkpt lat="46.13688" lon="8.28556" /><trkpt lat="46.13707" lon="8.28574" /><trkpt lat="46.13731" lon="8.286" /><trkpt lat="46.13916" lon="8.28818" /><trkpt lat="46.13948" lon="8.2885" /><trkpt lat="46.13976" lon="8.28872" /><trkpt lat="46.14001" lon="8.28891" /><trkpt lat="46.14023" lon="8.28904" /><trkpt lat="46.1405" lon="8.28918" /><trkpt lat="46.14087" lon="8.28932" /><trkpt lat="46.14191" lon="8.28973" /><trkpt lat="46.14241" lon="8.28994" /><trkpt lat="46.14276" lon="8.29011" /><trkpt lat="46.14317" lon="8.29038" /><trkpt lat="46.14348" lon="8.29061" /><trkpt lat="46.14362" lon="8.29073" /><trkpt lat="46.14375" lon="8.29083" /><trkpt lat="46.14387" lon="8.29095" /><trkpt lat="46.14394" lon="8.29102" /><trkpt lat="46.14412" lon="8.2912" /><trkpt lat="46.14463" lon="8.29175" /><trkpt lat="46.14555" lon="8.29269" /><trkpt lat="46.14583" lon="8.29298" /><trkpt lat="46.14605" lon="8.2932" /><trkpt lat="46.14623" lon="8.29339" /><trkpt lat="46.14674" lon="8.29392" /><trkpt lat="46.14689" lon="8.29408" /><trkpt lat="46.14702" lon="8.29421" /><trkpt lat="46.14716" lon="8.29434" /><trkpt lat="46.14732" lon="8.29449" /><trkpt lat="46.14744" lon="8.29458" /><trkpt lat="46.14758" lon="8.29469" /><trkpt lat="46.14775" lon="8.2948" /><trkpt lat="46.14792" lon="8.29491" /><trkpt lat="46.14811" lon="8.29501" /><trkpt lat="46.14827" lon="8.2951" /><trkpt lat="46.14845" lon="8.29517" /><trkpt lat="46.14849" lon="8.29518" /><trkpt lat="46.14864" lon="8.29524" /><trkpt lat="46.14882" lon="8.2953" /><trkpt lat="46.14893" lon="8.29532" /><trkpt lat="46.14905" lon="8.29535" /><trkpt lat="46.14918" lon="8.29537" /><trkpt lat="46.14931" lon="8.29538" /><trkpt lat="46.14947" lon="8.29539" /><trkpt lat="46.14967" lon="8.29539" /><trkpt lat="46.14983" lon="8.29538" /><trkpt lat="46.15003" lon="8.29535" /><trkpt lat="46.15026" lon="8.29531" /><trkpt lat="46.15045" lon="8.29525" /><trkpt lat="46.15063" lon="8.29517" /><trkpt lat="46.15082" lon="8.29508" /><trkpt lat="46.151" lon="8.29498" /><trkpt lat="46.15117" lon="8.29487" /><trkpt lat="46.15135" lon="8.29474" /><trkpt lat="46.15151" lon="8.2946" /><trkpt lat="46.15168" lon="8.29445" /><trkpt lat="46.15183" lon="8.29429" /><trkpt lat="46.15198" lon="8.29411" /><trkpt lat="46.15213" lon="8.29393" /><trkpt lat="46.15227" lon="8.29373" /><trkpt lat="46.1524" lon="8.29353" /><trkpt lat="46.15252" lon="8.29331" /><trkpt lat="46.15429" lon="8.29009" /><trkpt lat="46.15755" lon="8.28483" /><trkpt lat="46.15846" lon="8.28385" /><trkpt lat="46.15939" lon="8.28303" /><trkpt lat="46.16037" lon="8.28237" /><trkpt lat="46.16141" lon="8.28187" /><trkpt lat="46.16285" lon="8.28148" /><trkpt lat="46.16381" lon="8.2814" /><trkpt lat="46.16454" lon="8.28143" /><trkpt lat="46.16516" lon="8.2815" /><trkpt lat="46.16568" lon="8.28164" /><trkpt lat="46.16657" lon="8.28194" /><trkpt lat="46.16828" lon="8.28259" /><trkpt lat="46.16871" lon="8.28276" /><trkpt lat="46.16941" lon="8.28302" /><trkpt lat="46.16967" lon="8.28308" /><trkpt lat="46.16991" lon="8.28309" /><trkpt lat="46.17019" lon="8.28312" /><trkpt lat="46.17066" lon="8.28313" /><trkpt lat="46.17368" lon="8.28279" /><trkpt lat="46.17606" lon="8.2822" /><trkpt lat="46.17661" lon="8.28203" /><trkpt lat="46.17705" lon="8.28184" /><trkpt lat="46.17747" lon="8.28164" /><trkpt lat="46.17808" lon="8.28141" /><trkpt lat="46.18157" lon="8.28045" /><trkpt lat="46.18211" lon="8.28036" /><trkpt lat="46.18248" lon="8.28031" /><trkpt lat="46.18352" lon="8.28032" /><trkpt lat="46.18396" lon="8.28029" /><trkpt lat="46.18422" lon="8.28023" /><trkpt lat="46.18565" lon="8.27977" /><trkpt lat="46.18702" lon="8.27929" /><trkpt lat="46.18755" lon="8.27901" /><trkpt lat="46.18813" lon="8.27861" /><trkpt lat="46.18878" lon="8.27812" /><trkpt lat="46.18912" lon="8.27773" /><trkpt lat="46.18947" lon="8.27728" /><trkpt lat="46.1898" lon="8.27678" /><trkpt lat="46.19042" lon="8.27584" /><trkpt lat="46.19081" lon="8.27523" /><trkpt lat="46.19106" lon="8.2749" /><trkpt lat="46.19142" lon="8.27451" /><trkpt lat="46.19181" lon="8.27416" /><trkpt lat="46.19205" lon="8.27397" /><trkpt lat="46.19258" lon="8.27369" /><trkpt lat="46.19287" lon="8.27359" /><trkpt lat="46.19329" lon="8.27349" /><trkpt lat="46.19455" lon="8.27327" /><trkpt lat="46.1949" lon="8.27318" /><trkpt lat="46.19521" lon="8.2731" /><trkpt lat="46.19551" lon="8.27298" /><trkpt lat="46.19587" lon="8.2728" /><trkpt lat="46.19615" lon="8.27263" /><trkpt lat="46.19642" lon="8.27241" /><trkpt lat="46.19672" lon="8.27214" /><trkpt lat="46.19701" lon="8.27184" /><trkpt lat="46.19847" lon="8.26994" /><trkpt lat="46.19876" lon="8.26954" /><trkpt lat="46.19895" lon="8.26926" /><trkpt lat="46.19919" lon="8.26887" /><trkpt lat="46.19936" lon="8.26857" /><trkpt lat="46.19956" lon="8.26816" /><trkpt lat="46.1997" lon="8.26781" /><trkpt lat="46.19985" lon="8.26745" /><trkpt lat="46.2001" lon="8.26673" /><trkpt lat="46.20158" lon="8.26227" /><trkpt lat="46.20186" lon="8.26145" /><trkpt lat="46.20204" lon="8.26083" /><trkpt lat="46.20213" lon="8.26035" /><trkpt lat="46.20222" lon="8.25975" /><trkpt lat="46.20225" lon="8.25918" /><trkpt lat="46.20235" lon="8.25698" /><trkpt lat="46.20239" lon="8.2563" /><trkpt lat="46.20246" lon="8.25584" /><trkpt lat="46.20256" lon="8.25531" /><trkpt lat="46.20267" lon="8.25486" /><trkpt lat="46.2028" lon="8.25449" /><trkpt lat="46.20304" lon="8.25388" /><trkpt lat="46.20329" lon="8.2534" /><trkpt lat="46.20358" lon="8.25287" /><trkpt lat="46.20423" lon="8.25167" /><trkpt lat="46.20442" lon="8.25131" /><trkpt lat="46.20451" lon="8.25113" /><trkpt lat="46.20458" lon="8.25098" /><trkpt lat="46.20465" lon="8.25081" /><trkpt lat="46.20471" lon="8.25065" /><trkpt lat="46.20478" lon="8.25046" /><trkpt lat="46.20484" lon="8.25029" /><trkpt lat="46.20489" lon="8.25012" /><trkpt lat="46.20494" lon="8.24995" /><trkpt lat="46.20522" lon="8.24899" /><trkpt lat="46.20558" lon="8.24771" /><trkpt lat="46.2059" lon="8.24656" /><trkpt lat="46.20633" lon="8.24505" /><trkpt lat="46.20636" lon="8.24492" /><trkpt lat="46.20673" lon="8.24363" /><trkpt lat="46.20679" lon="8.24335" /><trkpt lat="46.20683" lon="8.24314" /><trkpt lat="46.20687" lon="8.24291" /><trkpt lat="46.2069" lon="8.2427" /><trkpt lat="46.20693" lon="8.24249" /><trkpt lat="46.20694" lon="8.24226" /><trkpt lat="46.20696" lon="8.24203" /><trkpt lat="46.20698" lon="8.24157" /><trkpt lat="46.20698" lon="8.24141" /><trkpt lat="46.20699" lon="8.24109" /><trkpt lat="46.20701" lon="8.24045" /><trkpt lat="46.20701" lon="8.24022" /><trkpt lat="46.20701" lon="8.24" /><trkpt lat="46.20701" lon="8.23982" /><trkpt lat="46.207" lon="8.23964" /><trkpt lat="46.20699" lon="8.23945" /><trkpt lat="46.20698" lon="8.23925" /><trkpt lat="46.20696" lon="8.23904" /><trkpt lat="46.20689" lon="8.23849" /><trkpt lat="46.20687" lon="8.23838" /><trkpt lat="46.20684" lon="8.23822" /><trkpt lat="46.2068" lon="8.23797" /><trkpt lat="46.20669" lon="8.23736" /><trkpt lat="46.20652" lon="8.23638" /><trkpt lat="46.20641" lon="8.23557" /><trkpt lat="46.20636" lon="8.23497" /><trkpt lat="46.20634" lon="8.23433" /><trkpt lat="46.20637" lon="8.23376" /><trkpt lat="46.20645" lon="8.23318" /><trkpt lat="46.20657" lon="8.23261" /><trkpt lat="46.20669" lon="8.23218" /><trkpt lat="46.20679" lon="8.23181" /><trkpt lat="46.20689" lon="8.23149" /><trkpt lat="46.20703" lon="8.23107" /><trkpt lat="46.20987" lon="8.22517" /><trkpt lat="46.20994" lon="8.22503" /><trkpt lat="46.21002" lon="8.22488" /><trkpt lat="46.21009" lon="8.22474" /><trkpt lat="46.21018" lon="8.2246" /><trkpt lat="46.21025" lon="8.22448" /><trkpt lat="46.21035" lon="8.22433" /><trkpt lat="46.21043" lon="8.22422" /><trkpt lat="46.21051" lon="8.2241" /><trkpt lat="46.2106" lon="8.22399" /><trkpt lat="46.2107" lon="8.22387" /><trkpt lat="46.21079" lon="8.22375" /><trkpt lat="46.2109" lon="8.22364" /><trkpt lat="46.21099" lon="8.22354" /><trkpt lat="46.21109" lon="8.22344" /><trkpt lat="46.2112" lon="8.22334" /><trkpt lat="46.21131" lon="8.22325" /><trkpt lat="46.21142" lon="8.22316" /><trkpt lat="46.21153" lon="8.22308" /><trkpt lat="46.21164" lon="8.22299" /><trkpt lat="46.21175" lon="8.22292" /><trkpt lat="46.21189" lon="8.22284" /><trkpt lat="46.212" lon="8.22277" /><trkpt lat="46.21211" lon="8.22272" /><trkpt lat="46.21223" lon="8.22266" /><trkpt lat="46.21236" lon="8.22261" /><trkpt lat="46.21248" lon="8.22256" /><trkpt lat="46.2126" lon="8.22252" /><trkpt lat="46.21273" lon="8.22248" /><trkpt lat="46.21287" lon="8.22244" /><trkpt lat="46.213" lon="8.22242" /><trkpt lat="46.21314" lon="8.22239" /><trkpt lat="46.21327" lon="8.22238" /><trkpt lat="46.2134" lon="8.22237" /><trkpt lat="46.21353" lon="8.22236" /><trkpt lat="46.21367" lon="8.22237" /><trkpt lat="46.21379" lon="8.22237" /><trkpt lat="46.21393" lon="8.22238" /><trkpt lat="46.21406" lon="8.2224" /><trkpt lat="46.21419" lon="8.22243" /><trkpt lat="46.21431" lon="8.22245" /><trkpt lat="46.21443" lon="8.22248" /><trkpt lat="46.21455" lon="8.22252" /><trkpt lat="46.21469" lon="8.22257" /><trkpt lat="46.2148" lon="8.22261" /><trkpt lat="46.21494" lon="8.22267" /><trkpt lat="46.21507" lon="8.22274" /><trkpt lat="46.2152" lon="8.2228" /><trkpt lat="46.21531" lon="8.22287" /><trkpt lat="46.21543" lon="8.22294" /><trkpt lat="46.21556" lon="8.22303" /><trkpt lat="46.21569" lon="8.22313" /><trkpt lat="46.21577" lon="8.22319" /><trkpt lat="46.2159" lon="8.2233" /><trkpt lat="46.21601" lon="8.2234" /><trkpt lat="46.21612" lon="8.22351" /><trkpt lat="46.21623" lon="8.22362" /><trkpt lat="46.21633" lon="8.22372" /><trkpt lat="46.21642" lon="8.22383" /><trkpt lat="46.21652" lon="8.22395" /><trkpt lat="46.21661" lon="8.22406" /><trkpt lat="46.21669" lon="8.22417" /><trkpt lat="46.21676" lon="8.22427" /><trkpt lat="46.21685" lon="8.2244" /><trkpt lat="46.21693" lon="8.22454" /><trkpt lat="46.21701" lon="8.22466" /><trkpt lat="46.21708" lon="8.22479" /><trkpt lat="46.21714" lon="8.2249" /><trkpt lat="46.21721" lon="8.22503" /><trkpt lat="46.21726" lon="8.22514" /><trkpt lat="46.21732" lon="8.22526" /><trkpt lat="46.21739" lon="8.22541" /><trkpt lat="46.21744" lon="8.22553" /><trkpt lat="46.21749" lon="8.22567" /><trkpt lat="46.21755" lon="8.22581" /><trkpt lat="46.2176" lon="8.22596" /><trkpt lat="46.21765" lon="8.2261" /><trkpt lat="46.2177" lon="8.22625" /><trkpt lat="46.21774" lon="8.22639" /><trkpt lat="46.21777" lon="8.22652" /><trkpt lat="46.21781" lon="8.22666" /><trkpt lat="46.21785" lon="8.22682" /><trkpt lat="46.21788" lon="8.22696" /><trkpt lat="46.2179" lon="8.22709" /><trkpt lat="46.21793" lon="8.22724" /><trkpt lat="46.21796" lon="8.22739" /><trkpt lat="46.21798" lon="8.22756" /><trkpt lat="46.218" lon="8.22771" /><trkpt lat="46.21802" lon="8.22787" /><trkpt lat="46.21804" lon="8.22805" /><trkpt lat="46.21805" lon="8.2282" /><trkpt lat="46.21806" lon="8.22838" /><trkpt lat="46.21807" lon="8.22859" /><trkpt lat="46.21808" lon="8.22878" /><trkpt lat="46.21808" lon="8.22897" /><trkpt lat="46.21807" lon="8.2292" /><trkpt lat="46.21806" lon="8.22942" /><trkpt lat="46.21804" lon="8.22963" /><trkpt lat="46.21803" lon="8.22982" /><trkpt lat="46.218" lon="8.23002" /><trkpt lat="46.21798" lon="8.2302" /><trkpt lat="46.21795" lon="8.2304" /><trkpt lat="46.21792" lon="8.23058" /><trkpt lat="46.21788" lon="8.23079" /><trkpt lat="46.21783" lon="8.23098" /><trkpt lat="46.21778" lon="8.23118" /><trkpt lat="46.21773" lon="8.23137" /><trkpt lat="46.21767" lon="8.23156" /><trkpt lat="46.21761" lon="8.23174" /><trkpt lat="46.21755" lon="8.23191" /><trkpt lat="46.21749" lon="8.23208" /><trkpt lat="46.21742" lon="8.23226" /><trkpt lat="46.21735" lon="8.23241" /><trkpt lat="46.21728" lon="8.23257" /><trkpt lat="46.21721" lon="8.2327" /><trkpt lat="46.21714" lon="8.23285" /><trkpt lat="46.21706" lon="8.23298" /><trkpt lat="46.21698" lon="8.23312" /><trkpt lat="46.21689" lon="8.23327" /><trkpt lat="46.21681" lon="8.2334" /><trkpt lat="46.21671" lon="8.23354" /><trkpt lat="46.21662" lon="8.23366" /><trkpt lat="46.21654" lon="8.23376" /><trkpt lat="46.21645" lon="8.23388" /><trkpt lat="46.21635" lon="8.234" /><trkpt lat="46.21624" lon="8.23411" /><trkpt lat="46.21614" lon="8.23422" /><trkpt lat="46.21603" lon="8.23432" /><trkpt lat="46.21592" lon="8.23442" /><trkpt lat="46.21582" lon="8.23451" /><trkpt lat="46.21569" lon="8.23461" /><trkpt lat="46.21557" lon="8.2347" /><trkpt lat="46.21546" lon="8.23478" /><trkpt lat="46.21535" lon="8.23485" /><trkpt lat="46.21524" lon="8.23491" /><trkpt lat="46.21509" lon="8.23499" /><trkpt lat="46.21498" lon="8.23505" /><trkpt lat="46.21487" lon="8.2351" /><trkpt lat="46.21475" lon="8.23515" /><trkpt lat="46.21459" lon="8.23521" /><trkpt lat="46.21446" lon="8.23525" /><trkpt lat="46.21432" lon="8.23529" /><trkpt lat="46.21418" lon="8.23532" /><trkpt lat="46.21406" lon="8.23534" /><trkpt lat="46.21393" lon="8.23535" /><trkpt lat="46.2138" lon="8.23537" /><trkpt lat="46.21367" lon="8.23537" /><trkpt lat="46.21353" lon="8.23537" /><trkpt lat="46.21341" lon="8.23537" /><trkpt lat="46.21325" lon="8.23536" /><trkpt lat="46.21311" lon="8.23534" /><trkpt lat="46.21296" lon="8.23531" /><trkpt lat="46.2128" lon="8.23528" /><trkpt lat="46.21266" lon="8.23524" /><trkpt lat="46.21252" lon="8.23519" /><trkpt lat="46.21237" lon="8.23514" /><trkpt lat="46.21224" lon="8.23508" /><trkpt lat="46.21212" lon="8.23503" /><trkpt lat="46.21198" lon="8.23495" /><trkpt lat="46.21185" lon="8.23488" /><trkpt lat="46.21171" lon="8.23479" /><trkpt lat="46.21159" lon="8.23471" /><trkpt lat="46.21145" lon="8.2346" /><trkpt lat="46.21132" lon="8.2345" /><trkpt lat="46.21118" lon="8.23438" /><trkpt lat="46.21105" lon="8.23426" /><trkpt lat="46.21093" lon="8.23413" /><trkpt lat="46.2108" lon="8.23399" /><trkpt lat="46.21078" lon="8.23396" /><trkpt lat="46.21065" lon="8.23381" /><trkpt lat="46.21051" lon="8.23364" /><trkpt lat="46.21037" lon="8.23344" /><trkpt lat="46.21024" lon="8.23324" /><trkpt lat="46.21012" lon="8.23304" /><trkpt lat="46.21011" lon="8.23302" /><trkpt lat="46.21006" lon="8.23294" /><trkpt lat="46.20998" lon="8.23279" /><trkpt lat="46.2099" lon="8.23263" /><trkpt lat="46.20983" lon="8.23247" /><trkpt lat="46.20976" lon="8.23233" /><trkpt lat="46.20969" lon="8.23217" /><trkpt lat="46.20963" lon="8.232" /><trkpt lat="46.20957" lon="8.23184" /><trkpt lat="46.20951" lon="8.23168" /><trkpt lat="46.20947" lon="8.23153" /><trkpt lat="46.20941" lon="8.23135" /><trkpt lat="46.20937" lon="8.2312" /><trkpt lat="46.20933" lon="8.23105" /><trkpt lat="46.20929" lon="8.23086" /><trkpt lat="46.20924" lon="8.23061" /><trkpt lat="46.20623" lon="8.21451" /><trkpt lat="46.20613" lon="8.21388" /><trkpt lat="46.20606" lon="8.21338" /><trkpt lat="46.20603" lon="8.21298" /><trkpt lat="46.20602" lon="8.21246" /><trkpt lat="46.20605" lon="8.21208" /><trkpt lat="46.20611" lon="8.21164" /><trkpt lat="46.20618" lon="8.21124" /><trkpt lat="46.20621" lon="8.21108" /><trkpt lat="46.20624" lon="8.21088" /><trkpt lat="46.2063" lon="8.21056" /><trkpt lat="46.20636" lon="8.21024" /><trkpt lat="46.20641" lon="8.20997" /><trkpt lat="46.20654" lon="8.20937" /><trkpt lat="46.20664" lon="8.20892" /><trkpt lat="46.20665" lon="8.20883" /><trkpt lat="46.20668" lon="8.20871" /><trkpt lat="46.20673" lon="8.2084" /><trkpt lat="46.20678" lon="8.20814" /><trkpt lat="46.20681" lon="8.2079" /><trkpt lat="46.20684" lon="8.20768" /><trkpt lat="46.20686" lon="8.20754" /><trkpt lat="46.20688" lon="8.20739" /><trkpt lat="46.20689" lon="8.20726" /><trkpt lat="46.20694" lon="8.20671" /><trkpt lat="46.20698" lon="8.20634" /><trkpt lat="46.207" lon="8.20611" /><trkpt lat="46.20706" lon="8.20556" /><trkpt lat="46.20713" lon="8.20499" /><trkpt lat="46.20717" lon="8.20472" /><trkpt lat="46.2072" lon="8.20451" /><trkpt lat="46.20723" lon="8.20429" /><trkpt lat="46.20726" lon="8.20404" /><trkpt lat="46.20734" lon="8.20351" /><trkpt lat="46.20744" lon="8.20276" /><trkpt lat="46.20753" lon="8.20199" /><trkpt lat="46.20755" lon="8.20189" /><trkpt lat="46.20765" lon="8.20121" /><trkpt lat="46.20776" lon="8.2006" /><trkpt lat="46.20807" lon="8.19889" /><trkpt lat="46.20823" lon="8.19822" /><trkpt lat="46.20846" lon="8.19756" /><trkpt lat="46.20866" lon="8.19714" /><trkpt lat="46.20889" lon="8.19674" /><trkpt lat="46.20936" lon="8.19599" /><trkpt lat="46.21295" lon="8.19015" /><trkpt lat="46.23879" lon="8.14816" /><trkpt lat="46.23926" lon="8.14736" /><trkpt lat="46.26749" lon="8.10138" /><trkpt lat="46.26864" lon="8.09951" /><trkpt lat="46.2689" lon="8.09903" /><trkpt lat="46.26912" lon="8.09849" /><trkpt lat="46.2694" lon="8.09795" /><trkpt lat="46.26956" lon="8.09769" /><trkpt lat="46.27117" lon="8.095" /><trkpt lat="46.27134" lon="8.09474" /><trkpt lat="46.27283" lon="8.09241" /><trkpt lat="46.27921" lon="8.0819" /><trkpt lat="46.27927" lon="8.0818" /><trkpt lat="46.28814" lon="8.06736" /><trkpt lat="46.28818" lon="8.0673" /><trkpt lat="46.29708" lon="8.0528" /><trkpt lat="46.29711" lon="8.05274" /><trkpt lat="46.30573" lon="8.03863" /><trkpt lat="46.30574" lon="8.03862" /><trkpt lat="46.31438" lon="8.02453" /><trkpt lat="46.31439" lon="8.02451" /><trkpt lat="46.32066" lon="8.01428" /><trkpt lat="46.32382" lon="8.0091" /><trkpt lat="46.32404" lon="8.00873" /><trkpt lat="46.3242" lon="8.00836" /><trkpt lat="46.32437" lon="8.00787" /><trkpt lat="46.32443" lon="8.00768" /><trkpt lat="46.32447" lon="8.00748" /><trkpt lat="46.32457" lon="8.00694" /><trkpt lat="46.32459" lon="8.00673" /><trkpt lat="46.3246" lon="8.00662" /><trkpt lat="46.32461" lon="8.00648" /><trkpt lat="46.32462" lon="8.00635" /><trkpt lat="46.32462" lon="8.00623" /><trkpt lat="46.32462" lon="8.00611" /><trkpt lat="46.32462" lon="8.00598" /><trkpt lat="46.32462" lon="8.00587" /><trkpt lat="46.32461" lon="8.00573" /><trkpt lat="46.3246" lon="8.00561" /><trkpt lat="46.32459" lon="8.00548" /><trkpt lat="46.32457" lon="8.00537" /><trkpt lat="46.32456" lon="8.00525" /><trkpt lat="46.3245" lon="8.00493" /><trkpt lat="46.32446" lon="8.00478" /><trkpt lat="46.32443" lon="8.00465" /><trkpt lat="46.32439" lon="8.00453" /><trkpt lat="46.32436" lon="8.00443" /><trkpt lat="46.32433" lon="8.00435" /><trkpt lat="46.3243" lon="8.00426" /><trkpt lat="46.32428" lon="8.0042" /><trkpt lat="46.32425" lon="8.00414" /><trkpt lat="46.32421" lon="8.00404" /><trkpt lat="46.32417" lon="8.00395" /><trkpt lat="46.32412" lon="8.00384" /><trkpt lat="46.32404" lon="8.00367" /><trkpt lat="46.32323" lon="8.00207" /><trkpt lat="46.32289" lon="8.00141" /><trkpt lat="46.32283" lon="8.00129" /><trkpt lat="46.3227" lon="8.00104" /><trkpt lat="46.32259" lon="8.00081" /><trkpt lat="46.32231" lon="8.00026" /><trkpt lat="46.32226" lon="8.00016" /><trkpt lat="46.3222" lon="8.00004" /><trkpt lat="46.32214" lon="7.9999" /><trkpt lat="46.32208" lon="7.99975" /><trkpt lat="46.32204" lon="7.99963" /><trkpt lat="46.32199" lon="7.99952" /><trkpt lat="46.32194" lon="7.99938" /><trkpt lat="46.3219" lon="7.99922" /><trkpt lat="46.32185" lon="7.99908" /><trkpt lat="46.32099" lon="7.99612" /><trkpt lat="46.32078" lon="7.9954" /><trkpt lat="46.32071" lon="7.99516" /><trkpt lat="46.32068" lon="7.99505" /><trkpt lat="46.32063" lon="7.99492" /><trkpt lat="46.3206" lon="7.99483" /><trkpt lat="46.32057" lon="7.99474" /><trkpt lat="46.32056" lon="7.99472" /><trkpt lat="46.32049" lon="7.99455" /><trkpt lat="46.32043" lon="7.99439" /><trkpt lat="46.32019" lon="7.99377" /><trkpt lat="46.32008" lon="7.99351" /><trkpt lat="46.32005" lon="7.99341" /><trkpt lat="46.32" lon="7.99329" /><trkpt lat="46.31997" lon="7.99319" /><trkpt lat="46.31994" lon="7.99309" /><trkpt lat="46.31991" lon="7.99298" /><trkpt lat="46.31989" lon="7.99288" /><trkpt lat="46.31987" lon="7.99277" /><trkpt lat="46.31984" lon="7.99265" /><trkpt lat="46.31975" lon="7.99214" /><trkpt lat="46.3196" lon="7.99134" /><trkpt lat="46.31958" lon="7.99122" /><trkpt lat="46.31956" lon="7.99111" /><trkpt lat="46.31954" lon="7.99101" /><trkpt lat="46.31952" lon="7.99087" /><trkpt lat="46.31951" lon="7.99073" /><trkpt lat="46.31949" lon="7.99059" /><trkpt lat="46.31949" lon="7.99045" /><trkpt lat="46.31948" lon="7.99031" /><trkpt lat="46.31948" lon="7.99013" /><trkpt lat="46.31949" lon="7.98827" /><trkpt lat="46.31949" lon="7.98827" /></trkseg></trk></gpx>