<gpx version="1.1" creator="Trainlog.me"><trk><name>Trip Path</name><trkseg><trkpt lat="46.9027" lon="8.62375" /><trkpt lat="46.9027" lon="8.62371" /><trkpt lat="46.9027" lon="8.62367" /><trkpt lat="46.90271" lon="8.62365" /><trkpt lat="46.90273" lon="8.62363" /><trkpt lat="46.90691" lon="8.61922" /><trkpt lat="46.90811" lon="8.61817" /><trkpt lat="46.91015" lon="8.61658" /><trkpt lat="46.92454" lon="8.60858" /><trkpt lat="46.92556" lon="8.6082" /><trkpt lat="46.92668" lon="8.60793" /><trkpt lat="46.92814" lon="8.60794" /><trkpt lat="46.9296" lon="8.60829" /><trkpt lat="46.9309" lon="8.60888" /><trkpt lat="46.93205" lon="8.60968" /><trkpt lat="46.93302" lon="8.61079" /><trkpt lat="46.93407" lon="8.61243" /><trkpt lat="46.93451" lon="8.6116" /><trkpt lat="46.93473" lon="8.61141" /><trkpt lat="46.93512" lon="8.61118" /><trkpt lat="46.94976" lon="8.60501" /><trkpt lat="46.96582" lon="8.598" /><trkpt lat="46.96932" lon="8.59515" /><trkpt lat="46.97003" lon="8.59435" /><trkpt lat="46.97032" lon="8.59389" /><trkpt lat="46.9705" lon="8.5933" /><trkpt lat="46.97254" lon="8.59352" /><trkpt lat="46.97331" lon="8.59381" /><trkpt lat="46.974" lon="8.59436" /><trkpt lat="46.98479" lon="8.60559" /><trkpt lat="46.98629" lon="8.60705" /><trkpt lat="46.98684" lon="8.60739" /><trkpt lat="46.98738" lon="8.60764" /><trkpt lat="46.98873" lon="8.60813" /><trkpt lat="46.98974" lon="8.60826" /><trkpt lat="46.99078" lon="8.60816" /><trkpt lat="46.99163" lon="8.60769" /><trkpt lat="46.9923" lon="8.60706" /><trkpt lat="46.99286" lon="8.60628" /><trkpt lat="46.99332" lon="8.60535" /><trkpt lat="46.9931" lon="8.60409" /><trkpt lat="46.99278" lon="8.6031" /><trkpt lat="46.98928" lon="8.59026" /><trkpt lat="46.98874" lon="8.58855" /><trkpt lat="46.98805" lon="8.58674" /><trkpt lat="46.9877" lon="8.58614" /><trkpt lat="46.98727" lon="8.58563" /><trkpt lat="46.9874" lon="8.5846" /><trkpt lat="46.98737" lon="8.58349" /><trkpt lat="46.98725" lon="8.58105" /><trkpt lat="46.98608" lon="8.56168" /><trkpt lat="46.98526" lon="8.54165" /><trkpt lat="46.98538" lon="8.53867" /><trkpt lat="46.98568" lon="8.53713" /><trkpt lat="46.98604" lon="8.53533" /><trkpt lat="46.98684" lon="8.53337" /><trkpt lat="46.98854" lon="8.531" /><trkpt lat="46.98965" lon="8.52901" /><trkpt lat="46.99013" lon="8.52799" /><trkpt lat="46.9903" lon="8.52747" /><trkpt lat="46.99046" lon="8.52675" /><trkpt lat="46.99053" lon="8.5264" /><trkpt lat="46.99058" lon="8.52606" /><trkpt lat="46.99046" lon="8.52537" /><trkpt lat="46.99036" lon="8.525" /><trkpt lat="46.99025" lon="8.52464" /><trkpt lat="46.98986" lon="8.52341" /><trkpt lat="46.98938" lon="8.52231" /><trkpt lat="46.97945" lon="8.50451" /><trkpt lat="46.9695" lon="8.48669" /><trkpt lat="46.96687" lon="8.48181" /><trkpt lat="46.96606" lon="8.48016" /><trkpt lat="46.96589" lon="8.47934" /><trkpt lat="46.96587" lon="8.47854" /><trkpt lat="46.96603" lon="8.47776" /><trkpt lat="46.96629" lon="8.47705" /><trkpt lat="46.96703" lon="8.47568" /><trkpt lat="46.96736" lon="8.47581" /><trkpt lat="46.96772" lon="8.47578" /><trkpt lat="46.97647" lon="8.47346" /><trkpt lat="46.99143" lon="8.47054" /><trkpt lat="46.99324" lon="8.47037" /><trkpt lat="46.99521" lon="8.47059" /><trkpt lat="46.99679" lon="8.47093" /><trkpt lat="46.99804" lon="8.47156" /><trkpt lat="47.00798" lon="8.48107" /><trkpt lat="47.00874" lon="8.48185" /><trkpt lat="47.00904" lon="8.48204" /><trkpt lat="47.00937" lon="8.48222" /><trkpt lat="47.00937" lon="8.48234" /><trkpt lat="47.00937" lon="8.48222" /><trkpt lat="47.01021" lon="8.48077" /><trkpt lat="47.01097" lon="8.47949" /><trkpt lat="47.01163" lon="8.47836" /><trkpt lat="47.01345" lon="8.47372" /><trkpt lat="47.01448" lon="8.46802" /><trkpt lat="47.01941" lon="8.42396" /><trkpt lat="47.02598" lon="8.37836" /><trkpt lat="47.02918" lon="8.35892" /><trkpt lat="47.02976" lon="8.35643" /><trkpt lat="47.03019" lon="8.35493" /><trkpt lat="47.03057" lon="8.35356" /><trkpt lat="47.03124" lon="8.35213" /><trkpt lat="47.03276" lon="8.34987" /><trkpt lat="47.03543" lon="8.34666" /><trkpt lat="47.03794" lon="8.34377" /><trkpt lat="47.04436" lon="8.33533" /><trkpt lat="47.0467" lon="8.33189" /><trkpt lat="47.05054" lon="8.32273" /><trkpt lat="47.05105" lon="8.32138" /><trkpt lat="47.05119" lon="8.32108" /><trkpt lat="47.05129" lon="8.32083" /><trkpt lat="47.05151" lon="8.32032" /><trkpt lat="47.05207" lon="8.31888" /><trkpt lat="47.05222" lon="8.31826" /><trkpt lat="47.05233" lon="8.31762" /><trkpt lat="47.05235" lon="8.31696" /><trkpt lat="47.05233" lon="8.31644" /><trkpt lat="47.05231" lon="8.31601" /><trkpt lat="47.05223" lon="8.31511" /><trkpt lat="47.05214" lon="8.31432" /><trkpt lat="47.05203" lon="8.31362" /><trkpt lat="47.05191" lon="8.31291" /><trkpt lat="47.05175" lon="8.31178" /><trkpt lat="47.05156" lon="8.31015" /><trkpt lat="47.0515" lon="8.3101" /><trkpt lat="47.0515" lon="8.3101" /></trkseg></trk></gpx>