<gpx version="1.1" creator="Trainlog.me"><trk><name>Trip Path</name><trkseg><trkpt lat="46.21033" lon="6.14244" /><trkpt lat="46.21114" lon="6.14336" /><trkpt lat="46.21124" lon="6.14347" /><trkpt lat="46.21134" lon="6.14357" /><trkpt lat="46.21142" lon="6.14365" /><trkpt lat="46.21148" lon="6.14371" /><trkpt lat="46.21155" lon="6.14376" /><trkpt lat="46.21162" lon="6.14381" /><trkpt lat="46.21169" lon="6.14386" /><trkpt lat="46.21176" lon="6.1439" /><trkpt lat="46.21181" lon="6.14393" /><trkpt lat="46.21187" lon="6.14396" /><trkpt lat="46.21196" lon="6.144" /><trkpt lat="46.21209" lon="6.14406" /><trkpt lat="46.21232" lon="6.14413" /><trkpt lat="46.21243" lon="6.14417" /><trkpt lat="46.21266" lon="6.14424" /><trkpt lat="46.21282" lon="6.14429" /><trkpt lat="46.21297" lon="6.14439" /><trkpt lat="46.21326" lon="6.1446" /><trkpt lat="46.21342" lon="6.14471" /><trkpt lat="46.21351" lon="6.14477" /><trkpt lat="46.21365" lon="6.14486" /><trkpt lat="46.21381" lon="6.14493" /><trkpt lat="46.2139" lon="6.14497" /><trkpt lat="46.21398" lon="6.14499" /><trkpt lat="46.21406" lon="6.14501" /><trkpt lat="46.21415" lon="6.14502" /><trkpt lat="46.21423" lon="6.14503" /><trkpt lat="46.21432" lon="6.14503" /><trkpt lat="46.21493" lon="6.14503" /><trkpt lat="46.21507" lon="6.14503" /><trkpt lat="46.21512" lon="6.14503" /><trkpt lat="46.21524" lon="6.14503" /><trkpt lat="46.21536" lon="6.14503" /><trkpt lat="46.21549" lon="6.14501" /><trkpt lat="46.2161" lon="6.14493" /><trkpt lat="46.2164" lon="6.1449" /><trkpt lat="46.21656" lon="6.14488" /><trkpt lat="46.21673" lon="6.14487" /><trkpt lat="46.21891" lon="6.14478" /><trkpt lat="46.21893" lon="6.14478" /><trkpt lat="46.22029" lon="6.14473" /><trkpt lat="46.22054" lon="6.14472" /><trkpt lat="46.22146" lon="6.14468" /><trkpt lat="46.22148" lon="6.14468" /><trkpt lat="46.2229" lon="6.14464" /><trkpt lat="46.22332" lon="6.14463" /><trkpt lat="46.22365" lon="6.14462" /><trkpt lat="46.22385" lon="6.14462" /><trkpt lat="46.22407" lon="6.14462" /><trkpt lat="46.22421" lon="6.14462" /><trkpt lat="46.22435" lon="6.14463" /><trkpt lat="46.22452" lon="6.14465" /><trkpt lat="46.22466" lon="6.14467" /><trkpt lat="46.22479" lon="6.14469" /><trkpt lat="46.22485" lon="6.1447" /><trkpt lat="46.22493" lon="6.14471" /><trkpt lat="46.22508" lon="6.14476" /><trkpt lat="46.22523" lon="6.1448" /><trkpt lat="46.22549" lon="6.14489" /><trkpt lat="46.22565" lon="6.14494" /><trkpt lat="46.22645" lon="6.14524" /><trkpt lat="46.22709" lon="6.14548" /><trkpt lat="46.22724" lon="6.14553" /><trkpt lat="46.2274" lon="6.14558" /><trkpt lat="46.22749" lon="6.14562" /><trkpt lat="46.22759" lon="6.14565" /><trkpt lat="46.22768" lon="6.14567" /><trkpt lat="46.22777" lon="6.1457" /><trkpt lat="46.22787" lon="6.14572" /><trkpt lat="46.22796" lon="6.14575" /><trkpt lat="46.22805" lon="6.14577" /><trkpt lat="46.22814" lon="6.14578" /><trkpt lat="46.22822" lon="6.1458" /><trkpt lat="46.2283" lon="6.14581" /><trkpt lat="46.2284" lon="6.14583" /><trkpt lat="46.2285" lon="6.14584" /><trkpt lat="46.22858" lon="6.14585" /><trkpt lat="46.22866" lon="6.14585" /><trkpt lat="46.22877" lon="6.14586" /><trkpt lat="46.22886" lon="6.14586" /><trkpt lat="46.22903" lon="6.14587" /><trkpt lat="46.22918" lon="6.14586" /><trkpt lat="46.22939" lon="6.14585" /><trkpt lat="46.23086" lon="6.14572" /><trkpt lat="46.23128" lon="6.14568" /><trkpt lat="46.23143" lon="6.14567" /><trkpt lat="46.23166" lon="6.14565" /><trkpt lat="46.23184" lon="6.14564" /><trkpt lat="46.23204" lon="6.14564" /><trkpt lat="46.23224" lon="6.14565" /><trkpt lat="46.23244" lon="6.14566" /><trkpt lat="46.23261" lon="6.14568" /><trkpt lat="46.23277" lon="6.14571" /><trkpt lat="46.23298" lon="6.14575" /><trkpt lat="46.23305" lon="6.14576" /><trkpt lat="46.23317" lon="6.14579" /><trkpt lat="46.23338" lon="6.14585" /><trkpt lat="46.2336" lon="6.14591" /><trkpt lat="46.23404" lon="6.14605" /><trkpt lat="46.23457" lon="6.14622" /><trkpt lat="46.23639" lon="6.1468" /><trkpt lat="46.2366" lon="6.14686" /><trkpt lat="46.23685" lon="6.14692" /><trkpt lat="46.23701" lon="6.14696" /><trkpt lat="46.23712" lon="6.14698" /><trkpt lat="46.23723" lon="6.14701" /><trkpt lat="46.23735" lon="6.14703" /><trkpt lat="46.23761" lon="6.14706" /><trkpt lat="46.23801" lon="6.1471" /><trkpt lat="46.2382" lon="6.14711" /><trkpt lat="46.23967" lon="6.14723" /><trkpt lat="46.23981" lon="6.14724" /><trkpt lat="46.24113" lon="6.14735" /><trkpt lat="46.24151" lon="6.14738" /><trkpt lat="46.24178" lon="6.14739" /><trkpt lat="46.24202" lon="6.14741" /><trkpt lat="46.2421" lon="6.14741" /><trkpt lat="46.24237" lon="6.14743" /><trkpt lat="46.2427" lon="6.14743" /><trkpt lat="46.24294" lon="6.14744" /><trkpt lat="46.2434" lon="6.14743" /><trkpt lat="46.2455" lon="6.14737" /><trkpt lat="46.24612" lon="6.14736" /><trkpt lat="46.24629" lon="6.14735" /><trkpt lat="46.24646" lon="6.14734" /><trkpt lat="46.24669" lon="6.14732" /><trkpt lat="46.2469" lon="6.1473" /><trkpt lat="46.24717" lon="6.14729" /><trkpt lat="46.24785" lon="6.14727" /><trkpt lat="46.24838" lon="6.14726" /><trkpt lat="46.24914" lon="6.14724" /><trkpt lat="46.24925" lon="6.14723" /><trkpt lat="46.24965" lon="6.14722" /><trkpt lat="46.24998" lon="6.14722" /><trkpt lat="46.25021" lon="6.14723" /><trkpt lat="46.25037" lon="6.14724" /><trkpt lat="46.2506" lon="6.14726" /><trkpt lat="46.25078" lon="6.14729" /><trkpt lat="46.25099" lon="6.14732" /><trkpt lat="46.25118" lon="6.14737" /><trkpt lat="46.25137" lon="6.14742" /><trkpt lat="46.25147" lon="6.14745" /><trkpt lat="46.25155" lon="6.14747" /><trkpt lat="46.25175" lon="6.14754" /><trkpt lat="46.25185" lon="6.14757" /><trkpt lat="46.25194" lon="6.14761" /><trkpt lat="46.25213" lon="6.14769" /><trkpt lat="46.25228" lon="6.14776" /><trkpt lat="46.2524" lon="6.14782" /><trkpt lat="46.25249" lon="6.14787" /><trkpt lat="46.25259" lon="6.14792" /><trkpt lat="46.2527" lon="6.14798" /><trkpt lat="46.25286" lon="6.14808" /><trkpt lat="46.253" lon="6.14817" /><trkpt lat="46.25312" lon="6.14825" /><trkpt lat="46.25321" lon="6.14831" /><trkpt lat="46.25339" lon="6.14845" /><trkpt lat="46.25356" lon="6.14858" /><trkpt lat="46.25372" lon="6.14872" /><trkpt lat="46.25388" lon="6.14887" /><trkpt lat="46.25404" lon="6.14902" /><trkpt lat="46.2542" lon="6.14918" /><trkpt lat="46.25436" lon="6.14935" /><trkpt lat="46.25453" lon="6.14954" /><trkpt lat="46.25468" lon="6.14972" /><trkpt lat="46.25482" lon="6.1499" /><trkpt lat="46.25495" lon="6.15008" /><trkpt lat="46.25511" lon="6.1503" /><trkpt lat="46.25523" lon="6.15049" /><trkpt lat="46.25538" lon="6.15072" /><trkpt lat="46.25548" lon="6.15088" /><trkpt lat="46.25561" lon="6.15111" /><trkpt lat="46.25573" lon="6.15133" /><trkpt lat="46.25585" lon="6.15156" /><trkpt lat="46.25595" lon="6.15178" /><trkpt lat="46.25604" lon="6.15199" /><trkpt lat="46.25614" lon="6.1522" /><trkpt lat="46.25621" lon="6.15238" /><trkpt lat="46.25627" lon="6.15252" /><trkpt lat="46.25628" lon="6.15254" /><trkpt lat="46.25639" lon="6.15283" /><trkpt lat="46.25662" lon="6.15342" /><trkpt lat="46.25673" lon="6.15368" /><trkpt lat="46.25681" lon="6.15388" /><trkpt lat="46.25688" lon="6.15405" /><trkpt lat="46.25696" lon="6.15423" /><trkpt lat="46.25705" lon="6.15443" /><trkpt lat="46.25712" lon="6.15456" /><trkpt lat="46.25718" lon="6.15468" /><trkpt lat="46.25724" lon="6.1548" /><trkpt lat="46.2573" lon="6.15492" /><trkpt lat="46.25739" lon="6.15507" /><trkpt lat="46.25751" lon="6.15529" /><trkpt lat="46.25766" lon="6.15552" /><trkpt lat="46.2578" lon="6.15573" /><trkpt lat="46.25782" lon="6.15577" /><trkpt lat="46.25796" lon="6.15597" /><trkpt lat="46.25804" lon="6.15608" /><trkpt lat="46.2582" lon="6.1563" /><trkpt lat="46.25832" lon="6.15644" /><trkpt lat="46.25851" lon="6.15667" /><trkpt lat="46.25865" lon="6.15683" /><trkpt lat="46.25883" lon="6.15701" /><trkpt lat="46.25897" lon="6.15715" /><trkpt lat="46.25912" lon="6.15729" /><trkpt lat="46.25929" lon="6.15745" /><trkpt lat="46.25948" lon="6.15761" /><trkpt lat="46.2599" lon="6.15797" /><trkpt lat="46.26072" lon="6.15867" /><trkpt lat="46.26112" lon="6.15901" /><trkpt lat="46.26137" lon="6.15921" /><trkpt lat="46.26154" lon="6.15934" /><trkpt lat="46.26187" lon="6.15961" /><trkpt lat="46.26233" lon="6.15998" /><trkpt lat="46.26287" lon="6.16042" /><trkpt lat="46.26315" lon="6.16065" /><trkpt lat="46.26342" lon="6.16084" /><trkpt lat="46.26367" lon="6.16103" /><trkpt lat="46.26393" lon="6.16121" /><trkpt lat="46.2642" lon="6.16139" /><trkpt lat="46.26454" lon="6.16161" /><trkpt lat="46.26489" lon="6.16182" /><trkpt lat="46.26542" lon="6.16216" /><trkpt lat="46.26588" lon="6.16246" /><trkpt lat="46.266" lon="6.16254" /><trkpt lat="46.26644" lon="6.16284" /><trkpt lat="46.26726" lon="6.1634" /><trkpt lat="46.26777" lon="6.16374" /><trkpt lat="46.26799" lon="6.16388" /><trkpt lat="46.26821" lon="6.16402" /><trkpt lat="46.26844" lon="6.16416" /><trkpt lat="46.26867" lon="6.16431" /><trkpt lat="46.2689" lon="6.16445" /><trkpt lat="46.26914" lon="6.16459" /><trkpt lat="46.26961" lon="6.16487" /><trkpt lat="46.27049" lon="6.16539" /><trkpt lat="46.27058" lon="6.16544" /><trkpt lat="46.27085" lon="6.1656" /><trkpt lat="46.27104" lon="6.16569" /><trkpt lat="46.27118" lon="6.16576" /><trkpt lat="46.27126" lon="6.16579" /><trkpt lat="46.27135" lon="6.16583" /><trkpt lat="46.27143" lon="6.16586" /><trkpt lat="46.27151" lon="6.16588" /><trkpt lat="46.27157" lon="6.16591" /><trkpt lat="46.27165" lon="6.16593" /><trkpt lat="46.27174" lon="6.16596" /><trkpt lat="46.27184" lon="6.16598" /><trkpt lat="46.27192" lon="6.166" /><trkpt lat="46.27199" lon="6.16602" /><trkpt lat="46.27208" lon="6.16604" /><trkpt lat="46.27218" lon="6.16605" /><trkpt lat="46.27226" lon="6.16606" /><trkpt lat="46.27235" lon="6.16607" /><trkpt lat="46.27251" lon="6.16609" /><trkpt lat="46.27266" lon="6.16609" /><trkpt lat="46.27286" lon="6.1661" /><trkpt lat="46.27317" lon="6.16609" /><trkpt lat="46.27614" lon="6.16607" /><trkpt lat="46.27632" lon="6.16606" /><trkpt lat="46.27652" lon="6.16606" /><trkpt lat="46.27655" lon="6.16606" /><trkpt lat="46.27797" lon="6.16605" /><trkpt lat="46.27812" lon="6.16604" /><trkpt lat="46.27824" lon="6.16604" /><trkpt lat="46.2783" lon="6.16603" /><trkpt lat="46.27841" lon="6.16602" /><trkpt lat="46.27859" lon="6.16599" /><trkpt lat="46.27872" lon="6.16597" /><trkpt lat="46.27881" lon="6.16595" /><trkpt lat="46.27889" lon="6.16592" /><trkpt lat="46.27899" lon="6.16589" /><trkpt lat="46.27907" lon="6.16587" /><trkpt lat="46.27915" lon="6.16584" /><trkpt lat="46.27923" lon="6.16581" /><trkpt lat="46.27932" lon="6.16577" /><trkpt lat="46.27943" lon="6.16572" /><trkpt lat="46.27953" lon="6.16567" /><trkpt lat="46.27972" lon="6.16557" /><trkpt lat="46.2799" lon="6.16547" /><trkpt lat="46.28096" lon="6.16485" /><trkpt lat="46.282" lon="6.16425" /><trkpt lat="46.2821" lon="6.16419" /><trkpt lat="46.28261" lon="6.1639" /><trkpt lat="46.28303" lon="6.16366" /><trkpt lat="46.28319" lon="6.16357" /><trkpt lat="46.28335" lon="6.16349" /><trkpt lat="46.28349" lon="6.16343" /><trkpt lat="46.28362" lon="6.16338" /><trkpt lat="46.28379" lon="6.16333" /><trkpt lat="46.28401" lon="6.16326" /><trkpt lat="46.28416" lon="6.16322" /><trkpt lat="46.28427" lon="6.16319" /><trkpt lat="46.28455" lon="6.16313" /><trkpt lat="46.28481" lon="6.16307" /><trkpt lat="46.28507" lon="6.16302" /><trkpt lat="46.28572" lon="6.16289" /><trkpt lat="46.28595" lon="6.16284" /><trkpt lat="46.28667" lon="6.1627" /><trkpt lat="46.28725" lon="6.16259" /><trkpt lat="46.28743" lon="6.16256" /><trkpt lat="46.28763" lon="6.16252" /><trkpt lat="46.28775" lon="6.16249" /><trkpt lat="46.28832" lon="6.16238" /><trkpt lat="46.29076" lon="6.1619" /><trkpt lat="46.29095" lon="6.16187" /><trkpt lat="46.29108" lon="6.16185" /><trkpt lat="46.29127" lon="6.16182" /><trkpt lat="46.29145" lon="6.16181" /><trkpt lat="46.29162" lon="6.1618" /><trkpt lat="46.29179" lon="6.16181" /><trkpt lat="46.29196" lon="6.16182" /><trkpt lat="46.29214" lon="6.16183" /><trkpt lat="46.29229" lon="6.16185" /><trkpt lat="46.29246" lon="6.16189" /><trkpt lat="46.29261" lon="6.16192" /><trkpt lat="46.29278" lon="6.16197" /><trkpt lat="46.29292" lon="6.16201" /><trkpt lat="46.29311" lon="6.16208" /><trkpt lat="46.29323" lon="6.16214" /><trkpt lat="46.2934" lon="6.16222" /><trkpt lat="46.29355" lon="6.16229" /><trkpt lat="46.29371" lon="6.16238" /><trkpt lat="46.29385" lon="6.16247" /><trkpt lat="46.29399" lon="6.16256" /><trkpt lat="46.29413" lon="6.16266" /><trkpt lat="46.29429" lon="6.16278" /><trkpt lat="46.29442" lon="6.16289" /><trkpt lat="46.29455" lon="6.163" /><trkpt lat="46.29466" lon="6.16311" /><trkpt lat="46.29475" lon="6.16319" /><trkpt lat="46.29483" lon="6.16327" /><trkpt lat="46.29494" lon="6.16339" /><trkpt lat="46.29504" lon="6.1635" /><trkpt lat="46.29545" lon="6.16396" /><trkpt lat="46.29576" lon="6.16431" /><trkpt lat="46.29646" lon="6.16512" /><trkpt lat="46.29701" lon="6.16575" /><trkpt lat="46.29728" lon="6.16606" /><trkpt lat="46.29742" lon="6.16622" /><trkpt lat="46.29755" lon="6.16638" /><trkpt lat="46.29765" lon="6.1665" /><trkpt lat="46.29778" lon="6.16666" /><trkpt lat="46.29797" lon="6.1669" /><trkpt lat="46.29809" lon="6.16706" /><trkpt lat="46.29821" lon="6.16722" /><trkpt lat="46.29838" lon="6.16746" /><trkpt lat="46.29855" lon="6.16771" /><trkpt lat="46.2992" lon="6.16866" /><trkpt lat="46.29939" lon="6.16894" /><trkpt lat="46.29956" lon="6.16919" /><trkpt lat="46.29966" lon="6.16934" /><trkpt lat="46.30451" lon="6.17646" /><trkpt lat="46.30699" lon="6.18011" /><trkpt lat="46.30748" lon="6.18082" /><trkpt lat="46.30797" lon="6.18153" /><trkpt lat="46.30824" lon="6.18192" /><trkpt lat="46.30845" lon="6.18219" /><trkpt lat="46.30857" lon="6.18234" /><trkpt lat="46.30868" lon="6.18249" /><trkpt lat="46.30876" lon="6.18259" /><trkpt lat="46.3089" lon="6.18276" /><trkpt lat="46.30905" lon="6.18293" /><trkpt lat="46.30919" lon="6.18309" /><trkpt lat="46.30933" lon="6.18325" /><trkpt lat="46.30943" lon="6.18336" /><trkpt lat="46.30954" lon="6.18347" /><trkpt lat="46.30964" lon="6.18358" /><trkpt lat="46.30976" lon="6.1837" /><trkpt lat="46.30993" lon="6.18387" /><trkpt lat="46.31003" lon="6.18397" /><trkpt lat="46.31014" lon="6.18406" /><trkpt lat="46.31028" lon="6.1842" /><trkpt lat="46.31052" lon="6.18442" /><trkpt lat="46.31065" lon="6.18452" /><trkpt lat="46.31077" lon="6.18462" /><trkpt lat="46.31098" lon="6.18479" /><trkpt lat="46.31131" lon="6.18505" /><trkpt lat="46.31148" lon="6.18518" /><trkpt lat="46.31168" lon="6.18531" /><trkpt lat="46.31188" lon="6.18545" /><trkpt lat="46.312" lon="6.18553" /><trkpt lat="46.31212" lon="6.18561" /><trkpt lat="46.3123" lon="6.18572" /><trkpt lat="46.31246" lon="6.18581" /><trkpt lat="46.31272" lon="6.18596" /><trkpt lat="46.31286" lon="6.18603" /><trkpt lat="46.31299" lon="6.1861" /><trkpt lat="46.31317" lon="6.18619" /><trkpt lat="46.3134" lon="6.1863" /><trkpt lat="46.31362" lon="6.18639" /><trkpt lat="46.31392" lon="6.18651" /><trkpt lat="46.31414" lon="6.18659" /><trkpt lat="46.31437" lon="6.18667" /><trkpt lat="46.31491" lon="6.18686" /><trkpt lat="46.31507" lon="6.18691" /><trkpt lat="46.31715" lon="6.18762" /><trkpt lat="46.31806" lon="6.18792" /><trkpt lat="46.31822" lon="6.18798" /><trkpt lat="46.31865" lon="6.18813" /><trkpt lat="46.31875" lon="6.18817" /><trkpt lat="46.31895" lon="6.18824" /><trkpt lat="46.31917" lon="6.18833" /><trkpt lat="46.31937" lon="6.18842" /><trkpt lat="46.31957" lon="6.18851" /><trkpt lat="46.31976" lon="6.1886" /><trkpt lat="46.31999" lon="6.18873" /><trkpt lat="46.32018" lon="6.18883" /><trkpt lat="46.32039" lon="6.18896" /><trkpt lat="46.32059" lon="6.18908" /><trkpt lat="46.32089" lon="6.18927" /><trkpt lat="46.32166" lon="6.18977" /><trkpt lat="46.32246" lon="6.19029" /><trkpt lat="46.32275" lon="6.19048" /><trkpt lat="46.32334" lon="6.19087" /><trkpt lat="46.32369" lon="6.19111" /><trkpt lat="46.32409" lon="6.19138" /><trkpt lat="46.32443" lon="6.19161" /><trkpt lat="46.32475" lon="6.19184" /><trkpt lat="46.32509" lon="6.19207" /><trkpt lat="46.32532" lon="6.19222" /><trkpt lat="46.32558" lon="6.19239" /><trkpt lat="46.32562" lon="6.19241" /><trkpt lat="46.32598" lon="6.19265" /><trkpt lat="46.32638" lon="6.1929" /><trkpt lat="46.32659" lon="6.19303" /><trkpt lat="46.3268" lon="6.19316" /><trkpt lat="46.32733" lon="6.19351" /><trkpt lat="46.32931" lon="6.19479" /><trkpt lat="46.32939" lon="6.19484" /><trkpt lat="46.32964" lon="6.19499" /><trkpt lat="46.32988" lon="6.19514" /><trkpt lat="46.33013" lon="6.19528" /><trkpt lat="46.33037" lon="6.19542" /><trkpt lat="46.33062" lon="6.19555" /><trkpt lat="46.33087" lon="6.19568" /><trkpt lat="46.33111" lon="6.1958" /><trkpt lat="46.33134" lon="6.1959" /><trkpt lat="46.33162" lon="6.19602" /><trkpt lat="46.33188" lon="6.19613" /><trkpt lat="46.332" lon="6.19618" /><trkpt lat="46.33211" lon="6.19622" /><trkpt lat="46.33233" lon="6.1963" /><trkpt lat="46.33262" lon="6.19641" /><trkpt lat="46.33292" lon="6.1965" /><trkpt lat="46.33315" lon="6.19657" /><trkpt lat="46.33326" lon="6.1966" /><trkpt lat="46.33338" lon="6.19664" /><trkpt lat="46.33353" lon="6.19667" /><trkpt lat="46.33368" lon="6.19671" /><trkpt lat="46.33385" lon="6.19675" /><trkpt lat="46.33421" lon="6.19684" /><trkpt lat="46.33458" lon="6.19691" /><trkpt lat="46.33577" lon="6.19717" /><trkpt lat="46.33596" lon="6.19721" /><trkpt lat="46.33606" lon="6.19723" /><trkpt lat="46.34456" lon="6.19906" /><trkpt lat="46.34497" lon="6.19915" /><trkpt lat="46.34517" lon="6.19919" /><trkpt lat="46.34538" lon="6.19924" /><trkpt lat="46.34562" lon="6.1993" /><trkpt lat="46.34587" lon="6.19937" /><trkpt lat="46.34614" lon="6.19945" /><trkpt lat="46.34634" lon="6.19951" /><trkpt lat="46.34647" lon="6.19956" /><trkpt lat="46.3466" lon="6.1996" /><trkpt lat="46.34679" lon="6.19968" /><trkpt lat="46.3469" lon="6.19972" /><trkpt lat="46.347" lon="6.19977" /><trkpt lat="46.3471" lon="6.19981" /><trkpt lat="46.3472" lon="6.19986" /><trkpt lat="46.3473" lon="6.1999" /><trkpt lat="46.34739" lon="6.19995" /><trkpt lat="46.34755" lon="6.20004" /><trkpt lat="46.34764" lon="6.20009" /><trkpt lat="46.34772" lon="6.20014" /><trkpt lat="46.34784" lon="6.20021" /><trkpt lat="46.34795" lon="6.20028" /><trkpt lat="46.34814" lon="6.2004" /><trkpt lat="46.34831" lon="6.20052" /><trkpt lat="46.34847" lon="6.20065" /><trkpt lat="46.34867" lon="6.2008" /><trkpt lat="46.34885" lon="6.20096" /><trkpt lat="46.34902" lon="6.2011" /><trkpt lat="46.34915" lon="6.20123" /><trkpt lat="46.34932" lon="6.2014" /><trkpt lat="46.34944" lon="6.20151" /><trkpt lat="46.34963" lon="6.20171" /><trkpt lat="46.34988" lon="6.20199" /><trkpt lat="46.35009" lon="6.20224" /><trkpt lat="46.35027" lon="6.20245" /><trkpt lat="46.35357" lon="6.20634" /><trkpt lat="46.35365" lon="6.20643" /><trkpt lat="46.3539" lon="6.20671" /><trkpt lat="46.35409" lon="6.20691" /><trkpt lat="46.35428" lon="6.20712" /><trkpt lat="46.35449" lon="6.20735" /><trkpt lat="46.35461" lon="6.2075" /><trkpt lat="46.35491" lon="6.20785" /><trkpt lat="46.35595" lon="6.20908" /><trkpt lat="46.35675" lon="6.21002" /><trkpt lat="46.3576" lon="6.21102" /><trkpt lat="46.35795" lon="6.21142" /><trkpt lat="46.3583" lon="6.21182" /><trkpt lat="46.35858" lon="6.21213" /><trkpt lat="46.35886" lon="6.21243" /><trkpt lat="46.35912" lon="6.21271" /><trkpt lat="46.35938" lon="6.21299" /><trkpt lat="46.35975" lon="6.21336" /><trkpt lat="46.35995" lon="6.21356" /><trkpt lat="46.36016" lon="6.21377" /><trkpt lat="46.36033" lon="6.21394" /><trkpt lat="46.36051" lon="6.21411" /><trkpt lat="46.36087" lon="6.21445" /><trkpt lat="46.36123" lon="6.21478" /><trkpt lat="46.3616" lon="6.2151" /><trkpt lat="46.36185" lon="6.21532" /><trkpt lat="46.36209" lon="6.21552" /><trkpt lat="46.36258" lon="6.21594" /><trkpt lat="46.36303" lon="6.2163" /><trkpt lat="46.36348" lon="6.21664" /><trkpt lat="46.36374" lon="6.21684" /><trkpt lat="46.364" lon="6.21704" /><trkpt lat="46.36452" lon="6.21742" /><trkpt lat="46.36925" lon="6.22084" /><trkpt lat="46.37043" lon="6.22169" /><trkpt lat="46.3716" lon="6.22255" /><trkpt lat="46.37277" lon="6.2234" /><trkpt lat="46.37337" lon="6.22383" /><trkpt lat="46.37365" lon="6.22405" /><trkpt lat="46.37393" lon="6.22427" /><trkpt lat="46.37424" lon="6.22452" /><trkpt lat="46.37454" lon="6.22477" /><trkpt lat="46.37487" lon="6.22505" /><trkpt lat="46.37519" lon="6.22533" /><trkpt lat="46.37555" lon="6.22566" /><trkpt lat="46.3759" lon="6.22599" /><trkpt lat="46.37618" lon="6.22627" /><trkpt lat="46.37645" lon="6.22654" /><trkpt lat="46.37672" lon="6.22683" /><trkpt lat="46.37699" lon="6.22711" /><trkpt lat="46.37731" lon="6.22746" /><trkpt lat="46.37762" lon="6.2278" /><trkpt lat="46.37804" lon="6.22829" /><trkpt lat="46.37911" lon="6.22954" /><trkpt lat="46.38033" lon="6.23097" /><trkpt lat="46.38144" lon="6.23226" /><trkpt lat="46.38197" lon="6.23288" /><trkpt lat="46.38278" lon="6.23383" /><trkpt lat="46.38284" lon="6.23391" /><trkpt lat="46.38441" lon="6.23578" /><trkpt lat="46.38555" lon="6.23714" /><trkpt lat="46.38577" lon="6.2374" /><trkpt lat="46.38597" lon="6.23762" /><trkpt lat="46.38614" lon="6.23782" /><trkpt lat="46.38634" lon="6.23803" /><trkpt lat="46.38656" lon="6.23826" /><trkpt lat="46.38673" lon="6.23844" /><trkpt lat="46.3869" lon="6.2386" /><trkpt lat="46.38707" lon="6.23876" /><trkpt lat="46.38734" lon="6.239" /><trkpt lat="46.38769" lon="6.2393" /><trkpt lat="46.38797" lon="6.23953" /><trkpt lat="46.38825" lon="6.23975" /><trkpt lat="46.38848" lon="6.23991" /><trkpt lat="46.38865" lon="6.24002" /><trkpt lat="46.38883" lon="6.24014" /><trkpt lat="46.38891" lon="6.24018" /><trkpt lat="46.38932" lon="6.24041" /><trkpt lat="46.38953" lon="6.24052" /><trkpt lat="46.38974" lon="6.24061" /><trkpt lat="46.39005" lon="6.24074" /><trkpt lat="46.39034" lon="6.24085" /><trkpt lat="46.39055" lon="6.24092" /><trkpt lat="46.39076" lon="6.241" /><trkpt lat="46.39155" lon="6.24126" /><trkpt lat="46.39175" lon="6.24133" /><trkpt lat="46.392" lon="6.24143" /><trkpt lat="46.39226" lon="6.24154" /><trkpt lat="46.39251" lon="6.24166" /><trkpt lat="46.39277" lon="6.24179" /><trkpt lat="46.39299" lon="6.24193" /><trkpt lat="46.39321" lon="6.24206" /><trkpt lat="46.3934" lon="6.24219" /><trkpt lat="46.39359" lon="6.24232" /><trkpt lat="46.39378" lon="6.24247" /><trkpt lat="46.39398" lon="6.24262" /><trkpt lat="46.39417" lon="6.24279" /><trkpt lat="46.39433" lon="6.24294" /><trkpt lat="46.39457" lon="6.24316" /><trkpt lat="46.39479" lon="6.24339" /><trkpt lat="46.39507" lon="6.24371" /><trkpt lat="46.39535" lon="6.24404" /><trkpt lat="46.39625" lon="6.24516" /><trkpt lat="46.39637" lon="6.24531" /><trkpt lat="46.39813" lon="6.2475" /><trkpt lat="46.39998" lon="6.24981" /><trkpt lat="46.4005" lon="6.25045" /><trkpt lat="46.40074" lon="6.25075" /><trkpt lat="46.40099" lon="6.25103" /><trkpt lat="46.40118" lon="6.25124" /><trkpt lat="46.40137" lon="6.25145" /><trkpt lat="46.40159" lon="6.25168" /><trkpt lat="46.40178" lon="6.25189" /><trkpt lat="46.40209" lon="6.25219" /><trkpt lat="46.4024" lon="6.25248" /><trkpt lat="46.40272" lon="6.25277" /><trkpt lat="46.40304" lon="6.25306" /><trkpt lat="46.4118" lon="6.26102" /><trkpt lat="46.41191" lon="6.26111" /><trkpt lat="46.41265" lon="6.2618" /><trkpt lat="46.41303" lon="6.26215" /><trkpt lat="46.41331" lon="6.26242" /><trkpt lat="46.41357" lon="6.26267" /><trkpt lat="46.41383" lon="6.26292" /><trkpt lat="46.41408" lon="6.26318" /><trkpt lat="46.41433" lon="6.26343" /><trkpt lat="46.41667" lon="6.26583" /><trkpt lat="46.41692" lon="6.26609" /><trkpt lat="46.41779" lon="6.26699" /><trkpt lat="46.4184" lon="6.26761" /><trkpt lat="46.41896" lon="6.26819" /><trkpt lat="46.41997" lon="6.26922" /><trkpt lat="46.42132" lon="6.27061" /><trkpt lat="46.42152" lon="6.27082" /><trkpt lat="46.42199" lon="6.2713" /><trkpt lat="46.422" lon="6.27131" /><trkpt lat="46.42238" lon="6.2717" /><trkpt lat="46.42266" lon="6.27198" /><trkpt lat="46.42352" lon="6.27287" /><trkpt lat="46.42568" lon="6.27509" /><trkpt lat="46.42995" lon="6.27947" /><trkpt lat="46.43316" lon="6.28277" /><trkpt lat="46.43528" lon="6.28494" /><trkpt lat="46.43549" lon="6.28516" /><trkpt lat="46.43569" lon="6.28538" /><trkpt lat="46.4359" lon="6.2856" /><trkpt lat="46.43611" lon="6.28582" /><trkpt lat="46.43631" lon="6.28604" /><trkpt lat="46.4365" lon="6.28627" /><trkpt lat="46.43669" lon="6.2865" /><trkpt lat="46.43688" lon="6.28673" /><trkpt lat="46.43706" lon="6.28696" /><trkpt lat="46.43724" lon="6.2872" /><trkpt lat="46.43741" lon="6.28745" /><trkpt lat="46.43759" lon="6.28769" /><trkpt lat="46.43773" lon="6.2879" /><trkpt lat="46.43779" lon="6.28799" /><trkpt lat="46.43787" lon="6.28811" /><trkpt lat="46.43795" lon="6.28823" /><trkpt lat="46.43802" lon="6.28835" /><trkpt lat="46.4381" lon="6.28847" /><trkpt lat="46.43817" lon="6.28859" /><trkpt lat="46.43832" lon="6.28882" /><trkpt lat="46.43839" lon="6.28894" /><trkpt lat="46.43846" lon="6.28905" /><trkpt lat="46.43853" lon="6.28916" /><trkpt lat="46.43855" lon="6.2892" /><trkpt lat="46.43865" lon="6.28937" /><trkpt lat="46.4387" lon="6.28946" /><trkpt lat="46.43875" lon="6.28955" /><trkpt lat="46.43885" lon="6.28972" /><trkpt lat="46.43894" lon="6.28989" /><trkpt lat="46.43913" lon="6.29023" /><trkpt lat="46.43924" lon="6.29044" /><trkpt lat="46.4393" lon="6.29056" /><trkpt lat="46.43936" lon="6.29067" /><trkpt lat="46.43947" lon="6.2909" /><trkpt lat="46.43959" lon="6.29114" /><trkpt lat="46.43971" lon="6.29139" /><trkpt lat="46.43983" lon="6.29166" /><trkpt lat="46.43994" lon="6.29192" /><trkpt lat="46.43997" lon="6.29198" /><trkpt lat="46.44006" lon="6.29219" /><trkpt lat="46.44017" lon="6.29246" /><trkpt lat="46.44028" lon="6.29273" /><trkpt lat="46.44038" lon="6.29301" /><trkpt lat="46.44048" lon="6.29328" /><trkpt lat="46.44058" lon="6.29357" /><trkpt lat="46.44069" lon="6.29386" /><trkpt lat="46.44285" lon="6.30017" /><trkpt lat="46.4433" lon="6.30147" /><trkpt lat="46.44355" lon="6.30217" /><trkpt lat="46.44375" lon="6.30274" /><trkpt lat="46.44397" lon="6.30336" /><trkpt lat="46.44413" lon="6.30379" /><trkpt lat="46.44429" lon="6.30424" /><trkpt lat="46.4444" lon="6.30451" /><trkpt lat="46.44452" lon="6.30482" /><trkpt lat="46.44464" lon="6.30511" /><trkpt lat="46.44474" lon="6.30536" /><trkpt lat="46.44485" lon="6.3056" /><trkpt lat="46.44499" lon="6.30591" /><trkpt lat="46.44507" lon="6.30609" /><trkpt lat="46.44529" lon="6.30656" /><trkpt lat="46.4455" lon="6.30702" /><trkpt lat="46.44577" lon="6.30758" /><trkpt lat="46.44595" lon="6.30794" /><trkpt lat="46.44664" lon="6.30935" /><trkpt lat="46.44767" lon="6.31145" /><trkpt lat="46.44855" lon="6.31325" /><trkpt lat="46.44912" lon="6.3144" /><trkpt lat="46.44945" lon="6.31508" /><trkpt lat="46.44966" lon="6.31549" /><trkpt lat="46.45089" lon="6.318" /><trkpt lat="46.45142" lon="6.31909" /><trkpt lat="46.45172" lon="6.31968" /><trkpt lat="46.45211" lon="6.32046" /><trkpt lat="46.45215" lon="6.32053" /><trkpt lat="46.45234" lon="6.32089" /><trkpt lat="46.45247" lon="6.32114" /><trkpt lat="46.45263" lon="6.32142" /><trkpt lat="46.45277" lon="6.32167" /><trkpt lat="46.45295" lon="6.32199" /><trkpt lat="46.45311" lon="6.32226" /><trkpt lat="46.45328" lon="6.32254" /><trkpt lat="46.45344" lon="6.32281" /><trkpt lat="46.45361" lon="6.32308" /><trkpt lat="46.45395" lon="6.32362" /><trkpt lat="46.4543" lon="6.32414" /><trkpt lat="46.45448" lon="6.3244" /><trkpt lat="46.45466" lon="6.32466" /><trkpt lat="46.45482" lon="6.32489" /><trkpt lat="46.45484" lon="6.32493" /><trkpt lat="46.45502" lon="6.32517" /><trkpt lat="46.45599" lon="6.32655" /><trkpt lat="46.45607" lon="6.32667" /><trkpt lat="46.45761" lon="6.32884" /><trkpt lat="46.45994" lon="6.33215" /><trkpt lat="46.46027" lon="6.33261" /><trkpt lat="46.46074" lon="6.33327" /><trkpt lat="46.46096" lon="6.33359" /><trkpt lat="46.46131" lon="6.33408" /><trkpt lat="46.46148" lon="6.33432" /><trkpt lat="46.46161" lon="6.33452" /><trkpt lat="46.46164" lon="6.33457" /><trkpt lat="46.4618" lon="6.33481" /><trkpt lat="46.46188" lon="6.33494" /><trkpt lat="46.46196" lon="6.33507" /><trkpt lat="46.46203" lon="6.33519" /><trkpt lat="46.4621" lon="6.33531" /><trkpt lat="46.46225" lon="6.33556" /><trkpt lat="46.46239" lon="6.33582" /><trkpt lat="46.46246" lon="6.33595" /><trkpt lat="46.46253" lon="6.33607" /><trkpt lat="46.46255" lon="6.33612" /><trkpt lat="46.4626" lon="6.33622" /><trkpt lat="46.46278" lon="6.33658" /><trkpt lat="46.46281" lon="6.33664" /><trkpt lat="46.46294" lon="6.3369" /><trkpt lat="46.46307" lon="6.33717" /><trkpt lat="46.46319" lon="6.33744" /><trkpt lat="46.4633" lon="6.3377" /><trkpt lat="46.46339" lon="6.3379" /><trkpt lat="46.46345" lon="6.33805" /><trkpt lat="46.46359" lon="6.3384" /><trkpt lat="46.46371" lon="6.33874" /><trkpt lat="46.46375" lon="6.33885" /><trkpt lat="46.46381" lon="6.33902" /><trkpt lat="46.46391" lon="6.33929" /><trkpt lat="46.46399" lon="6.33954" /><trkpt lat="46.46407" lon="6.33979" /><trkpt lat="46.46416" lon="6.34007" /><trkpt lat="46.46424" lon="6.34036" /><trkpt lat="46.4643" lon="6.34056" /><trkpt lat="46.46443" lon="6.34104" /><trkpt lat="46.4645" lon="6.34132" /><trkpt lat="46.46458" lon="6.34165" /><trkpt lat="46.46483" lon="6.34268" /><trkpt lat="46.46493" lon="6.34309" /><trkpt lat="46.46498" lon="6.3433" /><trkpt lat="46.46504" lon="6.3435" /><trkpt lat="46.46509" lon="6.34371" /><trkpt lat="46.46515" lon="6.34391" /><trkpt lat="46.4652" lon="6.34412" /><trkpt lat="46.46526" lon="6.34432" /><trkpt lat="46.46535" lon="6.34462" /><trkpt lat="46.46545" lon="6.34495" /><trkpt lat="46.46555" lon="6.34524" /><trkpt lat="46.46566" lon="6.34557" /><trkpt lat="46.46581" lon="6.346" /><trkpt lat="46.46584" lon="6.34609" /><trkpt lat="46.466" lon="6.3465" /><trkpt lat="46.46613" lon="6.34685" /><trkpt lat="46.46626" lon="6.34716" /><trkpt lat="46.46639" lon="6.34747" /><trkpt lat="46.46652" lon="6.34776" /><trkpt lat="46.46665" lon="6.34805" /><trkpt lat="46.46678" lon="6.34832" /><trkpt lat="46.46691" lon="6.3486" /><trkpt lat="46.46705" lon="6.34887" /><trkpt lat="46.46719" lon="6.34914" /><trkpt lat="46.46746" lon="6.34967" /><trkpt lat="46.46775" lon="6.35021" /><trkpt lat="46.46804" lon="6.35077" /><trkpt lat="46.46818" lon="6.35105" /><trkpt lat="46.46833" lon="6.35134" /><trkpt lat="46.46845" lon="6.35161" /><trkpt lat="46.46858" lon="6.35188" /><trkpt lat="46.4687" lon="6.35216" /><trkpt lat="46.46882" lon="6.35243" /><trkpt lat="46.46893" lon="6.3527" /><trkpt lat="46.46904" lon="6.35297" /><trkpt lat="46.46909" lon="6.35312" /><trkpt lat="46.46915" lon="6.35327" /><trkpt lat="46.4692" lon="6.35342" /><trkpt lat="46.46926" lon="6.35357" /><trkpt lat="46.46936" lon="6.35387" /><trkpt lat="46.46947" lon="6.35417" /><trkpt lat="46.46957" lon="6.35449" /><trkpt lat="46.46967" lon="6.35482" /><trkpt lat="46.46976" lon="6.35514" /><trkpt lat="46.46985" lon="6.35547" /><trkpt lat="46.46993" lon="6.35579" /><trkpt lat="46.47001" lon="6.35611" /><trkpt lat="46.47008" lon="6.35643" /><trkpt lat="46.47016" lon="6.35675" /><trkpt lat="46.47022" lon="6.35707" /><trkpt lat="46.47029" lon="6.3574" /><trkpt lat="46.47068" lon="6.35932" /><trkpt lat="46.47087" lon="6.36027" /><trkpt lat="46.47096" lon="6.36075" /><trkpt lat="46.47106" lon="6.36122" /><trkpt lat="46.47112" lon="6.36156" /><trkpt lat="46.47118" lon="6.3619" /><trkpt lat="46.47124" lon="6.36224" /><trkpt lat="46.47127" lon="6.36243" /><trkpt lat="46.47128" lon="6.36248" /><trkpt lat="46.4713" lon="6.36259" /><trkpt lat="46.47135" lon="6.3629" /><trkpt lat="46.4714" lon="6.36322" /><trkpt lat="46.47144" lon="6.36354" /><trkpt lat="46.47148" lon="6.36386" /><trkpt lat="46.47155" lon="6.36454" /><trkpt lat="46.47159" lon="6.36487" /><trkpt lat="46.47161" lon="6.36521" /><trkpt lat="46.47164" lon="6.36555" /><trkpt lat="46.47166" lon="6.3659" /><trkpt lat="46.47168" lon="6.36625" /><trkpt lat="46.47169" lon="6.3666" /><trkpt lat="46.4717" lon="6.36697" /><trkpt lat="46.47171" lon="6.36733" /><trkpt lat="46.47171" lon="6.3677" /><trkpt lat="46.4717" lon="6.36806" /><trkpt lat="46.4717" lon="6.36842" /><trkpt lat="46.47169" lon="6.36879" /><trkpt lat="46.47167" lon="6.36914" /><trkpt lat="46.47166" lon="6.36949" /><trkpt lat="46.47164" lon="6.36982" /><trkpt lat="46.47162" lon="6.37001" /><trkpt lat="46.47161" lon="6.37021" /><trkpt lat="46.47158" lon="6.37058" /><trkpt lat="46.47155" lon="6.37094" /><trkpt lat="46.47151" lon="6.3713" /><trkpt lat="46.47147" lon="6.37166" /><trkpt lat="46.47139" lon="6.37238" /><trkpt lat="46.47122" lon="6.37382" /><trkpt lat="46.47118" lon="6.37416" /><trkpt lat="46.47115" lon="6.37451" /><trkpt lat="46.47112" lon="6.37485" /><trkpt lat="46.4711" lon="6.37518" /><trkpt lat="46.47108" lon="6.37552" /><trkpt lat="46.47106" lon="6.37586" /><trkpt lat="46.47105" lon="6.37618" /><trkpt lat="46.47104" lon="6.3765" /><trkpt lat="46.47104" lon="6.37683" /><trkpt lat="46.47104" lon="6.37715" /><trkpt lat="46.47105" lon="6.37747" /><trkpt lat="46.47106" lon="6.3778" /><trkpt lat="46.47108" lon="6.37812" /><trkpt lat="46.4711" lon="6.37845" /><trkpt lat="46.47112" lon="6.37877" /><trkpt lat="46.47115" lon="6.37909" /><trkpt lat="46.47118" lon="6.37941" /><trkpt lat="46.47122" lon="6.37973" /><trkpt lat="46.47126" lon="6.38005" /><trkpt lat="46.47131" lon="6.38037" /><trkpt lat="46.47136" lon="6.38068" /><trkpt lat="46.47142" lon="6.381" /><trkpt lat="46.47148" lon="6.38133" /><trkpt lat="46.47155" lon="6.38165" /><trkpt lat="46.47157" lon="6.38176" /><trkpt lat="46.47165" lon="6.38213" /><trkpt lat="46.47259" lon="6.3862" /><trkpt lat="46.47297" lon="6.38788" /><trkpt lat="46.47391" lon="6.39193" /><trkpt lat="46.47477" lon="6.39569" /><trkpt lat="46.47564" lon="6.3995" /><trkpt lat="46.47575" lon="6.39999" /><trkpt lat="46.47583" lon="6.40035" /><trkpt lat="46.47591" lon="6.40071" /><trkpt lat="46.47597" lon="6.40101" /><trkpt lat="46.47601" lon="6.40121" /><trkpt lat="46.47605" lon="6.40141" /><trkpt lat="46.47611" lon="6.40172" /><trkpt lat="46.47616" lon="6.40204" /><trkpt lat="46.47622" lon="6.40238" /><trkpt lat="46.47627" lon="6.40272" /><trkpt lat="46.47632" lon="6.40307" /><trkpt lat="46.47637" lon="6.40343" /><trkpt lat="46.47642" lon="6.40379" /><trkpt lat="46.47646" lon="6.40416" /><trkpt lat="46.47649" lon="6.4044" /><trkpt lat="46.47651" lon="6.40459" /><trkpt lat="46.47653" lon="6.40479" /><trkpt lat="46.47656" lon="6.40501" /><trkpt lat="46.47657" lon="6.40518" /><trkpt lat="46.47663" lon="6.40583" /><trkpt lat="46.47678" lon="6.4076" /><trkpt lat="46.47681" lon="6.40799" /><trkpt lat="46.47684" lon="6.40837" /><trkpt lat="46.47685" lon="6.40867" /><trkpt lat="46.47687" lon="6.40897" /><trkpt lat="46.47687" lon="6.40928" /><trkpt lat="46.47688" lon="6.40944" /><trkpt lat="46.47688" lon="6.40959" /><trkpt lat="46.47688" lon="6.40975" /><trkpt lat="46.47687" lon="6.40991" /><trkpt lat="46.47687" lon="6.41006" /><trkpt lat="46.47687" lon="6.41022" /><trkpt lat="46.47687" lon="6.41038" /><trkpt lat="46.47686" lon="6.41053" /><trkpt lat="46.47685" lon="6.41069" /><trkpt lat="46.47685" lon="6.41084" /><trkpt lat="46.47684" lon="6.411" /><trkpt lat="46.47683" lon="6.41116" /><trkpt lat="46.47682" lon="6.41131" /><trkpt lat="46.47681" lon="6.41147" /><trkpt lat="46.47679" lon="6.41164" /><trkpt lat="46.47678" lon="6.4118" /><trkpt lat="46.47676" lon="6.41197" /><trkpt lat="46.47675" lon="6.41214" /><trkpt lat="46.47668" lon="6.41281" /><trkpt lat="46.47661" lon="6.41348" /><trkpt lat="46.47653" lon="6.4142" /><trkpt lat="46.47638" lon="6.41562" /><trkpt lat="46.47515" lon="6.42704" /><trkpt lat="46.47504" lon="6.42803" /><trkpt lat="46.47502" lon="6.42824" /><trkpt lat="46.47496" lon="6.42885" /><trkpt lat="46.47489" lon="6.42952" /><trkpt lat="46.47485" lon="6.42987" /><trkpt lat="46.47483" lon="6.43022" /><trkpt lat="46.4748" lon="6.43056" /><trkpt lat="46.47479" lon="6.43089" /><trkpt lat="46.47478" lon="6.43123" /><trkpt lat="46.47477" lon="6.43157" /><trkpt lat="46.47477" lon="6.4319" /><trkpt lat="46.47477" lon="6.43222" /><trkpt lat="46.47478" lon="6.43256" /><trkpt lat="46.47479" lon="6.4329" /><trkpt lat="46.47481" lon="6.43325" /><trkpt lat="46.47483" lon="6.4336" /><trkpt lat="46.47486" lon="6.43393" /><trkpt lat="46.47489" lon="6.43424" /><trkpt lat="46.47493" lon="6.43458" /><trkpt lat="46.47497" lon="6.43492" /><trkpt lat="46.47502" lon="6.43526" /><trkpt lat="46.47507" lon="6.4356" /><trkpt lat="46.47513" lon="6.43593" /><trkpt lat="46.47519" lon="6.43626" /><trkpt lat="46.47526" lon="6.43658" /><trkpt lat="46.47533" lon="6.43691" /><trkpt lat="46.4754" lon="6.43722" /><trkpt lat="46.47548" lon="6.43754" /><trkpt lat="46.4756" lon="6.43796" /><trkpt lat="46.47573" lon="6.43844" /><trkpt lat="46.47587" lon="6.4389" /><trkpt lat="46.47833" lon="6.44719" /><trkpt lat="46.47875" lon="6.4486" /><trkpt lat="46.47883" lon="6.44886" /><trkpt lat="46.47917" lon="6.45" /><trkpt lat="46.47932" lon="6.4505" /><trkpt lat="46.4794" lon="6.45073" /><trkpt lat="46.47947" lon="6.45095" /><trkpt lat="46.47958" lon="6.45125" /><trkpt lat="46.47968" lon="6.4515" /><trkpt lat="46.47979" lon="6.45178" /><trkpt lat="46.47991" lon="6.45206" /><trkpt lat="46.48001" lon="6.45229" /><trkpt lat="46.48011" lon="6.45252" /><trkpt lat="46.48023" lon="6.45276" /><trkpt lat="46.48036" lon="6.45302" /><trkpt lat="46.48047" lon="6.45322" /><trkpt lat="46.48054" lon="6.45334" /><trkpt lat="46.48061" lon="6.45345" /><trkpt lat="46.48071" lon="6.45363" /><trkpt lat="46.48082" lon="6.45382" /><trkpt lat="46.48093" lon="6.45399" /><trkpt lat="46.48104" lon="6.45416" /><trkpt lat="46.48116" lon="6.45434" /><trkpt lat="46.48128" lon="6.45451" /><trkpt lat="46.48139" lon="6.45465" /><trkpt lat="46.48147" lon="6.45476" /><trkpt lat="46.48155" lon="6.45486" /><trkpt lat="46.48169" lon="6.45503" /><trkpt lat="46.48182" lon="6.45519" /><trkpt lat="46.48194" lon="6.45534" /><trkpt lat="46.48208" lon="6.45549" /><trkpt lat="46.48216" lon="6.45557" /><trkpt lat="46.48223" lon="6.45565" /><trkpt lat="46.48233" lon="6.45576" /><trkpt lat="46.48258" lon="6.456" /><trkpt lat="46.48281" lon="6.45623" /><trkpt lat="46.48312" lon="6.45653" /><trkpt lat="46.48346" lon="6.45684" /><trkpt lat="46.48361" lon="6.45699" /><trkpt lat="46.48394" lon="6.4573" /><trkpt lat="46.48403" lon="6.45738" /><trkpt lat="46.48483" lon="6.45814" /><trkpt lat="46.48507" lon="6.45838" /><trkpt lat="46.48528" lon="6.45859" /><trkpt lat="46.48548" lon="6.45879" /><trkpt lat="46.48581" lon="6.45914" /><trkpt lat="46.48597" lon="6.45931" /><trkpt lat="46.48612" lon="6.45948" /><trkpt lat="46.48643" lon="6.45983" /><trkpt lat="46.48675" lon="6.46021" /><trkpt lat="46.48682" lon="6.46029" /><trkpt lat="46.48696" lon="6.46046" /><trkpt lat="46.48709" lon="6.46063" /><trkpt lat="46.48736" lon="6.46097" /><trkpt lat="46.48754" lon="6.46121" /><trkpt lat="46.48772" lon="6.46144" /><trkpt lat="46.4879" lon="6.46169" /><trkpt lat="46.48808" lon="6.46193" /><trkpt lat="46.48821" lon="6.46211" /><trkpt lat="46.48834" lon="6.4623" /><trkpt lat="46.48859" lon="6.46266" /><trkpt lat="46.48885" lon="6.46304" /><trkpt lat="46.4891" lon="6.46342" /><trkpt lat="46.49108" lon="6.46635" /><trkpt lat="46.49305" lon="6.46928" /><trkpt lat="46.49308" lon="6.46932" /><trkpt lat="46.49464" lon="6.47164" /><trkpt lat="46.49468" lon="6.47169" /><trkpt lat="46.49584" lon="6.47342" /><trkpt lat="46.49601" lon="6.47368" /><trkpt lat="46.49616" lon="6.47391" /><trkpt lat="46.4963" lon="6.47413" /><trkpt lat="46.49647" lon="6.4744" /><trkpt lat="46.49662" lon="6.47467" /><trkpt lat="46.49669" lon="6.47479" /><trkpt lat="46.49675" lon="6.4749" /><trkpt lat="46.49681" lon="6.47502" /><trkpt lat="46.49687" lon="6.47514" /><trkpt lat="46.49699" lon="6.47538" /><trkpt lat="46.4971" lon="6.47561" /><trkpt lat="46.49719" lon="6.47581" /><trkpt lat="46.49733" lon="6.47613" /><trkpt lat="46.49745" lon="6.47642" /><trkpt lat="46.49755" lon="6.47669" /><trkpt lat="46.49765" lon="6.47696" /><trkpt lat="46.49774" lon="6.47723" /><trkpt lat="46.49784" lon="6.47752" /><trkpt lat="46.49792" lon="6.47778" /><trkpt lat="46.49831" lon="6.47901" /><trkpt lat="46.49847" lon="6.4795" /><trkpt lat="46.49857" lon="6.47981" /><trkpt lat="46.49867" lon="6.48008" /><trkpt lat="46.49878" lon="6.48037" /><trkpt lat="46.49889" lon="6.48063" /><trkpt lat="46.49895" lon="6.48076" /><trkpt lat="46.49901" lon="6.4809" /><trkpt lat="46.49912" lon="6.48115" /><trkpt lat="46.49925" lon="6.48142" /><trkpt lat="46.49937" lon="6.48166" /><trkpt lat="46.49951" lon="6.48192" /><trkpt lat="46.49964" lon="6.48214" /><trkpt lat="46.49978" lon="6.4824" /><trkpt lat="46.49992" lon="6.48261" /><trkpt lat="46.50007" lon="6.48285" /><trkpt lat="46.50022" lon="6.48307" /><trkpt lat="46.50034" lon="6.48324" /><trkpt lat="46.50045" lon="6.4834" /><trkpt lat="46.50051" lon="6.48347" /><trkpt lat="46.50069" lon="6.4837" /><trkpt lat="46.50079" lon="6.48382" /><trkpt lat="46.50088" lon="6.48393" /><trkpt lat="46.50104" lon="6.48412" /><trkpt lat="46.50119" lon="6.48428" /><trkpt lat="46.50138" lon="6.48447" /><trkpt lat="46.50155" lon="6.48465" /><trkpt lat="46.50174" lon="6.48482" /><trkpt lat="46.50191" lon="6.48498" /><trkpt lat="46.5021" lon="6.48514" /><trkpt lat="46.50228" lon="6.48529" /><trkpt lat="46.50252" lon="6.48547" /><trkpt lat="46.50265" lon="6.48556" /><trkpt lat="46.50276" lon="6.48564" /><trkpt lat="46.50298" lon="6.48578" /><trkpt lat="46.50318" lon="6.48591" /><trkpt lat="46.50347" lon="6.48609" /><trkpt lat="46.50353" lon="6.48613" /><trkpt lat="46.50446" lon="6.48672" /><trkpt lat="46.50497" lon="6.48703" /><trkpt lat="46.50547" lon="6.48735" /><trkpt lat="46.50569" lon="6.48749" /><trkpt lat="46.50586" lon="6.48761" /><trkpt lat="46.50598" lon="6.48769" /><trkpt lat="46.50617" lon="6.48783" /><trkpt lat="46.50629" lon="6.48791" /><trkpt lat="46.50638" lon="6.48798" /><trkpt lat="46.50652" lon="6.48809" /><trkpt lat="46.50667" lon="6.4882" /><trkpt lat="46.50681" lon="6.48832" /><trkpt lat="46.50695" lon="6.48844" /><trkpt lat="46.50734" lon="6.48878" /><trkpt lat="46.50755" lon="6.48898" /><trkpt lat="46.50765" lon="6.48907" /><trkpt lat="46.50775" lon="6.48917" /><trkpt lat="46.50785" lon="6.48927" /><trkpt lat="46.50795" lon="6.48937" /><trkpt lat="46.50804" lon="6.48947" /><trkpt lat="46.50814" lon="6.48958" /><trkpt lat="46.50826" lon="6.4897" /><trkpt lat="46.50838" lon="6.48984" /><trkpt lat="46.50851" lon="6.48999" /><trkpt lat="46.50877" lon="6.49029" /><trkpt lat="46.50891" lon="6.49047" /><trkpt lat="46.50907" lon="6.49067" /><trkpt lat="46.50926" lon="6.49091" /><trkpt lat="46.50944" lon="6.49115" /><trkpt lat="46.50966" lon="6.49144" /><trkpt lat="46.51002" lon="6.49194" /><trkpt lat="46.5102" lon="6.4922" /><trkpt lat="46.51038" lon="6.49246" /><trkpt lat="46.51056" lon="6.49272" /><trkpt lat="46.51074" lon="6.49299" /><trkpt lat="46.51091" lon="6.49325" /><trkpt lat="46.51108" lon="6.49352" /><trkpt lat="46.51133" lon="6.49392" /><trkpt lat="46.51175" lon="6.49458" /><trkpt lat="46.51183" lon="6.49471" /><trkpt lat="46.51191" lon="6.49484" /><trkpt lat="46.51207" lon="6.49511" /><trkpt lat="46.51238" lon="6.49564" /><trkpt lat="46.51269" lon="6.49619" /><trkpt lat="46.51284" lon="6.49648" /><trkpt lat="46.513" lon="6.49677" /><trkpt lat="46.51333" lon="6.49739" /><trkpt lat="46.51359" lon="6.49788" /><trkpt lat="46.51377" lon="6.49823" /><trkpt lat="46.51391" lon="6.49849" /><trkpt lat="46.51404" lon="6.49876" /><trkpt lat="46.5141" lon="6.4989" /><trkpt lat="46.51417" lon="6.49903" /><trkpt lat="46.51425" lon="6.49921" /><trkpt lat="46.51436" lon="6.49947" /><trkpt lat="46.51445" lon="6.49966" /><trkpt lat="46.51451" lon="6.4998" /><trkpt lat="46.51458" lon="6.49996" /><trkpt lat="46.51471" lon="6.50028" /><trkpt lat="46.51482" lon="6.50057" /><trkpt lat="46.51497" lon="6.50094" /><trkpt lat="46.51518" lon="6.50147" /><trkpt lat="46.51531" lon="6.5018" /><trkpt lat="46.51544" lon="6.50214" /><trkpt lat="46.51556" lon="6.50242" /><trkpt lat="46.51569" lon="6.5027" /><trkpt lat="46.51807" lon="6.50805" /><trkpt lat="46.51866" lon="6.50937" /><trkpt lat="46.51923" lon="6.51064" /><trkpt lat="46.5208" lon="6.51417" /><trkpt lat="46.52149" lon="6.51572" /><trkpt lat="46.52178" lon="6.51638" /><trkpt lat="46.52193" lon="6.51671" /><trkpt lat="46.52207" lon="6.51704" /><trkpt lat="46.52221" lon="6.51737" /><trkpt lat="46.52236" lon="6.51771" /><trkpt lat="46.52249" lon="6.51802" /><trkpt lat="46.52261" lon="6.51833" /><trkpt lat="46.52272" lon="6.51859" /><trkpt lat="46.52292" lon="6.51909" /><trkpt lat="46.52299" lon="6.51926" /><trkpt lat="46.52307" lon="6.51949" /><trkpt lat="46.52319" lon="6.5198" /><trkpt lat="46.52337" lon="6.52026" /><trkpt lat="46.5234" lon="6.52034" /><trkpt lat="46.52347" lon="6.52052" /><trkpt lat="46.52365" lon="6.521" /><trkpt lat="46.52388" lon="6.52164" /><trkpt lat="46.52402" lon="6.522" /><trkpt lat="46.52415" lon="6.52237" /><trkpt lat="46.52427" lon="6.52272" /><trkpt lat="46.52439" lon="6.52307" /><trkpt lat="46.52447" lon="6.52328" /><trkpt lat="46.52467" lon="6.52387" /><trkpt lat="46.52485" lon="6.52439" /><trkpt lat="46.52498" lon="6.52479" /><trkpt lat="46.5251" lon="6.52519" /><trkpt lat="46.52522" lon="6.52554" /><trkpt lat="46.52533" lon="6.5259" /><trkpt lat="46.52544" lon="6.52626" /><trkpt lat="46.52555" lon="6.52661" /><trkpt lat="46.52565" lon="6.52695" /><trkpt lat="46.52576" lon="6.52733" /><trkpt lat="46.52586" lon="6.52769" /><trkpt lat="46.52597" lon="6.52806" /><trkpt lat="46.52607" lon="6.5284" /><trkpt lat="46.52616" lon="6.52875" /><trkpt lat="46.52636" lon="6.52947" /><trkpt lat="46.52655" lon="6.53018" /><trkpt lat="46.52659" lon="6.53036" /><trkpt lat="46.52673" lon="6.53089" /><trkpt lat="46.52681" lon="6.53119" /><trkpt lat="46.52689" lon="6.5315" /><trkpt lat="46.52696" lon="6.5318" /><trkpt lat="46.52704" lon="6.53211" /><trkpt lat="46.52711" lon="6.53241" /><trkpt lat="46.52718" lon="6.53272" /><trkpt lat="46.52728" lon="6.53316" /><trkpt lat="46.52738" lon="6.5336" /><trkpt lat="46.52748" lon="6.53404" /><trkpt lat="46.52757" lon="6.53447" /><trkpt lat="46.52796" lon="6.53623" /><trkpt lat="46.52825" lon="6.53754" /><trkpt lat="46.52832" lon="6.53788" /><trkpt lat="46.5284" lon="6.53822" /><trkpt lat="46.52845" lon="6.53843" /><trkpt lat="46.5285" lon="6.53863" /><trkpt lat="46.52861" lon="6.53905" /><trkpt lat="46.52871" lon="6.53942" /><trkpt lat="46.52879" lon="6.53969" /><trkpt lat="46.52888" lon="6.53997" /><trkpt lat="46.52901" lon="6.54037" /><trkpt lat="46.52909" lon="6.54061" /><trkpt lat="46.52917" lon="6.54083" /><trkpt lat="46.52927" lon="6.54109" /><trkpt lat="46.52937" lon="6.54135" /><trkpt lat="46.52942" lon="6.54148" /><trkpt lat="46.52956" lon="6.54183" /><trkpt lat="46.52979" lon="6.54237" /><trkpt lat="46.5299" lon="6.54261" /><trkpt lat="46.53007" lon="6.54297" /><trkpt lat="46.53016" lon="6.54315" /><trkpt lat="46.53025" lon="6.54332" /><trkpt lat="46.53034" lon="6.5435" /><trkpt lat="46.53044" lon="6.54367" /><trkpt lat="46.53062" lon="6.544" /><trkpt lat="46.5308" lon="6.54432" /><trkpt lat="46.53162" lon="6.54578" /><trkpt lat="46.53262" lon="6.54755" /><trkpt lat="46.53314" lon="6.54846" /><trkpt lat="46.53332" lon="6.54879" /><trkpt lat="46.53375" lon="6.54955" /><trkpt lat="46.53447" lon="6.55083" /><trkpt lat="46.53482" lon="6.55145" /><trkpt lat="46.53483" lon="6.55147" /><trkpt lat="46.53519" lon="6.5521" /><trkpt lat="46.53555" lon="6.55275" /><trkpt lat="46.53566" lon="6.55293" /><trkpt lat="46.53577" lon="6.55312" /><trkpt lat="46.53588" lon="6.5533" /><trkpt lat="46.53599" lon="6.55348" /><trkpt lat="46.53611" lon="6.55365" /><trkpt lat="46.53622" lon="6.55382" /><trkpt lat="46.53636" lon="6.554" /><trkpt lat="46.53649" lon="6.55418" /><trkpt lat="46.53663" lon="6.55435" /><trkpt lat="46.53678" lon="6.55452" /><trkpt lat="46.53692" lon="6.55468" /><trkpt lat="46.53708" lon="6.55484" /><trkpt lat="46.53716" lon="6.55492" /><trkpt lat="46.53724" lon="6.555" /><trkpt lat="46.53732" lon="6.55508" /><trkpt lat="46.5374" lon="6.55516" /><trkpt lat="46.53749" lon="6.55524" /><trkpt lat="46.53758" lon="6.55531" /><trkpt lat="46.53767" lon="6.55538" /><trkpt lat="46.53776" lon="6.55545" /><trkpt lat="46.53785" lon="6.55552" /><trkpt lat="46.5379" lon="6.55557" /><trkpt lat="46.53794" lon="6.55559" /><trkpt lat="46.53803" lon="6.55566" /><trkpt lat="46.53813" lon="6.55573" /><trkpt lat="46.53837" lon="6.55588" /><trkpt lat="46.53852" lon="6.55596" /><trkpt lat="46.53866" lon="6.55604" /><trkpt lat="46.53878" lon="6.5561" /><trkpt lat="46.53902" lon="6.55621" /><trkpt lat="46.53961" lon="6.55648" /><trkpt lat="46.53965" lon="6.55649" /><trkpt lat="46.53976" lon="6.55654" /><trkpt lat="46.53987" lon="6.5566" /><trkpt lat="46.54005" lon="6.55669" /><trkpt lat="46.54016" lon="6.55675" /><trkpt lat="46.54042" lon="6.55692" /><trkpt lat="46.54092" lon="6.55728" /><trkpt lat="46.54108" lon="6.5574" /><trkpt lat="46.54118" lon="6.55749" /><trkpt lat="46.54127" lon="6.55757" /><trkpt lat="46.54136" lon="6.55766" /><trkpt lat="46.54146" lon="6.55775" /><trkpt lat="46.54156" lon="6.55785" /><trkpt lat="46.54164" lon="6.55795" /><trkpt lat="46.54172" lon="6.55804" /><trkpt lat="46.5418" lon="6.55813" /><trkpt lat="46.54187" lon="6.55823" /><trkpt lat="46.54198" lon="6.55839" /><trkpt lat="46.5421" lon="6.55856" /><trkpt lat="46.54218" lon="6.5587" /><trkpt lat="46.54226" lon="6.55883" /><trkpt lat="46.54235" lon="6.559" /><trkpt lat="46.54244" lon="6.55918" /><trkpt lat="46.54252" lon="6.55934" /><trkpt lat="46.54268" lon="6.55969" /><trkpt lat="46.5428" lon="6.55996" /><trkpt lat="46.5429" lon="6.56023" /><trkpt lat="46.54299" lon="6.56044" /><trkpt lat="46.54307" lon="6.56067" /><trkpt lat="46.54313" lon="6.56086" /><trkpt lat="46.54319" lon="6.56109" /><trkpt lat="46.54325" lon="6.56131" /><trkpt lat="46.54327" lon="6.56143" /><trkpt lat="46.54327" lon="6.56144" /><trkpt lat="46.54329" lon="6.56152" /><trkpt lat="46.54333" lon="6.5617" /><trkpt lat="46.54336" lon="6.56189" /><trkpt lat="46.54339" lon="6.56206" /><trkpt lat="46.54341" lon="6.56225" /><trkpt lat="46.54343" lon="6.56244" /><trkpt lat="46.54344" lon="6.56261" /><trkpt lat="46.54346" lon="6.56286" /><trkpt lat="46.54347" lon="6.56311" /><trkpt lat="46.54348" lon="6.56329" /><trkpt lat="46.54349" lon="6.56358" /><trkpt lat="46.54349" lon="6.56386" /><trkpt lat="46.5435" lon="6.56408" /><trkpt lat="46.5435" lon="6.56456" /><trkpt lat="46.5435" lon="6.56496" /><trkpt lat="46.5435" lon="6.56516" /><trkpt lat="46.54349" lon="6.56535" /><trkpt lat="46.54347" lon="6.56556" /><trkpt lat="46.54345" lon="6.56579" /><trkpt lat="46.54343" lon="6.56593" /><trkpt lat="46.5434" lon="6.56611" /><trkpt lat="46.54337" lon="6.5663" /><trkpt lat="46.54336" lon="6.56638" /><trkpt lat="46.54334" lon="6.56648" /><trkpt lat="46.5433" lon="6.56663" /><trkpt lat="46.54325" lon="6.56683" /><trkpt lat="46.5432" lon="6.56701" /><trkpt lat="46.54314" lon="6.5672" /><trkpt lat="46.54306" lon="6.56746" /><trkpt lat="46.54298" lon="6.56769" /><trkpt lat="46.54291" lon="6.56788" /><trkpt lat="46.5428" lon="6.56819" /><trkpt lat="46.5427" lon="6.56845" /><trkpt lat="46.5426" lon="6.56873" /><trkpt lat="46.54256" lon="6.56884" /><trkpt lat="46.54249" lon="6.56904" /><trkpt lat="46.54236" lon="6.56936" /><trkpt lat="46.54231" lon="6.56949" /><trkpt lat="46.54226" lon="6.56962" /><trkpt lat="46.54214" lon="6.56988" /><trkpt lat="46.54207" lon="6.57006" /><trkpt lat="46.54195" lon="6.57031" /><trkpt lat="46.54184" lon="6.57052" /><trkpt lat="46.54177" lon="6.57067" /><trkpt lat="46.5417" lon="6.57082" /><trkpt lat="46.54145" lon="6.5713" /><trkpt lat="46.54118" lon="6.57181" /><trkpt lat="46.54105" lon="6.57206" /><trkpt lat="46.54082" lon="6.5725" /><trkpt lat="46.54069" lon="6.57275" /><trkpt lat="46.54017" lon="6.57375" /><trkpt lat="46.54001" lon="6.57406" /><trkpt lat="46.53986" lon="6.57438" /><trkpt lat="46.53975" lon="6.5746" /><trkpt lat="46.53965" lon="6.57481" /><trkpt lat="46.53948" lon="6.57515" /><trkpt lat="46.53938" lon="6.57535" /><trkpt lat="46.53903" lon="6.57602" /><trkpt lat="46.53884" lon="6.57638" /><trkpt lat="46.53866" lon="6.57674" /><trkpt lat="46.53832" lon="6.57743" /><trkpt lat="46.53816" lon="6.57778" /><trkpt lat="46.53808" lon="6.57794" /><trkpt lat="46.53799" lon="6.57812" /><trkpt lat="46.5379" lon="6.57831" /><trkpt lat="46.53767" lon="6.57875" /><trkpt lat="46.53748" lon="6.57911" /><trkpt lat="46.53728" lon="6.57948" /><trkpt lat="46.53705" lon="6.5799" /><trkpt lat="46.53682" lon="6.58033" /><trkpt lat="46.5364" lon="6.58114" /><trkpt lat="46.53635" lon="6.58124" /><trkpt lat="46.53581" lon="6.58227" /><trkpt lat="46.53516" lon="6.5835" /><trkpt lat="46.53466" lon="6.58446" /><trkpt lat="46.53451" lon="6.58477" /><trkpt lat="46.5345" lon="6.58479" /><trkpt lat="46.53442" lon="6.58494" /><trkpt lat="46.53425" lon="6.5853" /><trkpt lat="46.53339" lon="6.58707" /><trkpt lat="46.53331" lon="6.58723" /><trkpt lat="46.5331" lon="6.58767" /><trkpt lat="46.53267" lon="6.5885" /><trkpt lat="46.53261" lon="6.58861" /><trkpt lat="46.53196" lon="6.58985" /><trkpt lat="46.53139" lon="6.59095" /><trkpt lat="46.53135" lon="6.59102" /><trkpt lat="46.5313" lon="6.59113" /><trkpt lat="46.53113" lon="6.59145" /><trkpt lat="46.53094" lon="6.59181" /><trkpt lat="46.53071" lon="6.59228" /><trkpt lat="46.53051" lon="6.59268" /><trkpt lat="46.53024" lon="6.59321" /><trkpt lat="46.53" lon="6.59375" /><trkpt lat="46.52976" lon="6.5943" /><trkpt lat="46.52959" lon="6.59474" /><trkpt lat="46.52953" lon="6.59487" /><trkpt lat="46.52932" lon="6.59545" /><trkpt lat="46.52886" lon="6.59679" /><trkpt lat="46.52832" lon="6.59835" /><trkpt lat="46.5279" lon="6.59957" /><trkpt lat="46.52753" lon="6.60061" /><trkpt lat="46.52742" lon="6.6009" /><trkpt lat="46.52723" lon="6.60143" /><trkpt lat="46.52706" lon="6.6019" /><trkpt lat="46.52678" lon="6.60273" /><trkpt lat="46.52667" lon="6.60304" /><trkpt lat="46.52656" lon="6.60337" /><trkpt lat="46.5263" lon="6.60414" /><trkpt lat="46.52612" lon="6.60469" /><trkpt lat="46.5259" lon="6.60538" /><trkpt lat="46.52571" lon="6.60595" /><trkpt lat="46.52548" lon="6.60662" /><trkpt lat="46.52476" lon="6.60871" /><trkpt lat="46.52449" lon="6.60949" /><trkpt lat="46.52411" lon="6.6106" /><trkpt lat="46.524" lon="6.61089" /><trkpt lat="46.52388" lon="6.6112" /><trkpt lat="46.52372" lon="6.61159" /><trkpt lat="46.52368" lon="6.61166" /><trkpt lat="46.52355" lon="6.61196" /><trkpt lat="46.52341" lon="6.61226" /><trkpt lat="46.52326" lon="6.61257" /><trkpt lat="46.52311" lon="6.61285" /><trkpt lat="46.52295" lon="6.61313" /><trkpt lat="46.52278" lon="6.61341" /><trkpt lat="46.52262" lon="6.61367" /><trkpt lat="46.52243" lon="6.61394" /><trkpt lat="46.52231" lon="6.61412" /><trkpt lat="46.52191" lon="6.61467" /><trkpt lat="46.52169" lon="6.61497" /><trkpt lat="46.52133" lon="6.61545" /><trkpt lat="46.52101" lon="6.61589" /><trkpt lat="46.52088" lon="6.61607" /><trkpt lat="46.51998" lon="6.61728" /><trkpt lat="46.51987" lon="6.61743" /><trkpt lat="46.51967" lon="6.61773" /><trkpt lat="46.51949" lon="6.61802" /><trkpt lat="46.51938" lon="6.61821" /><trkpt lat="46.51927" lon="6.61842" /><trkpt lat="46.51913" lon="6.61873" /><trkpt lat="46.51904" lon="6.61895" /><trkpt lat="46.51896" lon="6.61916" /><trkpt lat="46.51889" lon="6.61939" /><trkpt lat="46.51882" lon="6.61961" /><trkpt lat="46.51874" lon="6.61991" /><trkpt lat="46.5187" lon="6.62008" /><trkpt lat="46.51866" lon="6.62027" /><trkpt lat="46.51865" lon="6.62029" /><trkpt lat="46.5186" lon="6.62057" /><trkpt lat="46.51855" lon="6.62083" /><trkpt lat="46.51849" lon="6.62123" /><trkpt lat="46.51843" lon="6.62156" /><trkpt lat="46.51835" lon="6.62198" /><trkpt lat="46.51829" lon="6.62232" /><trkpt lat="46.51809" lon="6.62319" /><trkpt lat="46.51802" lon="6.62347" /><trkpt lat="46.51788" lon="6.62411" /><trkpt lat="46.51761" lon="6.62528" /><trkpt lat="46.5174" lon="6.62621" /><trkpt lat="46.51722" lon="6.62701" /><trkpt lat="46.51707" lon="6.62762" /><trkpt lat="46.51707" lon="6.62764" /><trkpt lat="46.51704" lon="6.62775" /><trkpt lat="46.51698" lon="6.62807" /><trkpt lat="46.51693" lon="6.62838" /><trkpt lat="46.51683" lon="6.62912" /><trkpt lat="46.51683" lon="6.62912" /></trkseg></trk></gpx>