<gpx version="1.1" creator="Trainlog.me"><trk><name>Trip Path</name><trkseg><trkpt lat="46.62457" lon="8.03255" /><trkpt lat="46.62458" lon="8.03252" /><trkpt lat="46.6246" lon="8.03238" /><trkpt lat="46.62462" lon="8.03223" /><trkpt lat="46.62464" lon="8.03212" /><trkpt lat="46.62467" lon="8.03198" /><trkpt lat="46.62469" lon="8.03188" /><trkpt lat="46.62472" lon="8.03176" /><trkpt lat="46.62476" lon="8.03165" /><trkpt lat="46.6248" lon="8.03154" /><trkpt lat="46.62483" lon="8.03146" /><trkpt lat="46.62487" lon="8.03137" /><trkpt lat="46.6249" lon="8.03129" /><trkpt lat="46.62498" lon="8.03113" /><trkpt lat="46.62502" lon="8.03106" /><trkpt lat="46.62511" lon="8.03091" /><trkpt lat="46.62516" lon="8.03082" /><trkpt lat="46.62521" lon="8.03072" /><trkpt lat="46.62527" lon="8.0306" /><trkpt lat="46.6253" lon="8.03051" /><trkpt lat="46.62534" lon="8.03039" /><trkpt lat="46.62538" lon="8.03029" /><trkpt lat="46.6254" lon="8.03019" /><trkpt lat="46.62579" lon="8.02862" /><trkpt lat="46.62585" lon="8.02833" /><trkpt lat="46.62585" lon="8.02814" /><trkpt lat="46.62585" lon="8.02798" /><trkpt lat="46.62583" lon="8.02779" /><trkpt lat="46.6258" lon="8.0276" /><trkpt lat="46.62576" lon="8.02744" /><trkpt lat="46.62569" lon="8.0271" /><trkpt lat="46.62566" lon="8.02689" /><trkpt lat="46.62565" lon="8.02669" /><trkpt lat="46.62565" lon="8.02652" /><trkpt lat="46.62567" lon="8.02637" /><trkpt lat="46.62569" lon="8.02622" /><trkpt lat="46.62592" lon="8.02522" /><trkpt lat="46.62619" lon="8.02406" /><trkpt lat="46.62626" lon="8.02381" /><trkpt lat="46.62633" lon="8.02362" /><trkpt lat="46.62643" lon="8.02337" /><trkpt lat="46.62649" lon="8.02319" /><trkpt lat="46.62652" lon="8.02303" /><trkpt lat="46.62654" lon="8.02286" /><trkpt lat="46.62654" lon="8.02279" /><trkpt lat="46.62654" lon="8.02271" /><trkpt lat="46.62654" lon="8.02253" /><trkpt lat="46.62652" lon="8.02237" /><trkpt lat="46.62649" lon="8.0222" /><trkpt lat="46.62644" lon="8.02203" /><trkpt lat="46.62641" lon="8.02193" /><trkpt lat="46.62637" lon="8.02184" /><trkpt lat="46.62635" lon="8.02178" /><trkpt lat="46.62628" lon="8.02166" /><trkpt lat="46.62619" lon="8.02149" /><trkpt lat="46.62608" lon="8.02127" /><trkpt lat="46.626" lon="8.02106" /><trkpt lat="46.62596" lon="8.02092" /><trkpt lat="46.62594" lon="8.0208" /><trkpt lat="46.62592" lon="8.02069" /><trkpt lat="46.62591" lon="8.02059" /><trkpt lat="46.62591" lon="8.02047" /><trkpt lat="46.62591" lon="8.02034" /><trkpt lat="46.62592" lon="8.02021" /><trkpt lat="46.62595" lon="8.01996" /><trkpt lat="46.62596" lon="8.01988" /><trkpt lat="46.62596" lon="8.01976" /><trkpt lat="46.62596" lon="8.0196" /><trkpt lat="46.62596" lon="8.01946" /><trkpt lat="46.62594" lon="8.01938" /><trkpt lat="46.62593" lon="8.01928" /><trkpt lat="46.6259" lon="8.01916" /><trkpt lat="46.62579" lon="8.01883" /><trkpt lat="46.62571" lon="8.01864" /><trkpt lat="46.62564" lon="8.01846" /><trkpt lat="46.6256" lon="8.01832" /><trkpt lat="46.62557" lon="8.01817" /><trkpt lat="46.62555" lon="8.01802" /><trkpt lat="46.62554" lon="8.01784" /><trkpt lat="46.62553" lon="8.01708" /><trkpt lat="46.62553" lon="8.01693" /><trkpt lat="46.62552" lon="8.01666" /><trkpt lat="46.62552" lon="8.01636" /><trkpt lat="46.62554" lon="8.01617" /><trkpt lat="46.62559" lon="8.01591" /><trkpt lat="46.62568" lon="8.01555" /><trkpt lat="46.62593" lon="8.0146" /><trkpt lat="46.62618" lon="8.01366" /><trkpt lat="46.62624" lon="8.01339" /><trkpt lat="46.62628" lon="8.01315" /><trkpt lat="46.62631" lon="8.01289" /><trkpt lat="46.62631" lon="8.01238" /><trkpt lat="46.62624" lon="8.0117" /><trkpt lat="46.62621" lon="8.01142" /><trkpt lat="46.6262" lon="8.01111" /><trkpt lat="46.62624" lon="8.01084" /><trkpt lat="46.62631" lon="8.01055" /><trkpt lat="46.62639" lon="8.01035" /><trkpt lat="46.62647" lon="8.01019" /><trkpt lat="46.62716" lon="8.00935" /><trkpt lat="46.62732" lon="8.00915" /><trkpt lat="46.62756" lon="8.00891" /><trkpt lat="46.62814" lon="8.00859" /><trkpt lat="46.62825" lon="8.00849" /><trkpt lat="46.62838" lon="8.00835" /><trkpt lat="46.62852" lon="8.00806" /><trkpt lat="46.62861" lon="8.00774" /><trkpt lat="46.62868" lon="8.00745" /><trkpt lat="46.62874" lon="8.00712" /><trkpt lat="46.62877" lon="8.00682" /><trkpt lat="46.62877" lon="8.00666" /><trkpt lat="46.62875" lon="8.00648" /><trkpt lat="46.62869" lon="8.00599" /><trkpt lat="46.62869" lon="8.00583" /><trkpt lat="46.6287" lon="8.0056" /><trkpt lat="46.62873" lon="8.00538" /><trkpt lat="46.62883" lon="8.00508" /><trkpt lat="46.62894" lon="8.00488" /><trkpt lat="46.62908" lon="8.00471" /><trkpt lat="46.62933" lon="8.00445" /><trkpt lat="46.62946" lon="8.00433" /><trkpt lat="46.6296" lon="8.00419" /><trkpt lat="46.62973" lon="8.00403" /><trkpt lat="46.63" lon="8.00367" /><trkpt lat="46.6303" lon="8.00328" /><trkpt lat="46.63093" lon="8.00245" /><trkpt lat="46.63159" lon="8.00158" /><trkpt lat="46.63211" lon="8.0007" /><trkpt lat="46.63239" lon="8.00011" /><trkpt lat="46.6327" lon="7.99945" /><trkpt lat="46.63275" lon="7.99935" /><trkpt lat="46.63325" lon="7.99822" /><trkpt lat="46.63342" lon="7.99786" /><trkpt lat="46.63356" lon="7.9976" /><trkpt lat="46.63372" lon="7.99733" /><trkpt lat="46.63391" lon="7.99704" /><trkpt lat="46.63406" lon="7.99682" /><trkpt lat="46.63418" lon="7.99662" /><trkpt lat="46.63426" lon="7.99645" /><trkpt lat="46.63433" lon="7.99629" /><trkpt lat="46.63507" lon="7.99452" /><trkpt lat="46.63525" lon="7.99404" /><trkpt lat="46.63533" lon="7.99378" /><trkpt lat="46.6354" lon="7.99357" /><trkpt lat="46.63547" lon="7.99328" /><trkpt lat="46.63553" lon="7.99301" /><trkpt lat="46.63559" lon="7.99274" /><trkpt lat="46.63563" lon="7.99247" /><trkpt lat="46.63566" lon="7.99219" /><trkpt lat="46.6357" lon="7.99189" /><trkpt lat="46.63572" lon="7.99159" /><trkpt lat="46.63573" lon="7.99114" /><trkpt lat="46.63571" lon="7.99034" /><trkpt lat="46.63554" lon="7.98039" /><trkpt lat="46.6355" lon="7.97802" /><trkpt lat="46.6355" lon="7.97783" /><trkpt lat="46.6355" lon="7.97765" /><trkpt lat="46.63551" lon="7.97748" /><trkpt lat="46.63552" lon="7.97733" /><trkpt lat="46.63554" lon="7.97723" /><trkpt lat="46.63556" lon="7.9771" /><trkpt lat="46.6356" lon="7.97686" /><trkpt lat="46.63574" lon="7.97617" /><trkpt lat="46.63579" lon="7.9759" /><trkpt lat="46.63584" lon="7.97562" /><trkpt lat="46.63591" lon="7.97522" /><trkpt lat="46.63594" lon="7.97508" /><trkpt lat="46.63595" lon="7.97493" /><trkpt lat="46.63597" lon="7.9748" /><trkpt lat="46.63597" lon="7.97466" /><trkpt lat="46.63598" lon="7.97431" /><trkpt lat="46.63599" lon="7.97421" /><trkpt lat="46.636" lon="7.97411" /><trkpt lat="46.63601" lon="7.97402" /><trkpt lat="46.63605" lon="7.97382" /><trkpt lat="46.63608" lon="7.97369" /><trkpt lat="46.63611" lon="7.97358" /><trkpt lat="46.63615" lon="7.9734" /><trkpt lat="46.6362" lon="7.97325" /><trkpt lat="46.63665" lon="7.97188" /><trkpt lat="46.63669" lon="7.97175" /><trkpt lat="46.63672" lon="7.97163" /><trkpt lat="46.63674" lon="7.97152" /><trkpt lat="46.63675" lon="7.97139" /><trkpt lat="46.63676" lon="7.97126" /><trkpt lat="46.63676" lon="7.97112" /><trkpt lat="46.63675" lon="7.971" /><trkpt lat="46.63672" lon="7.97069" /><trkpt lat="46.63671" lon="7.97056" /><trkpt lat="46.6367" lon="7.97047" /><trkpt lat="46.6367" lon="7.97038" /><trkpt lat="46.63669" lon="7.97025" /><trkpt lat="46.6367" lon="7.97013" /><trkpt lat="46.63671" lon="7.97001" /><trkpt lat="46.63673" lon="7.96989" /><trkpt lat="46.63676" lon="7.96977" /><trkpt lat="46.63679" lon="7.96965" /><trkpt lat="46.63683" lon="7.96955" /><trkpt lat="46.63687" lon="7.96945" /><trkpt lat="46.63692" lon="7.96935" /><trkpt lat="46.63697" lon="7.96925" /><trkpt lat="46.63712" lon="7.96902" /><trkpt lat="46.63718" lon="7.96892" /><trkpt lat="46.63724" lon="7.96882" /><trkpt lat="46.63728" lon="7.96871" /><trkpt lat="46.63731" lon="7.96863" /><trkpt lat="46.63734" lon="7.96854" /><trkpt lat="46.63738" lon="7.96842" /><trkpt lat="46.63739" lon="7.96834" /><trkpt lat="46.63741" lon="7.96822" /><trkpt lat="46.63742" lon="7.96812" /><trkpt lat="46.63743" lon="7.96803" /><trkpt lat="46.63743" lon="7.96793" /><trkpt lat="46.63744" lon="7.96771" /><trkpt lat="46.63744" lon="7.96761" /><trkpt lat="46.63745" lon="7.9675" /><trkpt lat="46.63746" lon="7.9674" /><trkpt lat="46.63747" lon="7.96732" /><trkpt lat="46.6375" lon="7.9672" /><trkpt lat="46.63753" lon="7.96707" /><trkpt lat="46.6381" lon="7.96489" /><trkpt lat="46.63813" lon="7.96476" /><trkpt lat="46.63814" lon="7.96469" /><trkpt lat="46.63816" lon="7.96455" /><trkpt lat="46.63817" lon="7.96445" /><trkpt lat="46.63817" lon="7.9643" /><trkpt lat="46.63817" lon="7.96413" /><trkpt lat="46.63813" lon="7.96299" /><trkpt lat="46.63811" lon="7.96234" /><trkpt lat="46.63811" lon="7.96228" /><trkpt lat="46.63807" lon="7.9608" /><trkpt lat="46.63806" lon="7.96069" /><trkpt lat="46.63804" lon="7.96057" /><trkpt lat="46.63802" lon="7.96044" /><trkpt lat="46.638" lon="7.96034" /><trkpt lat="46.63797" lon="7.96023" /><trkpt lat="46.63794" lon="7.96015" /><trkpt lat="46.6379" lon="7.96006" /><trkpt lat="46.63785" lon="7.95996" /><trkpt lat="46.63771" lon="7.95969" /><trkpt lat="46.63765" lon="7.95956" /><trkpt lat="46.63759" lon="7.95946" /><trkpt lat="46.63754" lon="7.95932" /><trkpt lat="46.63751" lon="7.95922" /><trkpt lat="46.63749" lon="7.9591" /><trkpt lat="46.63745" lon="7.95892" /><trkpt lat="46.63733" lon="7.95835" /><trkpt lat="46.63723" lon="7.95784" /><trkpt lat="46.63721" lon="7.95775" /><trkpt lat="46.6372" lon="7.95764" /><trkpt lat="46.63718" lon="7.95755" /><trkpt lat="46.63718" lon="7.95744" /><trkpt lat="46.63718" lon="7.95733" /><trkpt lat="46.63718" lon="7.95722" /><trkpt lat="46.6372" lon="7.95708" /><trkpt lat="46.63722" lon="7.9569" /><trkpt lat="46.63727" lon="7.95654" /><trkpt lat="46.63732" lon="7.95613" /><trkpt lat="46.63733" lon="7.956" /><trkpt lat="46.63736" lon="7.95587" /><trkpt lat="46.63737" lon="7.95578" /><trkpt lat="46.63741" lon="7.95566" /><trkpt lat="46.63744" lon="7.95555" /><trkpt lat="46.6375" lon="7.9554" /><trkpt lat="46.6376" lon="7.95515" /><trkpt lat="46.63772" lon="7.95486" /><trkpt lat="46.63779" lon="7.95466" /><trkpt lat="46.63784" lon="7.95448" /><trkpt lat="46.63788" lon="7.95432" /><trkpt lat="46.63792" lon="7.95414" /><trkpt lat="46.63796" lon="7.95396" /><trkpt lat="46.63798" lon="7.95379" /><trkpt lat="46.638" lon="7.95363" /><trkpt lat="46.63801" lon="7.95345" /><trkpt lat="46.63801" lon="7.95328" /><trkpt lat="46.63802" lon="7.95293" /><trkpt lat="46.63801" lon="7.95275" /><trkpt lat="46.63801" lon="7.9527" /><trkpt lat="46.638" lon="7.95254" /><trkpt lat="46.63799" lon="7.95239" /><trkpt lat="46.63798" lon="7.95226" /><trkpt lat="46.63796" lon="7.95211" /><trkpt lat="46.63794" lon="7.95203" /><trkpt lat="46.63792" lon="7.95192" /><trkpt lat="46.63789" lon="7.95176" /><trkpt lat="46.63786" lon="7.95162" /><trkpt lat="46.63783" lon="7.95151" /><trkpt lat="46.63781" lon="7.95141" /><trkpt lat="46.63776" lon="7.95127" /><trkpt lat="46.63752" lon="7.95046" /><trkpt lat="46.63743" lon="7.9502" /><trkpt lat="46.6374" lon="7.95008" /><trkpt lat="46.63738" lon="7.95003" /><trkpt lat="46.63736" lon="7.94995" /><trkpt lat="46.63733" lon="7.94981" /><trkpt lat="46.63729" lon="7.94961" /><trkpt lat="46.63727" lon="7.94952" /><trkpt lat="46.63724" lon="7.94943" /><trkpt lat="46.63719" lon="7.94924" /><trkpt lat="46.63715" lon="7.94908" /><trkpt lat="46.63712" lon="7.94895" /><trkpt lat="46.63708" lon="7.94876" /><trkpt lat="46.63702" lon="7.94848" /><trkpt lat="46.63696" lon="7.94816" /><trkpt lat="46.63689" lon="7.9478" /><trkpt lat="46.63687" lon="7.94769" /><trkpt lat="46.63685" lon="7.94756" /><trkpt lat="46.63684" lon="7.94744" /><trkpt lat="46.63684" lon="7.9474" /><trkpt lat="46.63681" lon="7.94715" /><trkpt lat="46.63679" lon="7.9469" /><trkpt lat="46.63677" lon="7.94664" /><trkpt lat="46.63667" lon="7.94554" /><trkpt lat="46.63662" lon="7.94503" /><trkpt lat="46.63659" lon="7.9448" /><trkpt lat="46.63657" lon="7.94458" /><trkpt lat="46.63651" lon="7.94415" /><trkpt lat="46.63638" lon="7.94332" /><trkpt lat="46.63637" lon="7.94328" /><trkpt lat="46.63632" lon="7.94294" /><trkpt lat="46.63625" lon="7.94246" /><trkpt lat="46.63624" lon="7.94242" /><trkpt lat="46.63615" lon="7.94181" /><trkpt lat="46.63611" lon="7.94156" /><trkpt lat="46.6361" lon="7.94148" /><trkpt lat="46.63608" lon="7.94137" /><trkpt lat="46.63606" lon="7.94119" /><trkpt lat="46.63605" lon="7.94101" /><trkpt lat="46.63604" lon="7.94087" /><trkpt lat="46.63603" lon="7.9407" /><trkpt lat="46.63603" lon="7.94054" /><trkpt lat="46.63604" lon="7.9404" /><trkpt lat="46.63604" lon="7.94022" /><trkpt lat="46.63605" lon="7.94007" /><trkpt lat="46.63609" lon="7.93935" /><trkpt lat="46.63615" lon="7.93843" /><trkpt lat="46.63616" lon="7.9381" /><trkpt lat="46.6362" lon="7.93742" /><trkpt lat="46.63624" lon="7.93676" /><trkpt lat="46.63635" lon="7.93494" /><trkpt lat="46.63636" lon="7.93463" /><trkpt lat="46.63637" lon="7.9344" /><trkpt lat="46.63637" lon="7.93423" /><trkpt lat="46.63637" lon="7.93404" /><trkpt lat="46.63635" lon="7.93332" /><trkpt lat="46.63634" lon="7.93315" /><trkpt lat="46.63633" lon="7.933" /><trkpt lat="46.63632" lon="7.93286" /><trkpt lat="46.6363" lon="7.93274" /><trkpt lat="46.63627" lon="7.93261" /><trkpt lat="46.63624" lon="7.93248" /><trkpt lat="46.63621" lon="7.93237" /><trkpt lat="46.63618" lon="7.93224" /><trkpt lat="46.63614" lon="7.93213" /><trkpt lat="46.6361" lon="7.93202" /><trkpt lat="46.63594" lon="7.93158" /><trkpt lat="46.6359" lon="7.93146" /><trkpt lat="46.63585" lon="7.93131" /><trkpt lat="46.63584" lon="7.93125" /><trkpt lat="46.63582" lon="7.93116" /><trkpt lat="46.63579" lon="7.93101" /><trkpt lat="46.63577" lon="7.93087" /><trkpt lat="46.63574" lon="7.93065" /><trkpt lat="46.63573" lon="7.93058" /><trkpt lat="46.63571" lon="7.93046" /><trkpt lat="46.6357" lon="7.93035" /><trkpt lat="46.63568" lon="7.93011" /><trkpt lat="46.63565" lon="7.92991" /><trkpt lat="46.6356" lon="7.92969" /><trkpt lat="46.63556" lon="7.9295" /><trkpt lat="46.63549" lon="7.9293" /><trkpt lat="46.63542" lon="7.9291" /><trkpt lat="46.63532" lon="7.92889" /><trkpt lat="46.63523" lon="7.92872" /><trkpt lat="46.63508" lon="7.92844" /><trkpt lat="46.635" lon="7.92825" /><trkpt lat="46.63489" lon="7.92796" /><trkpt lat="46.63453" lon="7.92678" /><trkpt lat="46.63344" lon="7.92265" /><trkpt lat="46.63289" lon="7.92009" /><trkpt lat="46.63277" lon="7.91951" /><trkpt lat="46.63262" lon="7.91881" /><trkpt lat="46.63231" lon="7.91739" /><trkpt lat="46.63226" lon="7.91715" /><trkpt lat="46.63221" lon="7.91697" /><trkpt lat="46.63216" lon="7.91681" /><trkpt lat="46.63212" lon="7.91667" /><trkpt lat="46.63204" lon="7.9165" /><trkpt lat="46.63197" lon="7.91633" /><trkpt lat="46.6318" lon="7.91598" /><trkpt lat="46.63173" lon="7.91583" /><trkpt lat="46.63167" lon="7.91569" /><trkpt lat="46.63162" lon="7.91557" /><trkpt lat="46.63157" lon="7.91541" /><trkpt lat="46.6315" lon="7.9152" /><trkpt lat="46.63145" lon="7.915" /><trkpt lat="46.6314" lon="7.91477" /><trkpt lat="46.63136" lon="7.91458" /><trkpt lat="46.63133" lon="7.91442" /><trkpt lat="46.63131" lon="7.91424" /><trkpt lat="46.6313" lon="7.91406" /><trkpt lat="46.6313" lon="7.91391" /><trkpt lat="46.6313" lon="7.91373" /><trkpt lat="46.6313" lon="7.91359" /><trkpt lat="46.63132" lon="7.91344" /><trkpt lat="46.63134" lon="7.91323" /><trkpt lat="46.63138" lon="7.91288" /><trkpt lat="46.63144" lon="7.91236" /><trkpt lat="46.63146" lon="7.91219" /><trkpt lat="46.63147" lon="7.91202" /><trkpt lat="46.63148" lon="7.91186" /><trkpt lat="46.63148" lon="7.91168" /><trkpt lat="46.63147" lon="7.91153" /><trkpt lat="46.63146" lon="7.91136" /><trkpt lat="46.63144" lon="7.91118" /><trkpt lat="46.63142" lon="7.91103" /><trkpt lat="46.63139" lon="7.91089" /><trkpt lat="46.63135" lon="7.91073" /><trkpt lat="46.63132" lon="7.91059" /><trkpt lat="46.63116" lon="7.91" /><trkpt lat="46.63112" lon="7.90983" /><trkpt lat="46.63109" lon="7.90969" /><trkpt lat="46.63107" lon="7.90956" /><trkpt lat="46.63106" lon="7.90943" /><trkpt lat="46.63105" lon="7.9093" /><trkpt lat="46.63104" lon="7.90917" /><trkpt lat="46.63105" lon="7.90903" /><trkpt lat="46.63105" lon="7.9089" /><trkpt lat="46.63106" lon="7.90878" /><trkpt lat="46.63108" lon="7.90865" /><trkpt lat="46.6311" lon="7.90852" /><trkpt lat="46.63113" lon="7.90839" /><trkpt lat="46.63116" lon="7.9083" /><trkpt lat="46.63119" lon="7.90817" /><trkpt lat="46.63136" lon="7.90765" /><trkpt lat="46.63139" lon="7.90751" /><trkpt lat="46.63143" lon="7.90737" /><trkpt lat="46.63145" lon="7.90722" /><trkpt lat="46.63148" lon="7.9068" /><trkpt lat="46.63152" lon="7.90623" /><trkpt lat="46.63156" lon="7.90562" /><trkpt lat="46.63157" lon="7.90543" /><trkpt lat="46.63157" lon="7.90522" /><trkpt lat="46.63158" lon="7.90505" /><trkpt lat="46.63158" lon="7.90448" /><trkpt lat="46.63158" lon="7.90435" /><trkpt lat="46.63158" lon="7.90405" /><trkpt lat="46.63159" lon="7.90369" /><trkpt lat="46.63159" lon="7.90354" /><trkpt lat="46.6316" lon="7.90316" /><trkpt lat="46.63163" lon="7.90249" /><trkpt lat="46.63165" lon="7.90212" /><trkpt lat="46.63166" lon="7.90174" /><trkpt lat="46.63169" lon="7.90151" /><trkpt lat="46.63171" lon="7.90137" /><trkpt lat="46.63174" lon="7.90123" /><trkpt lat="46.63176" lon="7.90114" /><trkpt lat="46.6318" lon="7.901" /><trkpt lat="46.63183" lon="7.9009" /><trkpt lat="46.63188" lon="7.90081" /><trkpt lat="46.63191" lon="7.90074" /><trkpt lat="46.63194" lon="7.90068" /><trkpt lat="46.63198" lon="7.90062" /><trkpt lat="46.63201" lon="7.90057" /><trkpt lat="46.63205" lon="7.90052" /><trkpt lat="46.6321" lon="7.90045" /><trkpt lat="46.63217" lon="7.90037" /><trkpt lat="46.63227" lon="7.90026" /><trkpt lat="46.63233" lon="7.9002" /><trkpt lat="46.63244" lon="7.9001" /><trkpt lat="46.63281" lon="7.8998" /><trkpt lat="46.63328" lon="7.89946" /><trkpt lat="46.6334" lon="7.89936" /><trkpt lat="46.63346" lon="7.89932" /><trkpt lat="46.63351" lon="7.89927" /><trkpt lat="46.63358" lon="7.89921" /><trkpt lat="46.63368" lon="7.89911" /><trkpt lat="46.63375" lon="7.89902" /><trkpt lat="46.6338" lon="7.89895" /><trkpt lat="46.63383" lon="7.89889" /><trkpt lat="46.63389" lon="7.89878" /><trkpt lat="46.63392" lon="7.89871" /><trkpt lat="46.63395" lon="7.89863" /><trkpt lat="46.63398" lon="7.89855" /><trkpt lat="46.634" lon="7.89849" /><trkpt lat="46.63402" lon="7.89841" /><trkpt lat="46.63404" lon="7.8983" /><trkpt lat="46.63405" lon="7.8982" /><trkpt lat="46.63406" lon="7.89811" /><trkpt lat="46.63407" lon="7.89801" /><trkpt lat="46.63411" lon="7.89769" /><trkpt lat="46.63414" lon="7.89736" /><trkpt lat="46.63417" lon="7.89714" /><trkpt lat="46.6342" lon="7.89693" /><trkpt lat="46.63426" lon="7.8967" /><trkpt lat="46.6343" lon="7.89657" /><trkpt lat="46.63434" lon="7.89646" /><trkpt lat="46.63437" lon="7.89636" /><trkpt lat="46.63442" lon="7.89625" /><trkpt lat="46.63448" lon="7.89613" /><trkpt lat="46.63454" lon="7.89602" /><trkpt lat="46.6346" lon="7.89592" /><trkpt lat="46.63466" lon="7.89583" /><trkpt lat="46.63471" lon="7.89576" /><trkpt lat="46.63479" lon="7.89566" /><trkpt lat="46.63486" lon="7.89558" /><trkpt lat="46.63493" lon="7.89551" /><trkpt lat="46.635" lon="7.89545" /><trkpt lat="46.63506" lon="7.8954" /><trkpt lat="46.63514" lon="7.89534" /><trkpt lat="46.63521" lon="7.89529" /><trkpt lat="46.63529" lon="7.89524" /><trkpt lat="46.63608" lon="7.89482" /><trkpt lat="46.63672" lon="7.89447" /><trkpt lat="46.63711" lon="7.89426" /><trkpt lat="46.63742" lon="7.89406" /><trkpt lat="46.63758" lon="7.89394" /><trkpt lat="46.63769" lon="7.89385" /><trkpt lat="46.63783" lon="7.89371" /><trkpt lat="46.63793" lon="7.89357" /><trkpt lat="46.63806" lon="7.89338" /><trkpt lat="46.63815" lon="7.89322" /><trkpt lat="46.63824" lon="7.89303" /><trkpt lat="46.63831" lon="7.89284" /><trkpt lat="46.63839" lon="7.89259" /><trkpt lat="46.63845" lon="7.89239" /><trkpt lat="46.6385" lon="7.89213" /><trkpt lat="46.63852" lon="7.89193" /><trkpt lat="46.63854" lon="7.89168" /><trkpt lat="46.63854" lon="7.89147" /><trkpt lat="46.63854" lon="7.89117" /><trkpt lat="46.63854" lon="7.89114" /><trkpt lat="46.63853" lon="7.89095" /><trkpt lat="46.63852" lon="7.89064" /><trkpt lat="46.63852" lon="7.89041" /><trkpt lat="46.63852" lon="7.89017" /><trkpt lat="46.63853" lon="7.88991" /><trkpt lat="46.63856" lon="7.88957" /><trkpt lat="46.63858" lon="7.88932" /><trkpt lat="46.63861" lon="7.88907" /><trkpt lat="46.63864" lon="7.88892" /><trkpt lat="46.63868" lon="7.88871" /><trkpt lat="46.63872" lon="7.88852" /><trkpt lat="46.63876" lon="7.88838" /><trkpt lat="46.63881" lon="7.88823" /><trkpt lat="46.63888" lon="7.88803" /><trkpt lat="46.63897" lon="7.88783" /><trkpt lat="46.63907" lon="7.88763" /><trkpt lat="46.63915" lon="7.88749" /><trkpt lat="46.63924" lon="7.88735" /><trkpt lat="46.63933" lon="7.88722" /><trkpt lat="46.63942" lon="7.8871" /><trkpt lat="46.63951" lon="7.887" /><trkpt lat="46.63958" lon="7.88693" /><trkpt lat="46.63967" lon="7.88684" /><trkpt lat="46.63974" lon="7.88678" /><trkpt lat="46.63982" lon="7.88672" /><trkpt lat="46.64011" lon="7.88651" /><trkpt lat="46.64049" lon="7.88627" /><trkpt lat="46.64073" lon="7.88611" /><trkpt lat="46.64101" lon="7.88592" /><trkpt lat="46.64114" lon="7.88583" /><trkpt lat="46.64125" lon="7.88574" /><trkpt lat="46.64138" lon="7.88562" /><trkpt lat="46.6415" lon="7.88549" /><trkpt lat="46.64161" lon="7.88537" /><trkpt lat="46.64171" lon="7.88525" /><trkpt lat="46.64181" lon="7.8851" /><trkpt lat="46.64193" lon="7.88493" /><trkpt lat="46.64203" lon="7.88477" /><trkpt lat="46.64211" lon="7.88462" /><trkpt lat="46.64219" lon="7.88444" /><trkpt lat="46.64225" lon="7.8843" /><trkpt lat="46.64231" lon="7.88415" /><trkpt lat="46.64239" lon="7.88395" /><trkpt lat="46.64245" lon="7.88375" /><trkpt lat="46.6427" lon="7.88288" /><trkpt lat="46.64299" lon="7.88186" /><trkpt lat="46.64319" lon="7.88116" /><trkpt lat="46.6433" lon="7.88078" /><trkpt lat="46.6434" lon="7.88047" /><trkpt lat="46.6435" lon="7.88017" /><trkpt lat="46.64359" lon="7.87994" /><trkpt lat="46.64369" lon="7.87968" /><trkpt lat="46.64378" lon="7.87948" /><trkpt lat="46.64388" lon="7.87929" /><trkpt lat="46.64396" lon="7.87914" /><trkpt lat="46.64408" lon="7.87892" /><trkpt lat="46.64418" lon="7.87876" /><trkpt lat="46.64428" lon="7.87862" /><trkpt lat="46.64445" lon="7.87838" /><trkpt lat="46.64458" lon="7.8782" /><trkpt lat="46.64468" lon="7.87807" /><trkpt lat="46.64478" lon="7.87791" /><trkpt lat="46.64487" lon="7.87776" /><trkpt lat="46.64496" lon="7.87761" /><trkpt lat="46.64504" lon="7.87744" /><trkpt lat="46.64515" lon="7.87721" /><trkpt lat="46.64523" lon="7.87703" /><trkpt lat="46.64531" lon="7.87686" /><trkpt lat="46.64539" lon="7.8767" /><trkpt lat="46.64547" lon="7.87657" /><trkpt lat="46.64557" lon="7.87642" /><trkpt lat="46.64564" lon="7.87633" /><trkpt lat="46.64574" lon="7.8762" /><trkpt lat="46.64587" lon="7.87606" /><trkpt lat="46.64612" lon="7.8758" /><trkpt lat="46.6464" lon="7.87551" /><trkpt lat="46.64674" lon="7.87515" /><trkpt lat="46.64693" lon="7.87495" /><trkpt lat="46.64711" lon="7.87476" /><trkpt lat="46.64723" lon="7.87464" /><trkpt lat="46.64734" lon="7.87453" /><trkpt lat="46.64743" lon="7.87445" /><trkpt lat="46.64753" lon="7.87437" /><trkpt lat="46.64762" lon="7.87431" /><trkpt lat="46.64781" lon="7.8742" /><trkpt lat="46.64792" lon="7.87415" /><trkpt lat="46.64844" lon="7.87397" /><trkpt lat="46.64871" lon="7.87386" /><trkpt lat="46.64893" lon="7.87372" /><trkpt lat="46.64929" lon="7.87346" /><trkpt lat="46.64952" lon="7.87329" /><trkpt lat="46.6497" lon="7.87321" /><trkpt lat="46.64993" lon="7.87314" /><trkpt lat="46.65017" lon="7.8731" /><trkpt lat="46.6505" lon="7.87308" /><trkpt lat="46.65076" lon="7.87303" /><trkpt lat="46.65089" lon="7.873" /><trkpt lat="46.65099" lon="7.87296" /><trkpt lat="46.65111" lon="7.8729" /><trkpt lat="46.65124" lon="7.87282" /><trkpt lat="46.65137" lon="7.87272" /><trkpt lat="46.65153" lon="7.87257" /><trkpt lat="46.65166" lon="7.87242" /><trkpt lat="46.65177" lon="7.87227" /><trkpt lat="46.65187" lon="7.8721" /><trkpt lat="46.65197" lon="7.87193" /><trkpt lat="46.65214" lon="7.87157" /><trkpt lat="46.65228" lon="7.8713" /><trkpt lat="46.65244" lon="7.87105" /><trkpt lat="46.65259" lon="7.87085" /><trkpt lat="46.65276" lon="7.87066" /><trkpt lat="46.6529" lon="7.8705" /><trkpt lat="46.65313" lon="7.87033" /><trkpt lat="46.65339" lon="7.87013" /><trkpt lat="46.65362" lon="7.87003" /><trkpt lat="46.65383" lon="7.86994" /><trkpt lat="46.65401" lon="7.86985" /><trkpt lat="46.65423" lon="7.86969" /><trkpt lat="46.65452" lon="7.86946" /><trkpt lat="46.65476" lon="7.8692" /><trkpt lat="46.65502" lon="7.86891" /><trkpt lat="46.65519" lon="7.86876" /><trkpt lat="46.65534" lon="7.86865" /><trkpt lat="46.6555" lon="7.86855" /><trkpt lat="46.6557" lon="7.86848" /><trkpt lat="46.65589" lon="7.86844" /><trkpt lat="46.6561" lon="7.86843" /><trkpt lat="46.65635" lon="7.86847" /><trkpt lat="46.65648" lon="7.8685" /><trkpt lat="46.6566" lon="7.86856" /><trkpt lat="46.65672" lon="7.86862" /><trkpt lat="46.65685" lon="7.86868" /><trkpt lat="46.6571" lon="7.86884" /><trkpt lat="46.65732" lon="7.86896" /><trkpt lat="46.65751" lon="7.86903" /><trkpt lat="46.65769" lon="7.86907" /><trkpt lat="46.65787" lon="7.86908" /><trkpt lat="46.65805" lon="7.86906" /><trkpt lat="46.6587" lon="7.86894" /><trkpt lat="46.6589" lon="7.86893" /><trkpt lat="46.65948" lon="7.86899" /><trkpt lat="46.66044" lon="7.86911" /><trkpt lat="46.66073" lon="7.86915" /><trkpt lat="46.66089" lon="7.86917" /><trkpt lat="46.66095" lon="7.86918" /><trkpt lat="46.66102" lon="7.8692" /><trkpt lat="46.66109" lon="7.86922" /><trkpt lat="46.66116" lon="7.86924" /><trkpt lat="46.6612" lon="7.86926" /><trkpt lat="46.66124" lon="7.86928" /><trkpt lat="46.66129" lon="7.86931" /><trkpt lat="46.66134" lon="7.86933" /><trkpt lat="46.6614" lon="7.86937" /><trkpt lat="46.66147" lon="7.86943" /><trkpt lat="46.66155" lon="7.8695" /><trkpt lat="46.6617" lon="7.86965" /><trkpt lat="46.66179" lon="7.86973" /><trkpt lat="46.66187" lon="7.86979" /><trkpt lat="46.66195" lon="7.86986" /><trkpt lat="46.66204" lon="7.86991" /><trkpt lat="46.66212" lon="7.86996" /><trkpt lat="46.66273" lon="7.87026" /><trkpt lat="46.66281" lon="7.87029" /><trkpt lat="46.66289" lon="7.87032" /><trkpt lat="46.66297" lon="7.87035" /><trkpt lat="46.66305" lon="7.87035" /><trkpt lat="46.66313" lon="7.87036" /><trkpt lat="46.6632" lon="7.87035" /><trkpt lat="46.66326" lon="7.87034" /><trkpt lat="46.66333" lon="7.87032" /><trkpt lat="46.66339" lon="7.8703" /><trkpt lat="46.66345" lon="7.87027" /><trkpt lat="46.66351" lon="7.87024" /><trkpt lat="46.66357" lon="7.8702" /><trkpt lat="46.66362" lon="7.87017" /><trkpt lat="46.66368" lon="7.87011" /><trkpt lat="46.66377" lon="7.87003" /><trkpt lat="46.6644" lon="7.86944" /><trkpt lat="46.66451" lon="7.86934" /><trkpt lat="46.66455" lon="7.8693" /><trkpt lat="46.6646" lon="7.86927" /><trkpt lat="46.66465" lon="7.86924" /><trkpt lat="46.66468" lon="7.86922" /><trkpt lat="46.66472" lon="7.8692" /><trkpt lat="46.66478" lon="7.86917" /><trkpt lat="46.66481" lon="7.86916" /><trkpt lat="46.66485" lon="7.86915" /><trkpt lat="46.66488" lon="7.86914" /><trkpt lat="46.66491" lon="7.86914" /><trkpt lat="46.66495" lon="7.86913" /><trkpt lat="46.66499" lon="7.86913" /><trkpt lat="46.66504" lon="7.86913" /><trkpt lat="46.6651" lon="7.86913" /><trkpt lat="46.66517" lon="7.86914" /><trkpt lat="46.66525" lon="7.86916" /><trkpt lat="46.6653" lon="7.86917" /><trkpt lat="46.66535" lon="7.86919" /><trkpt lat="46.6654" lon="7.86922" /><trkpt lat="46.66545" lon="7.86924" /><trkpt lat="46.66551" lon="7.86928" /><trkpt lat="46.66556" lon="7.86931" /><trkpt lat="46.66572" lon="7.86942" /><trkpt lat="46.66689" lon="7.87019" /><trkpt lat="46.66694" lon="7.87022" /><trkpt lat="46.66702" lon="7.87028" /><trkpt lat="46.66739" lon="7.87052" /><trkpt lat="46.66744" lon="7.87055" /><trkpt lat="46.66749" lon="7.87058" /><trkpt lat="46.66753" lon="7.8706" /><trkpt lat="46.66757" lon="7.87062" /><trkpt lat="46.66763" lon="7.87065" /><trkpt lat="46.66765" lon="7.87066" /><trkpt lat="46.66768" lon="7.87067" /><trkpt lat="46.66773" lon="7.8707" /><trkpt lat="46.66778" lon="7.87072" /><trkpt lat="46.66784" lon="7.87073" /><trkpt lat="46.66791" lon="7.87075" /><trkpt lat="46.66797" lon="7.87077" /><trkpt lat="46.66804" lon="7.87078" /><trkpt lat="46.66811" lon="7.87078" /><trkpt lat="46.66819" lon="7.87079" /><trkpt lat="46.66824" lon="7.87079" /><trkpt lat="46.66831" lon="7.87078" /><trkpt lat="46.66837" lon="7.87078" /><trkpt lat="46.66844" lon="7.87077" /><trkpt lat="46.66851" lon="7.87075" /><trkpt lat="46.66857" lon="7.87073" /><trkpt lat="46.66864" lon="7.87071" /><trkpt lat="46.6687" lon="7.87069" /><trkpt lat="46.66876" lon="7.87067" /><trkpt lat="46.66884" lon="7.87064" /><trkpt lat="46.6689" lon="7.8706" /><trkpt lat="46.66899" lon="7.87056" /><trkpt lat="46.6691" lon="7.8705" /><trkpt lat="46.66922" lon="7.87044" /><trkpt lat="46.66931" lon="7.87039" /><trkpt lat="46.66938" lon="7.87034" /><trkpt lat="46.66954" lon="7.87027" /><trkpt lat="46.66974" lon="7.87018" /><trkpt lat="46.66996" lon="7.87007" /><trkpt lat="46.67014" lon="7.86997" /><trkpt lat="46.67031" lon="7.86988" /><trkpt lat="46.6704" lon="7.86983" /><trkpt lat="46.67047" lon="7.8698" /><trkpt lat="46.67058" lon="7.86974" /><trkpt lat="46.67069" lon="7.8697" /><trkpt lat="46.67077" lon="7.86967" /><trkpt lat="46.67086" lon="7.86964" /><trkpt lat="46.67095" lon="7.86962" /><trkpt lat="46.67101" lon="7.86961" /><trkpt lat="46.67107" lon="7.8696" /><trkpt lat="46.67114" lon="7.8696" /><trkpt lat="46.67128" lon="7.8696" /><trkpt lat="46.67135" lon="7.8696" /><trkpt lat="46.67143" lon="7.86961" /><trkpt lat="46.67151" lon="7.86963" /><trkpt lat="46.67166" lon="7.86967" /><trkpt lat="46.67176" lon="7.86971" /><trkpt lat="46.67185" lon="7.86975" /><trkpt lat="46.67196" lon="7.86981" /><trkpt lat="46.67206" lon="7.86988" /><trkpt lat="46.67217" lon="7.86996" /><trkpt lat="46.6723" lon="7.87008" /><trkpt lat="46.6724" lon="7.87019" /><trkpt lat="46.6725" lon="7.87031" /><trkpt lat="46.67262" lon="7.87048" /><trkpt lat="46.67279" lon="7.87075" /><trkpt lat="46.67327" lon="7.87152" /><trkpt lat="46.67357" lon="7.872" /><trkpt lat="46.67397" lon="7.87263" /><trkpt lat="46.67437" lon="7.87328" /><trkpt lat="46.67493" lon="7.87417" /><trkpt lat="46.67523" lon="7.87465" /><trkpt lat="46.67541" lon="7.87488" /><trkpt lat="46.67557" lon="7.87508" /><trkpt lat="46.67567" lon="7.87519" /><trkpt lat="46.67585" lon="7.87537" /><trkpt lat="46.67598" lon="7.87548" /><trkpt lat="46.67616" lon="7.87563" /><trkpt lat="46.67619" lon="7.87565" /><trkpt lat="46.67627" lon="7.8757" /><trkpt lat="46.67634" lon="7.87575" /><trkpt lat="46.6764" lon="7.87579" /><trkpt lat="46.67646" lon="7.87582" /><trkpt lat="46.67655" lon="7.87586" /><trkpt lat="46.67663" lon="7.8759" /><trkpt lat="46.67675" lon="7.87594" /><trkpt lat="46.67688" lon="7.87598" /><trkpt lat="46.67702" lon="7.87602" /><trkpt lat="46.67875" lon="7.87637" /><trkpt lat="46.67889" lon="7.87639" /><trkpt lat="46.67903" lon="7.87642" /><trkpt lat="46.67911" lon="7.87642" /><trkpt lat="46.67918" lon="7.87643" /><trkpt lat="46.67926" lon="7.87644" /><trkpt lat="46.67933" lon="7.87643" /><trkpt lat="46.67948" lon="7.87642" /><trkpt lat="46.67957" lon="7.87641" /><trkpt lat="46.67969" lon="7.87639" /><trkpt lat="46.67979" lon="7.87636" /><trkpt lat="46.67989" lon="7.87633" /><trkpt lat="46.68005" lon="7.87627" /><trkpt lat="46.68023" lon="7.87618" /><trkpt lat="46.68036" lon="7.8761" /><trkpt lat="46.68057" lon="7.87595" /><trkpt lat="46.6807" lon="7.87586" /><trkpt lat="46.68153" lon="7.87522" /><trkpt lat="46.68181" lon="7.87501" /><trkpt lat="46.68198" lon="7.8749" /><trkpt lat="46.68216" lon="7.8748" /><trkpt lat="46.68234" lon="7.87471" /><trkpt lat="46.68243" lon="7.87468" /><trkpt lat="46.68252" lon="7.87465" /><trkpt lat="46.68269" lon="7.87459" /><trkpt lat="46.68284" lon="7.87456" /><trkpt lat="46.68329" lon="7.87448" /><trkpt lat="46.68387" lon="7.87438" /><trkpt lat="46.68515" lon="7.87417" /><trkpt lat="46.68541" lon="7.87413" /><trkpt lat="46.68592" lon="7.87405" /><trkpt lat="46.68664" lon="7.87397" /><trkpt lat="46.68714" lon="7.87391" /><trkpt lat="46.68733" lon="7.87388" /><trkpt lat="46.68741" lon="7.87387" /><trkpt lat="46.68768" lon="7.87383" /><trkpt lat="46.68793" lon="7.87379" /><trkpt lat="46.6881" lon="7.87376" /><trkpt lat="46.68828" lon="7.87373" /><trkpt lat="46.68926" lon="7.87357" /><trkpt lat="46.68944" lon="7.87354" /><trkpt lat="46.68953" lon="7.87352" /><trkpt lat="46.68966" lon="7.87349" /><trkpt lat="46.68974" lon="7.87346" /><trkpt lat="46.6898" lon="7.87343" /><trkpt lat="46.68985" lon="7.87341" /><trkpt lat="46.68992" lon="7.87337" /><trkpt lat="46.69004" lon="7.87329" /><trkpt lat="46.69013" lon="7.87322" /><trkpt lat="46.69025" lon="7.87311" /><trkpt lat="46.69029" lon="7.87306" /><trkpt lat="46.69032" lon="7.87302" /><trkpt lat="46.69037" lon="7.87296" /><trkpt lat="46.69044" lon="7.87288" /><trkpt lat="46.69046" lon="7.87284" /><trkpt lat="46.69049" lon="7.87279" /><trkpt lat="46.69052" lon="7.87274" /><trkpt lat="46.69056" lon="7.87269" /><trkpt lat="46.69059" lon="7.87263" /><trkpt lat="46.69061" lon="7.8726" /><trkpt lat="46.69062" lon="7.87257" /><trkpt lat="46.69065" lon="7.87251" /><trkpt lat="46.69067" lon="7.87248" /><trkpt lat="46.69068" lon="7.87244" /><trkpt lat="46.6907" lon="7.8724" /><trkpt lat="46.69071" lon="7.87236" /><trkpt lat="46.69072" lon="7.87233" /><trkpt lat="46.69074" lon="7.87229" /><trkpt lat="46.69076" lon="7.87223" /><trkpt lat="46.69077" lon="7.87218" /><trkpt lat="46.69078" lon="7.87214" /><trkpt lat="46.69079" lon="7.87209" /><trkpt lat="46.6908" lon="7.87205" /><trkpt lat="46.69081" lon="7.872" /><trkpt lat="46.69082" lon="7.87196" /><trkpt lat="46.69083" lon="7.87191" /><trkpt lat="46.69083" lon="7.87186" /><trkpt lat="46.69084" lon="7.87179" /><trkpt lat="46.69085" lon="7.87176" /><trkpt lat="46.69085" lon="7.87173" /><trkpt lat="46.69085" lon="7.87169" /><trkpt lat="46.69085" lon="7.87164" /><trkpt lat="46.69085" lon="7.87157" /><trkpt lat="46.69085" lon="7.8715" /><trkpt lat="46.69084" lon="7.87143" /><trkpt lat="46.69083" lon="7.87137" /><trkpt lat="46.69081" lon="7.8712" /><trkpt lat="46.69062" lon="7.86945" /><trkpt lat="46.69057" lon="7.86899" /><trkpt lat="46.69056" lon="7.86897" /><trkpt lat="46.69056" lon="7.86897" /></trkseg></trk></gpx>