<gpx version="1.1" creator="Trainlog.me"><trk><name>Trip Path</name><trkseg><trkpt lat="46.58277" lon="7.07335" /><trkpt lat="46.58243" lon="7.07369" /><trkpt lat="46.58241" lon="7.07371" /><trkpt lat="46.58237" lon="7.07375" /><trkpt lat="46.58232" lon="7.07379" /><trkpt lat="46.58212" lon="7.07399" /><trkpt lat="46.582" lon="7.07409" /><trkpt lat="46.58192" lon="7.07415" /><trkpt lat="46.58178" lon="7.07424" /><trkpt lat="46.58164" lon="7.07431" /><trkpt lat="46.58149" lon="7.07437" /><trkpt lat="46.58001" lon="7.07492" /><trkpt lat="46.57985" lon="7.07499" /><trkpt lat="46.57974" lon="7.07505" /><trkpt lat="46.57957" lon="7.07516" /><trkpt lat="46.57944" lon="7.07529" /><trkpt lat="46.5793" lon="7.07546" /><trkpt lat="46.57923" lon="7.07558" /><trkpt lat="46.57912" lon="7.0758" /><trkpt lat="46.57905" lon="7.07596" /><trkpt lat="46.57899" lon="7.07617" /><trkpt lat="46.57832" lon="7.07835" /><trkpt lat="46.57827" lon="7.07851" /><trkpt lat="46.57824" lon="7.07864" /><trkpt lat="46.5782" lon="7.07878" /><trkpt lat="46.57818" lon="7.07886" /><trkpt lat="46.57816" lon="7.07894" /><trkpt lat="46.57815" lon="7.07902" /><trkpt lat="46.57814" lon="7.07911" /><trkpt lat="46.57813" lon="7.07918" /><trkpt lat="46.57812" lon="7.07926" /><trkpt lat="46.57811" lon="7.07935" /><trkpt lat="46.57811" lon="7.07945" /><trkpt lat="46.57811" lon="7.07954" /><trkpt lat="46.57811" lon="7.07964" /><trkpt lat="46.57811" lon="7.07973" /><trkpt lat="46.57812" lon="7.07981" /><trkpt lat="46.57813" lon="7.07989" /><trkpt lat="46.57814" lon="7.07996" /><trkpt lat="46.57815" lon="7.08004" /><trkpt lat="46.57816" lon="7.08013" /><trkpt lat="46.57818" lon="7.0802" /><trkpt lat="46.57819" lon="7.08027" /><trkpt lat="46.57821" lon="7.08036" /><trkpt lat="46.57823" lon="7.08042" /><trkpt lat="46.57826" lon="7.08052" /><trkpt lat="46.57829" lon="7.08062" /><trkpt lat="46.57853" lon="7.08133" /><trkpt lat="46.57857" lon="7.08145" /><trkpt lat="46.57861" lon="7.08157" /><trkpt lat="46.57864" lon="7.08168" /><trkpt lat="46.57866" lon="7.08177" /><trkpt lat="46.57868" lon="7.08188" /><trkpt lat="46.57869" lon="7.08197" /><trkpt lat="46.57871" lon="7.08207" /><trkpt lat="46.57871" lon="7.08214" /><trkpt lat="46.57872" lon="7.08223" /><trkpt lat="46.57872" lon="7.08233" /><trkpt lat="46.57872" lon="7.08243" /><trkpt lat="46.57872" lon="7.08253" /><trkpt lat="46.57872" lon="7.08262" /><trkpt lat="46.57871" lon="7.08271" /><trkpt lat="46.5787" lon="7.08282" /><trkpt lat="46.57868" lon="7.08295" /><trkpt lat="46.57865" lon="7.08306" /><trkpt lat="46.57863" lon="7.08316" /><trkpt lat="46.57861" lon="7.08324" /><trkpt lat="46.57857" lon="7.08335" /><trkpt lat="46.57854" lon="7.08345" /><trkpt lat="46.57851" lon="7.08352" /><trkpt lat="46.57848" lon="7.08361" /><trkpt lat="46.5784" lon="7.08376" /><trkpt lat="46.57828" lon="7.08397" /><trkpt lat="46.57816" lon="7.08413" /><trkpt lat="46.57807" lon="7.08422" /><trkpt lat="46.578" lon="7.08428" /><trkpt lat="46.57792" lon="7.08435" /><trkpt lat="46.57781" lon="7.08443" /><trkpt lat="46.57769" lon="7.0845" /><trkpt lat="46.57761" lon="7.08454" /><trkpt lat="46.57744" lon="7.08459" /><trkpt lat="46.57732" lon="7.08461" /><trkpt lat="46.5772" lon="7.08462" /><trkpt lat="46.57708" lon="7.08461" /><trkpt lat="46.57692" lon="7.08459" /><trkpt lat="46.57607" lon="7.08448" /><trkpt lat="46.576" lon="7.08447" /><trkpt lat="46.57593" lon="7.08447" /><trkpt lat="46.57586" lon="7.08447" /><trkpt lat="46.57578" lon="7.08447" /><trkpt lat="46.57571" lon="7.08449" /><trkpt lat="46.57563" lon="7.08451" /><trkpt lat="46.57556" lon="7.08454" /><trkpt lat="46.57548" lon="7.08457" /><trkpt lat="46.57541" lon="7.08461" /><trkpt lat="46.57535" lon="7.08466" /><trkpt lat="46.57528" lon="7.08471" /><trkpt lat="46.57522" lon="7.08477" /><trkpt lat="46.57516" lon="7.08483" /><trkpt lat="46.5751" lon="7.08491" /><trkpt lat="46.57505" lon="7.08497" /><trkpt lat="46.575" lon="7.08505" /><trkpt lat="46.57496" lon="7.08512" /><trkpt lat="46.57492" lon="7.08521" /><trkpt lat="46.57487" lon="7.08531" /><trkpt lat="46.57483" lon="7.08541" /><trkpt lat="46.57479" lon="7.08552" /><trkpt lat="46.5747" lon="7.08577" /><trkpt lat="46.57467" lon="7.08584" /><trkpt lat="46.57464" lon="7.08591" /><trkpt lat="46.57461" lon="7.08597" /><trkpt lat="46.57457" lon="7.08603" /><trkpt lat="46.57453" lon="7.0861" /><trkpt lat="46.57449" lon="7.08616" /><trkpt lat="46.57442" lon="7.08623" /><trkpt lat="46.57432" lon="7.08633" /><trkpt lat="46.57418" lon="7.08641" /><trkpt lat="46.57406" lon="7.08645" /><trkpt lat="46.57398" lon="7.08647" /><trkpt lat="46.57389" lon="7.08647" /><trkpt lat="46.57379" lon="7.08647" /><trkpt lat="46.57372" lon="7.08645" /><trkpt lat="46.57328" lon="7.08636" /><trkpt lat="46.57311" lon="7.08634" /><trkpt lat="46.5729" lon="7.08632" /><trkpt lat="46.57271" lon="7.08631" /><trkpt lat="46.57225" lon="7.08633" /><trkpt lat="46.57198" lon="7.08635" /><trkpt lat="46.57111" lon="7.0864" /><trkpt lat="46.57084" lon="7.08642" /><trkpt lat="46.57046" lon="7.0865" /><trkpt lat="46.56984" lon="7.08667" /><trkpt lat="46.5697" lon="7.08669" /><trkpt lat="46.56959" lon="7.0867" /><trkpt lat="46.56945" lon="7.0867" /><trkpt lat="46.5693" lon="7.08667" /><trkpt lat="46.56909" lon="7.08661" /><trkpt lat="46.56758" lon="7.08605" /><trkpt lat="46.56675" lon="7.08574" /><trkpt lat="46.56641" lon="7.08562" /><trkpt lat="46.56632" lon="7.08559" /><trkpt lat="46.5663" lon="7.08559" /><trkpt lat="46.56626" lon="7.08558" /><trkpt lat="46.56603" lon="7.08552" /><trkpt lat="46.56568" lon="7.08543" /><trkpt lat="46.56546" lon="7.08539" /><trkpt lat="46.56521" lon="7.08535" /><trkpt lat="46.56505" lon="7.08534" /><trkpt lat="46.5648" lon="7.08532" /><trkpt lat="46.5644" lon="7.08532" /><trkpt lat="46.56403" lon="7.08532" /><trkpt lat="46.5636" lon="7.08537" /><trkpt lat="46.56196" lon="7.08565" /><trkpt lat="46.56173" lon="7.08567" /><trkpt lat="46.56154" lon="7.08567" /><trkpt lat="46.56141" lon="7.08566" /><trkpt lat="46.56123" lon="7.08562" /><trkpt lat="46.56098" lon="7.08555" /><trkpt lat="46.5596" lon="7.08508" /><trkpt lat="46.55938" lon="7.08499" /><trkpt lat="46.55908" lon="7.08483" /><trkpt lat="46.55885" lon="7.08468" /><trkpt lat="46.5587" lon="7.08458" /><trkpt lat="46.55852" lon="7.08444" /><trkpt lat="46.55784" lon="7.08387" /><trkpt lat="46.55773" lon="7.08377" /><trkpt lat="46.55762" lon="7.08362" /><trkpt lat="46.55752" lon="7.08345" /><trkpt lat="46.55744" lon="7.08322" /><trkpt lat="46.55697" lon="7.08177" /><trkpt lat="46.5569" lon="7.08155" /><trkpt lat="46.55684" lon="7.08142" /><trkpt lat="46.55678" lon="7.08132" /><trkpt lat="46.55666" lon="7.08116" /><trkpt lat="46.55654" lon="7.08104" /><trkpt lat="46.55643" lon="7.08097" /><trkpt lat="46.5535" lon="7.0791" /><trkpt lat="46.55332" lon="7.07898" /><trkpt lat="46.55318" lon="7.07887" /><trkpt lat="46.55303" lon="7.0787" /><trkpt lat="46.55267" lon="7.07818" /><trkpt lat="46.55253" lon="7.078" /><trkpt lat="46.55241" lon="7.0779" /><trkpt lat="46.55229" lon="7.07781" /><trkpt lat="46.55111" lon="7.07711" /><trkpt lat="46.55085" lon="7.07692" /><trkpt lat="46.55051" lon="7.07656" /><trkpt lat="46.54963" lon="7.07552" /><trkpt lat="46.54956" lon="7.07547" /><trkpt lat="46.54946" lon="7.07542" /><trkpt lat="46.54913" lon="7.07536" /><trkpt lat="46.5489" lon="7.07537" /><trkpt lat="46.54804" lon="7.07557" /><trkpt lat="46.54778" lon="7.07559" /><trkpt lat="46.54763" lon="7.07556" /><trkpt lat="46.54748" lon="7.0755" /><trkpt lat="46.54733" lon="7.0754" /><trkpt lat="46.5472" lon="7.07526" /><trkpt lat="46.54694" lon="7.07497" /><trkpt lat="46.54677" lon="7.07483" /><trkpt lat="46.54666" lon="7.07477" /><trkpt lat="46.5465" lon="7.0747" /><trkpt lat="46.54614" lon="7.07463" /><trkpt lat="46.54609" lon="7.07462" /><trkpt lat="46.54603" lon="7.0746" /><trkpt lat="46.54595" lon="7.07457" /><trkpt lat="46.5459" lon="7.07455" /><trkpt lat="46.54585" lon="7.07453" /><trkpt lat="46.54572" lon="7.07446" /><trkpt lat="46.54561" lon="7.07439" /><trkpt lat="46.54515" lon="7.07404" /><trkpt lat="46.54498" lon="7.07393" /><trkpt lat="46.54491" lon="7.07387" /><trkpt lat="46.54464" lon="7.07362" /><trkpt lat="46.54373" lon="7.07299" /><trkpt lat="46.54352" lon="7.07285" /><trkpt lat="46.54335" lon="7.07278" /><trkpt lat="46.54326" lon="7.07273" /><trkpt lat="46.54316" lon="7.07268" /><trkpt lat="46.54301" lon="7.07256" /><trkpt lat="46.54012" lon="7.07058" /><trkpt lat="46.53988" lon="7.07042" /><trkpt lat="46.5396" lon="7.07022" /><trkpt lat="46.53948" lon="7.07012" /><trkpt lat="46.53929" lon="7.06993" /><trkpt lat="46.53884" lon="7.06946" /><trkpt lat="46.53866" lon="7.06926" /><trkpt lat="46.53853" lon="7.06909" /><trkpt lat="46.5382" lon="7.06861" /><trkpt lat="46.53789" lon="7.06816" /><trkpt lat="46.53774" lon="7.06797" /><trkpt lat="46.53751" lon="7.0678" /><trkpt lat="46.53646" lon="7.06713" /><trkpt lat="46.53619" lon="7.06693" /><trkpt lat="46.53593" lon="7.06671" /><trkpt lat="46.5356" lon="7.06635" /><trkpt lat="46.53532" lon="7.06615" /><trkpt lat="46.53506" lon="7.06603" /><trkpt lat="46.53455" lon="7.06587" /><trkpt lat="46.53443" lon="7.06582" /><trkpt lat="46.53417" lon="7.06565" /><trkpt lat="46.53374" lon="7.06525" /><trkpt lat="46.53327" lon="7.06479" /><trkpt lat="46.53309" lon="7.06458" /><trkpt lat="46.53299" lon="7.06443" /><trkpt lat="46.53264" lon="7.06382" /><trkpt lat="46.53254" lon="7.06365" /><trkpt lat="46.53241" lon="7.06347" /><trkpt lat="46.5323" lon="7.06336" /><trkpt lat="46.53218" lon="7.06326" /><trkpt lat="46.53198" lon="7.06315" /><trkpt lat="46.5286" lon="7.06161" /><trkpt lat="46.52822" lon="7.06142" /><trkpt lat="46.5279" lon="7.06124" /><trkpt lat="46.52776" lon="7.06115" /><trkpt lat="46.52707" lon="7.06065" /><trkpt lat="46.52697" lon="7.06057" /><trkpt lat="46.52665" lon="7.06028" /><trkpt lat="46.52635" lon="7.05998" /><trkpt lat="46.52618" lon="7.05983" /><trkpt lat="46.52601" lon="7.0597" /><trkpt lat="46.52589" lon="7.05962" /><trkpt lat="46.52567" lon="7.05949" /><trkpt lat="46.52553" lon="7.05942" /><trkpt lat="46.52527" lon="7.05933" /><trkpt lat="46.52516" lon="7.05931" /><trkpt lat="46.52508" lon="7.05929" /><trkpt lat="46.52492" lon="7.05927" /><trkpt lat="46.52473" lon="7.05926" /><trkpt lat="46.52451" lon="7.05926" /><trkpt lat="46.52389" lon="7.05926" /><trkpt lat="46.52353" lon="7.05927" /><trkpt lat="46.52331" lon="7.05928" /><trkpt lat="46.52304" lon="7.05929" /><trkpt lat="46.52241" lon="7.05933" /><trkpt lat="46.52213" lon="7.05933" /><trkpt lat="46.52195" lon="7.0593" /><trkpt lat="46.52179" lon="7.05924" /><trkpt lat="46.52168" lon="7.05917" /><trkpt lat="46.52154" lon="7.05905" /><trkpt lat="46.52142" lon="7.05892" /><trkpt lat="46.52132" lon="7.05876" /><trkpt lat="46.52125" lon="7.05862" /><trkpt lat="46.52119" lon="7.05846" /><trkpt lat="46.52106" lon="7.0581" /><trkpt lat="46.52096" lon="7.05786" /><trkpt lat="46.52085" lon="7.05765" /><trkpt lat="46.5207" lon="7.05744" /><trkpt lat="46.52048" lon="7.05724" /><trkpt lat="46.51932" lon="7.05654" /><trkpt lat="46.5191" lon="7.0564" /><trkpt lat="46.51905" lon="7.05638" /><trkpt lat="46.51895" lon="7.05631" /><trkpt lat="46.51864" lon="7.05612" /><trkpt lat="46.51843" lon="7.05597" /><trkpt lat="46.51822" lon="7.05575" /><trkpt lat="46.51806" lon="7.05554" /><trkpt lat="46.51789" lon="7.05526" /><trkpt lat="46.51777" lon="7.05502" /><trkpt lat="46.51766" lon="7.05477" /><trkpt lat="46.51752" lon="7.05452" /><trkpt lat="46.51738" lon="7.05434" /><trkpt lat="46.51732" lon="7.05428" /><trkpt lat="46.51724" lon="7.0542" /><trkpt lat="46.51714" lon="7.05411" /><trkpt lat="46.51703" lon="7.05404" /><trkpt lat="46.51691" lon="7.05397" /><trkpt lat="46.51679" lon="7.05392" /><trkpt lat="46.51669" lon="7.0539" /><trkpt lat="46.51655" lon="7.05387" /><trkpt lat="46.5158" lon="7.05383" /><trkpt lat="46.51556" lon="7.05384" /><trkpt lat="46.51551" lon="7.05384" /><trkpt lat="46.51526" lon="7.05385" /><trkpt lat="46.51509" lon="7.05385" /><trkpt lat="46.51426" lon="7.05397" /><trkpt lat="46.51405" lon="7.054" /><trkpt lat="46.51387" lon="7.05401" /><trkpt lat="46.51369" lon="7.054" /><trkpt lat="46.5135" lon="7.05397" /><trkpt lat="46.51335" lon="7.05393" /><trkpt lat="46.51274" lon="7.05372" /><trkpt lat="46.51244" lon="7.05364" /><trkpt lat="46.51194" lon="7.05358" /><trkpt lat="46.51067" lon="7.05345" /><trkpt lat="46.51039" lon="7.05339" /><trkpt lat="46.51022" lon="7.05334" /><trkpt lat="46.51003" lon="7.05327" /><trkpt lat="46.50982" lon="7.05319" /><trkpt lat="46.50963" lon="7.0531" /><trkpt lat="46.5092" lon="7.05288" /><trkpt lat="46.50899" lon="7.05278" /><trkpt lat="46.50876" lon="7.05271" /><trkpt lat="46.50857" lon="7.05266" /><trkpt lat="46.50808" lon="7.0526" /><trkpt lat="46.50776" lon="7.05255" /><trkpt lat="46.50743" lon="7.05247" /><trkpt lat="46.50712" lon="7.0524" /><trkpt lat="46.50685" lon="7.05234" /><trkpt lat="46.5066" lon="7.05226" /><trkpt lat="46.50638" lon="7.05216" /><trkpt lat="46.50613" lon="7.05204" /><trkpt lat="46.50583" lon="7.05187" /><trkpt lat="46.5053" lon="7.05149" /><trkpt lat="46.50504" lon="7.05132" /><trkpt lat="46.50489" lon="7.05122" /><trkpt lat="46.50474" lon="7.05113" /><trkpt lat="46.50452" lon="7.05102" /><trkpt lat="46.50432" lon="7.05091" /><trkpt lat="46.50418" lon="7.05085" /><trkpt lat="46.50406" lon="7.05079" /><trkpt lat="46.50393" lon="7.05075" /><trkpt lat="46.50381" lon="7.05073" /><trkpt lat="46.50375" lon="7.05074" /><trkpt lat="46.50363" lon="7.05075" /><trkpt lat="46.50346" lon="7.05082" /><trkpt lat="46.5032" lon="7.05096" /><trkpt lat="46.50308" lon="7.051" /><trkpt lat="46.503" lon="7.05101" /><trkpt lat="46.50293" lon="7.05102" /><trkpt lat="46.50286" lon="7.05102" /><trkpt lat="46.50277" lon="7.051" /><trkpt lat="46.50266" lon="7.05097" /><trkpt lat="46.50253" lon="7.05089" /><trkpt lat="46.50244" lon="7.05083" /><trkpt lat="46.501" lon="7.04977" /><trkpt lat="46.50055" lon="7.04949" /><trkpt lat="46.49975" lon="7.04912" /><trkpt lat="46.49945" lon="7.04899" /><trkpt lat="46.49894" lon="7.04882" /><trkpt lat="46.49843" lon="7.04866" /><trkpt lat="46.4983" lon="7.04861" /><trkpt lat="46.49817" lon="7.04856" /><trkpt lat="46.49784" lon="7.04836" /><trkpt lat="46.49769" lon="7.04827" /><trkpt lat="46.49759" lon="7.04822" /><trkpt lat="46.4975" lon="7.0482" /><trkpt lat="46.49742" lon="7.04818" /><trkpt lat="46.4973" lon="7.04818" /><trkpt lat="46.49711" lon="7.04822" /><trkpt lat="46.49698" lon="7.04825" /><trkpt lat="46.49692" lon="7.04827" /><trkpt lat="46.49684" lon="7.04831" /><trkpt lat="46.49678" lon="7.04834" /><trkpt lat="46.49673" lon="7.04837" /><trkpt lat="46.49662" lon="7.04846" /><trkpt lat="46.49653" lon="7.04854" /><trkpt lat="46.49643" lon="7.04866" /><trkpt lat="46.49631" lon="7.04884" /><trkpt lat="46.49623" lon="7.04901" /><trkpt lat="46.49618" lon="7.04912" /><trkpt lat="46.49614" lon="7.04926" /><trkpt lat="46.4961" lon="7.04943" /><trkpt lat="46.49607" lon="7.04957" /><trkpt lat="46.49602" lon="7.04982" /><trkpt lat="46.49598" lon="7.04996" /><trkpt lat="46.49592" lon="7.05015" /><trkpt lat="46.49587" lon="7.05027" /><trkpt lat="46.4958" lon="7.0504" /><trkpt lat="46.49572" lon="7.05052" /><trkpt lat="46.49561" lon="7.05065" /><trkpt lat="46.49547" lon="7.05077" /><trkpt lat="46.49534" lon="7.05086" /><trkpt lat="46.49521" lon="7.05091" /><trkpt lat="46.49508" lon="7.05093" /><trkpt lat="46.495" lon="7.05094" /><trkpt lat="46.49494" lon="7.05094" /><trkpt lat="46.49465" lon="7.05093" /><trkpt lat="46.49447" lon="7.0509" /><trkpt lat="46.49433" lon="7.05086" /><trkpt lat="46.4942" lon="7.0508" /><trkpt lat="46.49407" lon="7.05071" /><trkpt lat="46.49362" lon="7.05036" /><trkpt lat="46.49345" lon="7.05023" /><trkpt lat="46.49331" lon="7.05013" /><trkpt lat="46.4931" lon="7.04996" /><trkpt lat="46.49293" lon="7.04984" /><trkpt lat="46.49186" lon="7.04902" /><trkpt lat="46.49127" lon="7.0486" /><trkpt lat="46.49081" lon="7.04821" /><trkpt lat="46.49038" lon="7.04791" /><trkpt lat="46.49019" lon="7.04776" /><trkpt lat="46.4901" lon="7.04767" /><trkpt lat="46.49" lon="7.04758" /><trkpt lat="46.48986" lon="7.04741" /><trkpt lat="46.48971" lon="7.04718" /><trkpt lat="46.4896" lon="7.04696" /><trkpt lat="46.48833" lon="7.04445" /><trkpt lat="46.48827" lon="7.04434" /><trkpt lat="46.48822" lon="7.04427" /><trkpt lat="46.48817" lon="7.0442" /><trkpt lat="46.48808" lon="7.04411" /><trkpt lat="46.48803" lon="7.04406" /><trkpt lat="46.48796" lon="7.044" /><trkpt lat="46.48791" lon="7.04396" /><trkpt lat="46.48775" lon="7.04387" /><trkpt lat="46.4874" lon="7.04366" /><trkpt lat="46.48688" lon="7.04336" /><trkpt lat="46.48674" lon="7.04329" /><trkpt lat="46.48665" lon="7.04325" /><trkpt lat="46.48655" lon="7.04321" /><trkpt lat="46.48632" lon="7.04311" /><trkpt lat="46.48606" lon="7.043" /><trkpt lat="46.48599" lon="7.04297" /><trkpt lat="46.48592" lon="7.04294" /><trkpt lat="46.48586" lon="7.0429" /><trkpt lat="46.48579" lon="7.04285" /><trkpt lat="46.48572" lon="7.0428" /><trkpt lat="46.48567" lon="7.04275" /><trkpt lat="46.48562" lon="7.0427" /><trkpt lat="46.48557" lon="7.04264" /><trkpt lat="46.4855" lon="7.04256" /><trkpt lat="46.48535" lon="7.04236" /><trkpt lat="46.48521" lon="7.04218" /><trkpt lat="46.48486" lon="7.04175" /><trkpt lat="46.48417" lon="7.04088" /><trkpt lat="46.4841" lon="7.04079" /><trkpt lat="46.48404" lon="7.04071" /><trkpt lat="46.48397" lon="7.0406" /><trkpt lat="46.48391" lon="7.04051" /><trkpt lat="46.48386" lon="7.04042" /><trkpt lat="46.4838" lon="7.04032" /><trkpt lat="46.48375" lon="7.0402" /><trkpt lat="46.48368" lon="7.04004" /><trkpt lat="46.4835" lon="7.03961" /><trkpt lat="46.48342" lon="7.03941" /><trkpt lat="46.48336" lon="7.03929" /><trkpt lat="46.48326" lon="7.03908" /><trkpt lat="46.4837" lon="7.03994" /><trkpt lat="46.48377" lon="7.04006" /><trkpt lat="46.48384" lon="7.04019" /><trkpt lat="46.48389" lon="7.04027" /><trkpt lat="46.48394" lon="7.04035" /><trkpt lat="46.48399" lon="7.04043" /><trkpt lat="46.48403" lon="7.04049" /><trkpt lat="46.48408" lon="7.04055" /><trkpt lat="46.48414" lon="7.04062" /><trkpt lat="46.48493" lon="7.04162" /><trkpt lat="46.48547" lon="7.0423" /><trkpt lat="46.48556" lon="7.04242" /><trkpt lat="46.48563" lon="7.0425" /><trkpt lat="46.4857" lon="7.04258" /><trkpt lat="46.48575" lon="7.04264" /><trkpt lat="46.48581" lon="7.04269" /><trkpt lat="46.48586" lon="7.04273" /><trkpt lat="46.48586" lon="7.04273" /></trkseg></trk></gpx>