<gpx version="1.1" creator="Trainlog.me"><trk><name>Trip Path</name><trkseg><trkpt lat="46.69056" lon="7.86897" /><trkpt lat="46.69057" lon="7.86899" /><trkpt lat="46.69062" lon="7.86945" /><trkpt lat="46.69081" lon="7.8712" /><trkpt lat="46.69083" lon="7.87137" /><trkpt lat="46.69084" lon="7.87143" /><trkpt lat="46.69085" lon="7.8715" /><trkpt lat="46.69085" lon="7.87157" /><trkpt lat="46.69085" lon="7.87164" /><trkpt lat="46.69085" lon="7.87169" /><trkpt lat="46.69085" lon="7.87173" /><trkpt lat="46.69085" lon="7.87176" /><trkpt lat="46.69084" lon="7.87179" /><trkpt lat="46.69083" lon="7.87186" /><trkpt lat="46.69083" lon="7.87191" /><trkpt lat="46.69082" lon="7.87196" /><trkpt lat="46.69081" lon="7.872" /><trkpt lat="46.6908" lon="7.87205" /><trkpt lat="46.69079" lon="7.87209" /><trkpt lat="46.69078" lon="7.87214" /><trkpt lat="46.69077" lon="7.87218" /><trkpt lat="46.69076" lon="7.87223" /><trkpt lat="46.69074" lon="7.87229" /><trkpt lat="46.69072" lon="7.87233" /><trkpt lat="46.69071" lon="7.87236" /><trkpt lat="46.6907" lon="7.8724" /><trkpt lat="46.69068" lon="7.87244" /><trkpt lat="46.69067" lon="7.87248" /><trkpt lat="46.69065" lon="7.87251" /><trkpt lat="46.69062" lon="7.87257" /><trkpt lat="46.69061" lon="7.8726" /><trkpt lat="46.69059" lon="7.87263" /><trkpt lat="46.69056" lon="7.87269" /><trkpt lat="46.69052" lon="7.87274" /><trkpt lat="46.69049" lon="7.87279" /><trkpt lat="46.69046" lon="7.87284" /><trkpt lat="46.69044" lon="7.87288" /><trkpt lat="46.69037" lon="7.87296" /><trkpt lat="46.69032" lon="7.87302" /><trkpt lat="46.69029" lon="7.87306" /><trkpt lat="46.69025" lon="7.87311" /><trkpt lat="46.69013" lon="7.87322" /><trkpt lat="46.69004" lon="7.87329" /><trkpt lat="46.68992" lon="7.87337" /><trkpt lat="46.68985" lon="7.87341" /><trkpt lat="46.6898" lon="7.87343" /><trkpt lat="46.68974" lon="7.87346" /><trkpt lat="46.68966" lon="7.87349" /><trkpt lat="46.68953" lon="7.87352" /><trkpt lat="46.68944" lon="7.87354" /><trkpt lat="46.68926" lon="7.87357" /><trkpt lat="46.68828" lon="7.87373" /><trkpt lat="46.6881" lon="7.87376" /><trkpt lat="46.68793" lon="7.87379" /><trkpt lat="46.68768" lon="7.87383" /><trkpt lat="46.68741" lon="7.87387" /><trkpt lat="46.68733" lon="7.87388" /><trkpt lat="46.68714" lon="7.87391" /><trkpt lat="46.68664" lon="7.87397" /><trkpt lat="46.68592" lon="7.87405" /><trkpt lat="46.68541" lon="7.87413" /><trkpt lat="46.68515" lon="7.87417" /><trkpt lat="46.68387" lon="7.87438" /><trkpt lat="46.68329" lon="7.87448" /><trkpt lat="46.68284" lon="7.87456" /><trkpt lat="46.68269" lon="7.87459" /><trkpt lat="46.68252" lon="7.87465" /><trkpt lat="46.68243" lon="7.87468" /><trkpt lat="46.68234" lon="7.87471" /><trkpt lat="46.68216" lon="7.8748" /><trkpt lat="46.68198" lon="7.8749" /><trkpt lat="46.68181" lon="7.87501" /><trkpt lat="46.68153" lon="7.87522" /><trkpt lat="46.6807" lon="7.87586" /><trkpt lat="46.68057" lon="7.87595" /><trkpt lat="46.68036" lon="7.8761" /><trkpt lat="46.68023" lon="7.87618" /><trkpt lat="46.68005" lon="7.87627" /><trkpt lat="46.67989" lon="7.87633" /><trkpt lat="46.67979" lon="7.87636" /><trkpt lat="46.67969" lon="7.87639" /><trkpt lat="46.67957" lon="7.87641" /><trkpt lat="46.67948" lon="7.87642" /><trkpt lat="46.67933" lon="7.87643" /><trkpt lat="46.67926" lon="7.87644" /><trkpt lat="46.67918" lon="7.87643" /><trkpt lat="46.67911" lon="7.87642" /><trkpt lat="46.67903" lon="7.87642" /><trkpt lat="46.67889" lon="7.87639" /><trkpt lat="46.67875" lon="7.87637" /><trkpt lat="46.67702" lon="7.87602" /><trkpt lat="46.67688" lon="7.87598" /><trkpt lat="46.67675" lon="7.87594" /><trkpt lat="46.67663" lon="7.8759" /><trkpt lat="46.67655" lon="7.87586" /><trkpt lat="46.67646" lon="7.87582" /><trkpt lat="46.6764" lon="7.87579" /><trkpt lat="46.67634" lon="7.87575" /><trkpt lat="46.67627" lon="7.8757" /><trkpt lat="46.67619" lon="7.87565" /><trkpt lat="46.67616" lon="7.87563" /><trkpt lat="46.67598" lon="7.87548" /><trkpt lat="46.67585" lon="7.87537" /><trkpt lat="46.67567" lon="7.87519" /><trkpt lat="46.67557" lon="7.87508" /><trkpt lat="46.67541" lon="7.87488" /><trkpt lat="46.67523" lon="7.87465" /><trkpt lat="46.67493" lon="7.87417" /><trkpt lat="46.67437" lon="7.87328" /><trkpt lat="46.67397" lon="7.87263" /><trkpt lat="46.67357" lon="7.872" /><trkpt lat="46.67327" lon="7.87152" /><trkpt lat="46.67279" lon="7.87075" /><trkpt lat="46.67262" lon="7.87048" /><trkpt lat="46.6725" lon="7.87031" /><trkpt lat="46.6724" lon="7.87019" /><trkpt lat="46.6723" lon="7.87008" /><trkpt lat="46.67217" lon="7.86996" /><trkpt lat="46.67206" lon="7.86988" /><trkpt lat="46.67196" lon="7.86981" /><trkpt lat="46.67185" lon="7.86975" /><trkpt lat="46.67176" lon="7.86971" /><trkpt lat="46.67166" lon="7.86967" /><trkpt lat="46.67151" lon="7.86963" /><trkpt lat="46.67143" lon="7.86961" /><trkpt lat="46.67135" lon="7.8696" /><trkpt lat="46.67128" lon="7.8696" /><trkpt lat="46.67114" lon="7.8696" /><trkpt lat="46.67107" lon="7.8696" /><trkpt lat="46.67101" lon="7.86961" /><trkpt lat="46.67095" lon="7.86962" /><trkpt lat="46.67086" lon="7.86964" /><trkpt lat="46.67077" lon="7.86967" /><trkpt lat="46.67069" lon="7.8697" /><trkpt lat="46.67058" lon="7.86974" /><trkpt lat="46.67047" lon="7.8698" /><trkpt lat="46.6704" lon="7.86983" /><trkpt lat="46.67031" lon="7.86988" /><trkpt lat="46.67014" lon="7.86997" /><trkpt lat="46.66996" lon="7.87007" /><trkpt lat="46.66974" lon="7.87018" /><trkpt lat="46.66954" lon="7.87027" /><trkpt lat="46.66938" lon="7.87034" /><trkpt lat="46.66931" lon="7.87039" /><trkpt lat="46.66922" lon="7.87044" /><trkpt lat="46.6691" lon="7.8705" /><trkpt lat="46.66899" lon="7.87056" /><trkpt lat="46.6689" lon="7.8706" /><trkpt lat="46.66884" lon="7.87064" /><trkpt lat="46.66876" lon="7.87067" /><trkpt lat="46.6687" lon="7.87069" /><trkpt lat="46.66864" lon="7.87071" /><trkpt lat="46.66857" lon="7.87073" /><trkpt lat="46.66851" lon="7.87075" /><trkpt lat="46.66844" lon="7.87077" /><trkpt lat="46.66837" lon="7.87078" /><trkpt lat="46.66831" lon="7.87078" /><trkpt lat="46.66824" lon="7.87079" /><trkpt lat="46.66819" lon="7.87079" /><trkpt lat="46.66811" lon="7.87078" /><trkpt lat="46.66804" lon="7.87078" /><trkpt lat="46.66797" lon="7.87077" /><trkpt lat="46.66791" lon="7.87075" /><trkpt lat="46.66784" lon="7.87073" /><trkpt lat="46.66778" lon="7.87072" /><trkpt lat="46.66773" lon="7.8707" /><trkpt lat="46.66768" lon="7.87067" /><trkpt lat="46.66765" lon="7.87066" /><trkpt lat="46.66763" lon="7.87065" /><trkpt lat="46.66757" lon="7.87062" /><trkpt lat="46.66753" lon="7.8706" /><trkpt lat="46.66749" lon="7.87058" /><trkpt lat="46.66744" lon="7.87055" /><trkpt lat="46.66739" lon="7.87052" /><trkpt lat="46.66702" lon="7.87028" /><trkpt lat="46.66694" lon="7.87022" /><trkpt lat="46.66689" lon="7.87019" /><trkpt lat="46.66572" lon="7.86942" /><trkpt lat="46.66556" lon="7.86931" /><trkpt lat="46.66551" lon="7.86928" /><trkpt lat="46.66545" lon="7.86924" /><trkpt lat="46.6654" lon="7.86922" /><trkpt lat="46.66535" lon="7.86919" /><trkpt lat="46.6653" lon="7.86917" /><trkpt lat="46.66525" lon="7.86916" /><trkpt lat="46.66517" lon="7.86914" /><trkpt lat="46.6651" lon="7.86913" /><trkpt lat="46.66504" lon="7.86913" /><trkpt lat="46.66499" lon="7.86913" /><trkpt lat="46.66495" lon="7.86913" /><trkpt lat="46.66491" lon="7.86914" /><trkpt lat="46.66488" lon="7.86914" /><trkpt lat="46.66485" lon="7.86915" /><trkpt lat="46.66481" lon="7.86916" /><trkpt lat="46.66478" lon="7.86917" /><trkpt lat="46.66472" lon="7.8692" /><trkpt lat="46.66468" lon="7.86922" /><trkpt lat="46.66465" lon="7.86924" /><trkpt lat="46.6646" lon="7.86927" /><trkpt lat="46.66455" lon="7.8693" /><trkpt lat="46.66451" lon="7.86934" /><trkpt lat="46.6644" lon="7.86944" /><trkpt lat="46.66377" lon="7.87003" /><trkpt lat="46.66368" lon="7.87011" /><trkpt lat="46.66362" lon="7.87017" /><trkpt lat="46.66357" lon="7.8702" /><trkpt lat="46.66351" lon="7.87024" /><trkpt lat="46.66345" lon="7.87027" /><trkpt lat="46.66339" lon="7.8703" /><trkpt lat="46.66333" lon="7.87032" /><trkpt lat="46.66326" lon="7.87034" /><trkpt lat="46.6632" lon="7.87035" /><trkpt lat="46.66313" lon="7.87036" /><trkpt lat="46.66305" lon="7.87035" /><trkpt lat="46.66297" lon="7.87035" /><trkpt lat="46.66289" lon="7.87032" /><trkpt lat="46.66281" lon="7.87029" /><trkpt lat="46.66273" lon="7.87026" /><trkpt lat="46.66212" lon="7.86996" /><trkpt lat="46.66204" lon="7.86991" /><trkpt lat="46.66195" lon="7.86986" /><trkpt lat="46.66187" lon="7.86979" /><trkpt lat="46.66179" lon="7.86973" /><trkpt lat="46.6617" lon="7.86965" /><trkpt lat="46.66155" lon="7.8695" /><trkpt lat="46.66147" lon="7.86943" /><trkpt lat="46.6614" lon="7.86937" /><trkpt lat="46.66134" lon="7.86933" /><trkpt lat="46.66129" lon="7.86931" /><trkpt lat="46.66124" lon="7.86928" /><trkpt lat="46.6612" lon="7.86926" /><trkpt lat="46.66116" lon="7.86924" /><trkpt lat="46.66109" lon="7.86922" /><trkpt lat="46.66102" lon="7.8692" /><trkpt lat="46.66095" lon="7.86918" /><trkpt lat="46.66089" lon="7.86917" /><trkpt lat="46.66073" lon="7.86915" /><trkpt lat="46.66044" lon="7.86911" /><trkpt lat="46.65948" lon="7.86899" /><trkpt lat="46.6589" lon="7.86893" /><trkpt lat="46.6587" lon="7.86894" /><trkpt lat="46.65805" lon="7.86906" /><trkpt lat="46.65787" lon="7.86908" /><trkpt lat="46.65769" lon="7.86907" /><trkpt lat="46.65751" lon="7.86903" /><trkpt lat="46.65732" lon="7.86896" /><trkpt lat="46.6571" lon="7.86884" /><trkpt lat="46.65685" lon="7.86868" /><trkpt lat="46.65672" lon="7.86862" /><trkpt lat="46.6566" lon="7.86856" /><trkpt lat="46.65648" lon="7.8685" /><trkpt lat="46.65635" lon="7.86847" /><trkpt lat="46.6561" lon="7.86843" /><trkpt lat="46.65589" lon="7.86844" /><trkpt lat="46.6557" lon="7.86848" /><trkpt lat="46.6555" lon="7.86855" /><trkpt lat="46.65534" lon="7.86865" /><trkpt lat="46.65519" lon="7.86876" /><trkpt lat="46.65502" lon="7.86891" /><trkpt lat="46.65476" lon="7.8692" /><trkpt lat="46.65452" lon="7.86946" /><trkpt lat="46.65423" lon="7.86969" /><trkpt lat="46.65401" lon="7.86985" /><trkpt lat="46.65383" lon="7.86994" /><trkpt lat="46.65362" lon="7.87003" /><trkpt lat="46.65339" lon="7.87013" /><trkpt lat="46.65313" lon="7.87033" /><trkpt lat="46.6529" lon="7.8705" /><trkpt lat="46.65276" lon="7.87066" /><trkpt lat="46.65259" lon="7.87085" /><trkpt lat="46.65244" lon="7.87105" /><trkpt lat="46.65228" lon="7.8713" /><trkpt lat="46.65214" lon="7.87157" /><trkpt lat="46.65197" lon="7.87193" /><trkpt lat="46.65187" lon="7.8721" /><trkpt lat="46.65177" lon="7.87227" /><trkpt lat="46.65166" lon="7.87242" /><trkpt lat="46.65153" lon="7.87257" /><trkpt lat="46.65137" lon="7.87272" /><trkpt lat="46.65124" lon="7.87282" /><trkpt lat="46.65111" lon="7.8729" /><trkpt lat="46.65099" lon="7.87296" /><trkpt lat="46.65089" lon="7.873" /><trkpt lat="46.65076" lon="7.87303" /><trkpt lat="46.6505" lon="7.87308" /><trkpt lat="46.65017" lon="7.8731" /><trkpt lat="46.64993" lon="7.87314" /><trkpt lat="46.6497" lon="7.87321" /><trkpt lat="46.64952" lon="7.87329" /><trkpt lat="46.64929" lon="7.87346" /><trkpt lat="46.64893" lon="7.87372" /><trkpt lat="46.64871" lon="7.87386" /><trkpt lat="46.64844" lon="7.87397" /><trkpt lat="46.64792" lon="7.87415" /><trkpt lat="46.64781" lon="7.8742" /><trkpt lat="46.64762" lon="7.87431" /><trkpt lat="46.64753" lon="7.87437" /><trkpt lat="46.64743" lon="7.87445" /><trkpt lat="46.64734" lon="7.87453" /><trkpt lat="46.64723" lon="7.87464" /><trkpt lat="46.64711" lon="7.87476" /><trkpt lat="46.64693" lon="7.87495" /><trkpt lat="46.64674" lon="7.87515" /><trkpt lat="46.6464" lon="7.87551" /><trkpt lat="46.64612" lon="7.8758" /><trkpt lat="46.64587" lon="7.87606" /><trkpt lat="46.64574" lon="7.8762" /><trkpt lat="46.64564" lon="7.87633" /><trkpt lat="46.64557" lon="7.87642" /><trkpt lat="46.64547" lon="7.87657" /><trkpt lat="46.64539" lon="7.8767" /><trkpt lat="46.64531" lon="7.87686" /><trkpt lat="46.64523" lon="7.87703" /><trkpt lat="46.64515" lon="7.87721" /><trkpt lat="46.64504" lon="7.87744" /><trkpt lat="46.64496" lon="7.87761" /><trkpt lat="46.64487" lon="7.87776" /><trkpt lat="46.64478" lon="7.87791" /><trkpt lat="46.64468" lon="7.87807" /><trkpt lat="46.64458" lon="7.8782" /><trkpt lat="46.64445" lon="7.87838" /><trkpt lat="46.64428" lon="7.87862" /><trkpt lat="46.64418" lon="7.87876" /><trkpt lat="46.64408" lon="7.87892" /><trkpt lat="46.64396" lon="7.87914" /><trkpt lat="46.64388" lon="7.87929" /><trkpt lat="46.64378" lon="7.87948" /><trkpt lat="46.64369" lon="7.87968" /><trkpt lat="46.64359" lon="7.87994" /><trkpt lat="46.6435" lon="7.88017" /><trkpt lat="46.6434" lon="7.88047" /><trkpt lat="46.6433" lon="7.88078" /><trkpt lat="46.64319" lon="7.88116" /><trkpt lat="46.64299" lon="7.88186" /><trkpt lat="46.6427" lon="7.88288" /><trkpt lat="46.64245" lon="7.88375" /><trkpt lat="46.64239" lon="7.88395" /><trkpt lat="46.64231" lon="7.88415" /><trkpt lat="46.64225" lon="7.8843" /><trkpt lat="46.64219" lon="7.88444" /><trkpt lat="46.64211" lon="7.88462" /><trkpt lat="46.64203" lon="7.88477" /><trkpt lat="46.64193" lon="7.88493" /><trkpt lat="46.64181" lon="7.8851" /><trkpt lat="46.64171" lon="7.88525" /><trkpt lat="46.64161" lon="7.88537" /><trkpt lat="46.6415" lon="7.88549" /><trkpt lat="46.64138" lon="7.88562" /><trkpt lat="46.64125" lon="7.88574" /><trkpt lat="46.64114" lon="7.88583" /><trkpt lat="46.64101" lon="7.88592" /><trkpt lat="46.64073" lon="7.88611" /><trkpt lat="46.64049" lon="7.88627" /><trkpt lat="46.64011" lon="7.88651" /><trkpt lat="46.63982" lon="7.88672" /><trkpt lat="46.63974" lon="7.88678" /><trkpt lat="46.63967" lon="7.88684" /><trkpt lat="46.63958" lon="7.88693" /><trkpt lat="46.63951" lon="7.887" /><trkpt lat="46.63942" lon="7.8871" /><trkpt lat="46.63933" lon="7.88722" /><trkpt lat="46.63924" lon="7.88735" /><trkpt lat="46.63915" lon="7.88749" /><trkpt lat="46.63907" lon="7.88763" /><trkpt lat="46.63897" lon="7.88783" /><trkpt lat="46.63888" lon="7.88803" /><trkpt lat="46.63881" lon="7.88823" /><trkpt lat="46.63876" lon="7.88838" /><trkpt lat="46.63872" lon="7.88852" /><trkpt lat="46.63868" lon="7.88871" /><trkpt lat="46.63864" lon="7.88892" /><trkpt lat="46.63861" lon="7.88907" /><trkpt lat="46.63858" lon="7.88932" /><trkpt lat="46.63856" lon="7.88957" /><trkpt lat="46.63853" lon="7.88991" /><trkpt lat="46.63852" lon="7.89017" /><trkpt lat="46.63852" lon="7.89041" /><trkpt lat="46.63852" lon="7.89064" /><trkpt lat="46.63853" lon="7.89095" /><trkpt lat="46.63854" lon="7.89114" /><trkpt lat="46.63854" lon="7.89117" /><trkpt lat="46.63854" lon="7.89147" /><trkpt lat="46.63854" lon="7.89168" /><trkpt lat="46.63852" lon="7.89193" /><trkpt lat="46.6385" lon="7.89213" /><trkpt lat="46.63845" lon="7.89239" /><trkpt lat="46.63839" lon="7.89259" /><trkpt lat="46.63831" lon="7.89284" /><trkpt lat="46.63824" lon="7.89303" /><trkpt lat="46.63815" lon="7.89322" /><trkpt lat="46.63806" lon="7.89338" /><trkpt lat="46.63793" lon="7.89357" /><trkpt lat="46.63783" lon="7.89371" /><trkpt lat="46.63769" lon="7.89385" /><trkpt lat="46.63758" lon="7.89394" /><trkpt lat="46.63742" lon="7.89406" /><trkpt lat="46.63711" lon="7.89426" /><trkpt lat="46.63672" lon="7.89447" /><trkpt lat="46.63608" lon="7.89482" /><trkpt lat="46.63529" lon="7.89524" /><trkpt lat="46.63521" lon="7.89529" /><trkpt lat="46.63514" lon="7.89534" /><trkpt lat="46.63506" lon="7.8954" /><trkpt lat="46.635" lon="7.89545" /><trkpt lat="46.63493" lon="7.89551" /><trkpt lat="46.63486" lon="7.89558" /><trkpt lat="46.63479" lon="7.89566" /><trkpt lat="46.63471" lon="7.89576" /><trkpt lat="46.63466" lon="7.89583" /><trkpt lat="46.6346" lon="7.89592" /><trkpt lat="46.63454" lon="7.89602" /><trkpt lat="46.63448" lon="7.89613" /><trkpt lat="46.63442" lon="7.89625" /><trkpt lat="46.63437" lon="7.89636" /><trkpt lat="46.63434" lon="7.89646" /><trkpt lat="46.6343" lon="7.89657" /><trkpt lat="46.63426" lon="7.8967" /><trkpt lat="46.6342" lon="7.89693" /><trkpt lat="46.63417" lon="7.89714" /><trkpt lat="46.63414" lon="7.89736" /><trkpt lat="46.63411" lon="7.89769" /><trkpt lat="46.63407" lon="7.89801" /><trkpt lat="46.63406" lon="7.89811" /><trkpt lat="46.63405" lon="7.8982" /><trkpt lat="46.63404" lon="7.8983" /><trkpt lat="46.63402" lon="7.89841" /><trkpt lat="46.634" lon="7.89849" /><trkpt lat="46.63398" lon="7.89855" /><trkpt lat="46.63395" lon="7.89863" /><trkpt lat="46.63392" lon="7.89871" /><trkpt lat="46.63389" lon="7.89878" /><trkpt lat="46.63383" lon="7.89889" /><trkpt lat="46.6338" lon="7.89895" /><trkpt lat="46.63375" lon="7.89902" /><trkpt lat="46.63368" lon="7.89911" /><trkpt lat="46.63358" lon="7.89921" /><trkpt lat="46.63351" lon="7.89927" /><trkpt lat="46.63346" lon="7.89932" /><trkpt lat="46.6334" lon="7.89936" /><trkpt lat="46.63328" lon="7.89946" /><trkpt lat="46.63281" lon="7.8998" /><trkpt lat="46.63244" lon="7.9001" /><trkpt lat="46.63219" lon="7.90028" /><trkpt lat="46.6317" lon="7.90065" /><trkpt lat="46.63153" lon="7.90078" /><trkpt lat="46.63134" lon="7.90092" /><trkpt lat="46.63098" lon="7.90118" /><trkpt lat="46.63084" lon="7.9013" /><trkpt lat="46.63081" lon="7.90132" /><trkpt lat="46.63076" lon="7.90136" /><trkpt lat="46.63069" lon="7.90143" /><trkpt lat="46.6306" lon="7.90153" /><trkpt lat="46.6304" lon="7.90176" /><trkpt lat="46.63016" lon="7.90214" /><trkpt lat="46.62978" lon="7.90274" /><trkpt lat="46.62961" lon="7.90292" /><trkpt lat="46.6294" lon="7.90305" /><trkpt lat="46.62927" lon="7.9031" /><trkpt lat="46.6291" lon="7.90312" /><trkpt lat="46.62893" lon="7.9031" /><trkpt lat="46.62882" lon="7.90306" /><trkpt lat="46.62856" lon="7.90297" /><trkpt lat="46.62834" lon="7.90288" /><trkpt lat="46.6281" lon="7.90286" /><trkpt lat="46.62786" lon="7.90291" /><trkpt lat="46.62646" lon="7.90328" /><trkpt lat="46.62595" lon="7.90352" /><trkpt lat="46.62549" lon="7.90378" /><trkpt lat="46.62491" lon="7.90391" /><trkpt lat="46.6243" lon="7.90396" /><trkpt lat="46.62322" lon="7.90366" /><trkpt lat="46.62266" lon="7.90363" /><trkpt lat="46.62237" lon="7.90362" /><trkpt lat="46.62214" lon="7.90352" /><trkpt lat="46.62027" lon="7.90235" /><trkpt lat="46.61976" lon="7.90217" /><trkpt lat="46.61922" lon="7.90226" /><trkpt lat="46.61844" lon="7.9025" /><trkpt lat="46.61812" lon="7.90265" /><trkpt lat="46.61795" lon="7.90266" /><trkpt lat="46.61779" lon="7.90262" /><trkpt lat="46.61753" lon="7.90245" /><trkpt lat="46.61731" lon="7.90231" /><trkpt lat="46.61695" lon="7.90207" /><trkpt lat="46.61647" lon="7.90196" /><trkpt lat="46.61617" lon="7.90189" /><trkpt lat="46.61593" lon="7.90192" /><trkpt lat="46.61571" lon="7.90203" /><trkpt lat="46.6155" lon="7.90219" /><trkpt lat="46.61528" lon="7.90233" /><trkpt lat="46.61505" lon="7.90251" /><trkpt lat="46.61473" lon="7.90273" /><trkpt lat="46.61451" lon="7.90289" /><trkpt lat="46.61442" lon="7.90293" /><trkpt lat="46.61433" lon="7.90296" /><trkpt lat="46.61415" lon="7.90298" /><trkpt lat="46.61396" lon="7.90299" /><trkpt lat="46.61387" lon="7.90298" /><trkpt lat="46.6138" lon="7.90295" /><trkpt lat="46.61372" lon="7.9029" /><trkpt lat="46.61356" lon="7.9028" /><trkpt lat="46.61331" lon="7.90263" /><trkpt lat="46.6131" lon="7.90249" /><trkpt lat="46.61279" lon="7.90228" /><trkpt lat="46.61246" lon="7.90206" /><trkpt lat="46.61225" lon="7.90199" /><trkpt lat="46.61203" lon="7.90196" /><trkpt lat="46.61178" lon="7.90198" /><trkpt lat="46.6107" lon="7.90245" /><trkpt lat="46.60976" lon="7.90269" /><trkpt lat="46.60933" lon="7.90275" /><trkpt lat="46.60896" lon="7.90285" /><trkpt lat="46.6088" lon="7.90294" /><trkpt lat="46.60854" lon="7.90316" /><trkpt lat="46.60826" lon="7.90342" /><trkpt lat="46.60816" lon="7.90354" /><trkpt lat="46.60806" lon="7.90368" /><trkpt lat="46.60798" lon="7.90382" /><trkpt lat="46.60791" lon="7.90397" /><trkpt lat="46.60783" lon="7.9042" /><trkpt lat="46.60778" lon="7.90438" /><trkpt lat="46.60773" lon="7.90454" /><trkpt lat="46.60764" lon="7.90477" /><trkpt lat="46.60752" lon="7.90499" /><trkpt lat="46.60736" lon="7.90517" /><trkpt lat="46.60722" lon="7.90528" /><trkpt lat="46.60708" lon="7.90536" /><trkpt lat="46.6069" lon="7.90542" /><trkpt lat="46.60677" lon="7.90542" /><trkpt lat="46.60628" lon="7.90537" /><trkpt lat="46.60615" lon="7.90538" /><trkpt lat="46.60602" lon="7.9054" /><trkpt lat="46.60584" lon="7.90548" /><trkpt lat="46.60455" lon="7.90618" /><trkpt lat="46.60414" lon="7.90635" /><trkpt lat="46.60331" lon="7.90665" /><trkpt lat="46.60313" lon="7.90669" /><trkpt lat="46.60298" lon="7.90671" /><trkpt lat="46.6027" lon="7.90673" /><trkpt lat="46.60241" lon="7.90671" /><trkpt lat="46.6022" lon="7.90668" /><trkpt lat="46.60194" lon="7.90665" /><trkpt lat="46.60178" lon="7.90662" /><trkpt lat="46.6016" lon="7.90656" /><trkpt lat="46.60136" lon="7.90648" /><trkpt lat="46.60119" lon="7.90643" /><trkpt lat="46.60106" lon="7.90641" /><trkpt lat="46.60095" lon="7.90642" /><trkpt lat="46.6008" lon="7.90645" /><trkpt lat="46.60065" lon="7.90651" /><trkpt lat="46.60035" lon="7.90666" /><trkpt lat="46.60018" lon="7.90677" /><trkpt lat="46.60007" lon="7.90687" /><trkpt lat="46.59993" lon="7.90703" /><trkpt lat="46.59979" lon="7.90725" /><trkpt lat="46.59973" lon="7.90734" /><trkpt lat="46.59969" lon="7.90739" /><trkpt lat="46.59954" lon="7.90755" /><trkpt lat="46.59952" lon="7.90757" /><trkpt lat="46.59946" lon="7.90761" /><trkpt lat="46.59938" lon="7.90766" /><trkpt lat="46.59927" lon="7.90772" /><trkpt lat="46.59913" lon="7.90777" /><trkpt lat="46.59905" lon="7.90781" /><trkpt lat="46.59898" lon="7.90783" /><trkpt lat="46.59889" lon="7.90786" /><trkpt lat="46.5988" lon="7.90788" /><trkpt lat="46.59842" lon="7.90796" /><trkpt lat="46.59836" lon="7.90797" /><trkpt lat="46.59836" lon="7.90797" /></trkseg></trk></gpx>