<gpx version="1.1" creator="Trainlog.me"><trk><name>Trip Path</name><trkseg><trkpt lat="46.51683" lon="6.62912" /><trkpt lat="46.51681" lon="6.62922" /><trkpt lat="46.51664" lon="6.6304" /><trkpt lat="46.51659" lon="6.63072" /><trkpt lat="46.51656" lon="6.63091" /><trkpt lat="46.51651" lon="6.6311" /><trkpt lat="46.51649" lon="6.63118" /><trkpt lat="46.51645" lon="6.63131" /><trkpt lat="46.51642" lon="6.63142" /><trkpt lat="46.51637" lon="6.63154" /><trkpt lat="46.51633" lon="6.63166" /><trkpt lat="46.51628" lon="6.63177" /><trkpt lat="46.51621" lon="6.63191" /><trkpt lat="46.51614" lon="6.63203" /><trkpt lat="46.51609" lon="6.63212" /><trkpt lat="46.51604" lon="6.63221" /><trkpt lat="46.51593" lon="6.63237" /><trkpt lat="46.51583" lon="6.6325" /><trkpt lat="46.51548" lon="6.633" /><trkpt lat="46.51538" lon="6.63313" /><trkpt lat="46.51536" lon="6.63315" /><trkpt lat="46.51528" lon="6.63326" /><trkpt lat="46.51517" lon="6.63338" /><trkpt lat="46.51505" lon="6.63351" /><trkpt lat="46.51492" lon="6.63369" /><trkpt lat="46.51483" lon="6.63381" /><trkpt lat="46.51456" lon="6.63418" /><trkpt lat="46.51447" lon="6.63431" /><trkpt lat="46.51441" lon="6.6344" /><trkpt lat="46.51435" lon="6.63449" /><trkpt lat="46.51423" lon="6.63469" /><trkpt lat="46.51416" lon="6.63482" /><trkpt lat="46.51411" lon="6.63492" /><trkpt lat="46.51406" lon="6.63501" /><trkpt lat="46.51399" lon="6.63516" /><trkpt lat="46.51394" lon="6.63528" /><trkpt lat="46.51389" lon="6.63539" /><trkpt lat="46.51385" lon="6.6355" /><trkpt lat="46.51379" lon="6.63569" /><trkpt lat="46.51375" lon="6.63578" /><trkpt lat="46.51372" lon="6.63588" /><trkpt lat="46.51365" lon="6.63612" /><trkpt lat="46.51361" lon="6.63629" /><trkpt lat="46.51356" lon="6.63646" /><trkpt lat="46.51352" lon="6.63666" /><trkpt lat="46.51348" lon="6.63682" /><trkpt lat="46.51346" lon="6.63691" /><trkpt lat="46.51343" lon="6.63706" /><trkpt lat="46.51341" lon="6.63717" /><trkpt lat="46.51338" lon="6.63735" /><trkpt lat="46.51335" lon="6.63753" /><trkpt lat="46.51333" lon="6.63768" /><trkpt lat="46.51331" lon="6.63788" /><trkpt lat="46.51329" lon="6.6381" /><trkpt lat="46.51328" lon="6.63824" /><trkpt lat="46.51327" lon="6.63837" /><trkpt lat="46.51326" lon="6.63846" /><trkpt lat="46.51325" lon="6.63863" /><trkpt lat="46.51324" lon="6.63885" /><trkpt lat="46.51324" lon="6.63907" /><trkpt lat="46.51324" lon="6.63937" /><trkpt lat="46.51324" lon="6.63944" /><trkpt lat="46.51325" lon="6.63965" /><trkpt lat="46.51326" lon="6.63984" /><trkpt lat="46.51328" lon="6.64012" /><trkpt lat="46.5133" lon="6.64037" /><trkpt lat="46.51331" lon="6.64051" /><trkpt lat="46.51333" lon="6.64066" /><trkpt lat="46.51336" lon="6.64083" /><trkpt lat="46.51339" lon="6.64103" /><trkpt lat="46.51341" lon="6.64119" /><trkpt lat="46.51344" lon="6.64136" /><trkpt lat="46.51348" lon="6.64154" /><trkpt lat="46.51353" lon="6.64175" /><trkpt lat="46.51356" lon="6.6419" /><trkpt lat="46.5136" lon="6.64204" /><trkpt lat="46.51365" lon="6.64225" /><trkpt lat="46.51373" lon="6.6425" /><trkpt lat="46.51379" lon="6.6427" /><trkpt lat="46.51389" lon="6.64302" /><trkpt lat="46.51398" lon="6.64333" /><trkpt lat="46.51405" lon="6.64356" /><trkpt lat="46.51412" lon="6.64382" /><trkpt lat="46.51417" lon="6.64402" /><trkpt lat="46.51421" lon="6.64419" /><trkpt lat="46.51428" lon="6.64447" /><trkpt lat="46.51431" lon="6.64461" /><trkpt lat="46.51433" lon="6.64472" /><trkpt lat="46.51437" lon="6.64492" /><trkpt lat="46.51441" lon="6.64511" /><trkpt lat="46.51445" lon="6.64534" /><trkpt lat="46.51449" lon="6.64557" /><trkpt lat="46.51452" lon="6.64575" /><trkpt lat="46.51454" lon="6.64593" /><trkpt lat="46.51457" lon="6.64614" /><trkpt lat="46.5146" lon="6.64635" /><trkpt lat="46.51462" lon="6.64656" /><trkpt lat="46.51464" lon="6.64676" /><trkpt lat="46.51466" lon="6.64705" /><trkpt lat="46.51467" lon="6.64722" /><trkpt lat="46.51468" lon="6.64739" /><trkpt lat="46.51469" lon="6.64759" /><trkpt lat="46.5147" lon="6.64775" /><trkpt lat="46.51471" lon="6.64792" /><trkpt lat="46.51471" lon="6.6481" /><trkpt lat="46.51471" lon="6.64841" /><trkpt lat="46.51472" lon="6.64865" /><trkpt lat="46.51473" lon="6.65443" /><trkpt lat="46.51473" lon="6.65617" /><trkpt lat="46.51473" lon="6.65618" /><trkpt lat="46.51473" lon="6.65803" /><trkpt lat="46.51474" lon="6.66352" /><trkpt lat="46.51474" lon="6.66374" /><trkpt lat="46.51474" lon="6.66461" /><trkpt lat="46.51474" lon="6.667" /><trkpt lat="46.51475" lon="6.66807" /><trkpt lat="46.51475" lon="6.66808" /><trkpt lat="46.51475" lon="6.66877" /><trkpt lat="46.51476" lon="6.66901" /><trkpt lat="46.51477" lon="6.66925" /><trkpt lat="46.51479" lon="6.66945" /><trkpt lat="46.51481" lon="6.66962" /><trkpt lat="46.51483" lon="6.66983" /><trkpt lat="46.51486" lon="6.67002" /><trkpt lat="46.51489" lon="6.67022" /><trkpt lat="46.51495" lon="6.67056" /><trkpt lat="46.515" lon="6.67084" /><trkpt lat="46.51505" lon="6.67112" /><trkpt lat="46.51507" lon="6.67127" /><trkpt lat="46.51509" lon="6.67143" /><trkpt lat="46.51511" lon="6.67157" /><trkpt lat="46.51512" lon="6.6717" /><trkpt lat="46.51514" lon="6.67185" /><trkpt lat="46.51515" lon="6.67199" /><trkpt lat="46.51515" lon="6.67215" /><trkpt lat="46.51516" lon="6.67234" /><trkpt lat="46.51516" lon="6.67251" /><trkpt lat="46.51516" lon="6.6727" /><trkpt lat="46.51515" lon="6.67289" /><trkpt lat="46.51515" lon="6.67305" /><trkpt lat="46.51514" lon="6.67321" /><trkpt lat="46.51512" lon="6.67337" /><trkpt lat="46.51511" lon="6.67353" /><trkpt lat="46.51509" lon="6.67364" /><trkpt lat="46.51508" lon="6.67376" /><trkpt lat="46.51506" lon="6.67388" /><trkpt lat="46.51504" lon="6.674" /><trkpt lat="46.51501" lon="6.6742" /><trkpt lat="46.51498" lon="6.67436" /><trkpt lat="46.51495" lon="6.67448" /><trkpt lat="46.51495" lon="6.67449" /><trkpt lat="46.5149" lon="6.67468" /><trkpt lat="46.51483" lon="6.67496" /><trkpt lat="46.51479" lon="6.67511" /><trkpt lat="46.51472" lon="6.67532" /><trkpt lat="46.51466" lon="6.6755" /><trkpt lat="46.51459" lon="6.67569" /><trkpt lat="46.5145" lon="6.67591" /><trkpt lat="46.51445" lon="6.67603" /><trkpt lat="46.51439" lon="6.67616" /><trkpt lat="46.51434" lon="6.67626" /><trkpt lat="46.51425" lon="6.67645" /><trkpt lat="46.51419" lon="6.67656" /><trkpt lat="46.51413" lon="6.67666" /><trkpt lat="46.51404" lon="6.67682" /><trkpt lat="46.51394" lon="6.67696" /><trkpt lat="46.51385" lon="6.67711" /><trkpt lat="46.51372" lon="6.67728" /><trkpt lat="46.51359" lon="6.67746" /><trkpt lat="46.51324" lon="6.67792" /><trkpt lat="46.51284" lon="6.67845" /><trkpt lat="46.51272" lon="6.67862" /><trkpt lat="46.51235" lon="6.67911" /><trkpt lat="46.51214" lon="6.67939" /><trkpt lat="46.51204" lon="6.67953" /><trkpt lat="46.51196" lon="6.67966" /><trkpt lat="46.51191" lon="6.67974" /><trkpt lat="46.51181" lon="6.67991" /><trkpt lat="46.51172" lon="6.68008" /><trkpt lat="46.51164" lon="6.68024" /><trkpt lat="46.51157" lon="6.68041" /><trkpt lat="46.51151" lon="6.68057" /><trkpt lat="46.51145" lon="6.68071" /><trkpt lat="46.5114" lon="6.68088" /><trkpt lat="46.51135" lon="6.68102" /><trkpt lat="46.51131" lon="6.68119" /><trkpt lat="46.51127" lon="6.68136" /><trkpt lat="46.51123" lon="6.68151" /><trkpt lat="46.5112" lon="6.68166" /><trkpt lat="46.51118" lon="6.68181" /><trkpt lat="46.51115" lon="6.68198" /><trkpt lat="46.51113" lon="6.68217" /><trkpt lat="46.51111" lon="6.68236" /><trkpt lat="46.5111" lon="6.68253" /><trkpt lat="46.51109" lon="6.68269" /><trkpt lat="46.51109" lon="6.68291" /><trkpt lat="46.51109" lon="6.68308" /><trkpt lat="46.51109" lon="6.68333" /><trkpt lat="46.5111" lon="6.6837" /><trkpt lat="46.51112" lon="6.68408" /><trkpt lat="46.51114" lon="6.68442" /><trkpt lat="46.51116" lon="6.6848" /><trkpt lat="46.5112" lon="6.6852" /><trkpt lat="46.51123" lon="6.68547" /><trkpt lat="46.51126" lon="6.68575" /><trkpt lat="46.51133" lon="6.68631" /><trkpt lat="46.51188" lon="6.69077" /><trkpt lat="46.51192" lon="6.69116" /><trkpt lat="46.51194" lon="6.69136" /><trkpt lat="46.51196" lon="6.69155" /><trkpt lat="46.51198" lon="6.69176" /><trkpt lat="46.51199" lon="6.69194" /><trkpt lat="46.512" lon="6.69209" /><trkpt lat="46.512" lon="6.69225" /><trkpt lat="46.51201" lon="6.6924" /><trkpt lat="46.51201" lon="6.69254" /><trkpt lat="46.51201" lon="6.69261" /><trkpt lat="46.512" lon="6.69285" /><trkpt lat="46.51199" lon="6.6931" /><trkpt lat="46.51198" lon="6.6933" /><trkpt lat="46.51196" lon="6.69351" /><trkpt lat="46.51194" lon="6.6937" /><trkpt lat="46.51192" lon="6.6939" /><trkpt lat="46.51189" lon="6.69409" /><trkpt lat="46.51185" lon="6.69432" /><trkpt lat="46.51181" lon="6.69452" /><trkpt lat="46.51176" lon="6.69474" /><trkpt lat="46.51172" lon="6.69491" /><trkpt lat="46.51166" lon="6.69514" /><trkpt lat="46.51159" lon="6.69535" /><trkpt lat="46.51155" lon="6.69547" /><trkpt lat="46.51151" lon="6.69559" /><trkpt lat="46.51144" lon="6.6958" /><trkpt lat="46.51136" lon="6.696" /><trkpt lat="46.5113" lon="6.69615" /><trkpt lat="46.51124" lon="6.69629" /><trkpt lat="46.51117" lon="6.69643" /><trkpt lat="46.5111" lon="6.69657" /><trkpt lat="46.51099" lon="6.69679" /><trkpt lat="46.51087" lon="6.69702" /><trkpt lat="46.51022" lon="6.69824" /><trkpt lat="46.50998" lon="6.69868" /><trkpt lat="46.50986" lon="6.69891" /><trkpt lat="46.50981" lon="6.699" /><trkpt lat="46.50976" lon="6.69909" /><trkpt lat="46.50973" lon="6.69915" /><trkpt lat="46.5097" lon="6.6992" /><trkpt lat="46.5096" lon="6.69937" /><trkpt lat="46.50954" lon="6.69947" /><trkpt lat="46.50948" lon="6.69957" /><trkpt lat="46.50942" lon="6.69965" /><trkpt lat="46.50937" lon="6.69974" /><trkpt lat="46.50931" lon="6.69982" /><trkpt lat="46.50925" lon="6.69991" /><trkpt lat="46.50918" lon="6.7" /><trkpt lat="46.50911" lon="6.70009" /><trkpt lat="46.50902" lon="6.70021" /><trkpt lat="46.50893" lon="6.70032" /><trkpt lat="46.50882" lon="6.70045" /><trkpt lat="46.50872" lon="6.70056" /><trkpt lat="46.50857" lon="6.70071" /><trkpt lat="46.5085" lon="6.70078" /><trkpt lat="46.50843" lon="6.70085" /><trkpt lat="46.50835" lon="6.70093" /><trkpt lat="46.50826" lon="6.70101" /><trkpt lat="46.50817" lon="6.70108" /><trkpt lat="46.50806" lon="6.70117" /><trkpt lat="46.50785" lon="6.70133" /><trkpt lat="46.50775" lon="6.7014" /><trkpt lat="46.50764" lon="6.70147" /><trkpt lat="46.50751" lon="6.70155" /><trkpt lat="46.50739" lon="6.70162" /><trkpt lat="46.50731" lon="6.70167" /><trkpt lat="46.50608" lon="6.7024" /><trkpt lat="46.5059" lon="6.70251" /><trkpt lat="46.50572" lon="6.70262" /><trkpt lat="46.50555" lon="6.70274" /><trkpt lat="46.50538" lon="6.70285" /><trkpt lat="46.50482" lon="6.70323" /><trkpt lat="46.50468" lon="6.70333" /><trkpt lat="46.50453" lon="6.70343" /><trkpt lat="46.5044" lon="6.70353" /><trkpt lat="46.50426" lon="6.70363" /><trkpt lat="46.50413" lon="6.70373" /><trkpt lat="46.50399" lon="6.70385" /><trkpt lat="46.50391" lon="6.70392" /><trkpt lat="46.5038" lon="6.70402" /><trkpt lat="46.50375" lon="6.70407" /><trkpt lat="46.50369" lon="6.70414" /><trkpt lat="46.5036" lon="6.70424" /><trkpt lat="46.5035" lon="6.70436" /><trkpt lat="46.5034" lon="6.70448" /><trkpt lat="46.50328" lon="6.70464" /><trkpt lat="46.50319" lon="6.70476" /><trkpt lat="46.50314" lon="6.70483" /><trkpt lat="46.5031" lon="6.7049" /><trkpt lat="46.50298" lon="6.70509" /><trkpt lat="46.50293" lon="6.70517" /><trkpt lat="46.50289" lon="6.70524" /><trkpt lat="46.50278" lon="6.70543" /><trkpt lat="46.50273" lon="6.70552" /><trkpt lat="46.50269" lon="6.70561" /><trkpt lat="46.50259" lon="6.7058" /><trkpt lat="46.50249" lon="6.70603" /><trkpt lat="46.50239" lon="6.70625" /><trkpt lat="46.50232" lon="6.70643" /><trkpt lat="46.50225" lon="6.70661" /><trkpt lat="46.50219" lon="6.70677" /><trkpt lat="46.50215" lon="6.70689" /><trkpt lat="46.50212" lon="6.70701" /><trkpt lat="46.50207" lon="6.70717" /><trkpt lat="46.50202" lon="6.70734" /><trkpt lat="46.50197" lon="6.70752" /><trkpt lat="46.5019" lon="6.70776" /><trkpt lat="46.50187" lon="6.70789" /><trkpt lat="46.50181" lon="6.70815" /><trkpt lat="46.50177" lon="6.7084" /><trkpt lat="46.50171" lon="6.70872" /><trkpt lat="46.50165" lon="6.70905" /><trkpt lat="46.50162" lon="6.70921" /><trkpt lat="46.50159" lon="6.70938" /><trkpt lat="46.50155" lon="6.70958" /><trkpt lat="46.50153" lon="6.7097" /><trkpt lat="46.50149" lon="6.70985" /><trkpt lat="46.50144" lon="6.71004" /><trkpt lat="46.50139" lon="6.71022" /><trkpt lat="46.50133" lon="6.71039" /><trkpt lat="46.50128" lon="6.71055" /><trkpt lat="46.50122" lon="6.71069" /><trkpt lat="46.50117" lon="6.71083" /><trkpt lat="46.50107" lon="6.71106" /><trkpt lat="46.501" lon="6.7112" /><trkpt lat="46.50093" lon="6.71133" /><trkpt lat="46.50091" lon="6.71139" /><trkpt lat="46.50085" lon="6.71149" /><trkpt lat="46.50079" lon="6.7116" /><trkpt lat="46.50071" lon="6.71173" /><trkpt lat="46.50063" lon="6.71185" /><trkpt lat="46.50052" lon="6.71202" /><trkpt lat="46.50043" lon="6.71214" /><trkpt lat="46.50036" lon="6.71224" /><trkpt lat="46.50027" lon="6.71234" /><trkpt lat="46.50017" lon="6.71245" /><trkpt lat="46.50008" lon="6.71255" /><trkpt lat="46.49999" lon="6.71264" /><trkpt lat="46.49991" lon="6.71272" /><trkpt lat="46.49983" lon="6.71279" /><trkpt lat="46.49975" lon="6.71285" /><trkpt lat="46.49964" lon="6.71294" /><trkpt lat="46.49955" lon="6.713" /><trkpt lat="46.49944" lon="6.71308" /><trkpt lat="46.4993" lon="6.71317" /><trkpt lat="46.49888" lon="6.71343" /><trkpt lat="46.49879" lon="6.71348" /><trkpt lat="46.49871" lon="6.71353" /><trkpt lat="46.49859" lon="6.71361" /><trkpt lat="46.49854" lon="6.71365" /><trkpt lat="46.49847" lon="6.7137" /><trkpt lat="46.4984" lon="6.71376" /><trkpt lat="46.49832" lon="6.71382" /><trkpt lat="46.49825" lon="6.71388" /><trkpt lat="46.49817" lon="6.71396" /><trkpt lat="46.4981" lon="6.71403" /><trkpt lat="46.49802" lon="6.7141" /><trkpt lat="46.49792" lon="6.71421" /><trkpt lat="46.49782" lon="6.71432" /><trkpt lat="46.4977" lon="6.71447" /><trkpt lat="46.49761" lon="6.71459" /><trkpt lat="46.49752" lon="6.71472" /><trkpt lat="46.49743" lon="6.71484" /><trkpt lat="46.49736" lon="6.71496" /><trkpt lat="46.49729" lon="6.71506" /><trkpt lat="46.49722" lon="6.71519" /><trkpt lat="46.49715" lon="6.71532" /><trkpt lat="46.49708" lon="6.71545" /><trkpt lat="46.49702" lon="6.71557" /><trkpt lat="46.49697" lon="6.71569" /><trkpt lat="46.49693" lon="6.71578" /><trkpt lat="46.49688" lon="6.7159" /><trkpt lat="46.49683" lon="6.71602" /><trkpt lat="46.49678" lon="6.71615" /><trkpt lat="46.49673" lon="6.71631" /><trkpt lat="46.49667" lon="6.71649" /><trkpt lat="46.49662" lon="6.71667" /><trkpt lat="46.49657" lon="6.71686" /><trkpt lat="46.49653" lon="6.71703" /><trkpt lat="46.49648" lon="6.71722" /><trkpt lat="46.49646" lon="6.71735" /><trkpt lat="46.49645" lon="6.71742" /><trkpt lat="46.49641" lon="6.71763" /><trkpt lat="46.49639" lon="6.7178" /><trkpt lat="46.49638" lon="6.71788" /><trkpt lat="46.49637" lon="6.71798" /><trkpt lat="46.49635" lon="6.71812" /><trkpt lat="46.49634" lon="6.71822" /><trkpt lat="46.49633" lon="6.71837" /><trkpt lat="46.49633" lon="6.7185" /><trkpt lat="46.49632" lon="6.71863" /><trkpt lat="46.49632" lon="6.71874" /><trkpt lat="46.49632" lon="6.71886" /><trkpt lat="46.49632" lon="6.719" /><trkpt lat="46.49632" lon="6.71913" /><trkpt lat="46.49633" lon="6.71928" /><trkpt lat="46.49633" lon="6.71942" /><trkpt lat="46.49634" lon="6.71956" /><trkpt lat="46.49635" lon="6.7197" /><trkpt lat="46.49637" lon="6.71983" /><trkpt lat="46.49638" lon="6.71995" /><trkpt lat="46.4964" lon="6.7201" /><trkpt lat="46.49642" lon="6.72028" /><trkpt lat="46.49645" lon="6.72044" /><trkpt lat="46.49648" lon="6.7206" /><trkpt lat="46.49663" lon="6.72149" /><trkpt lat="46.49679" lon="6.72238" /><trkpt lat="46.49696" lon="6.72337" /><trkpt lat="46.49714" lon="6.72436" /><trkpt lat="46.49736" lon="6.72558" /><trkpt lat="46.49746" lon="6.72618" /><trkpt lat="46.49758" lon="6.72679" /><trkpt lat="46.49761" lon="6.72695" /><trkpt lat="46.49765" lon="6.72713" /><trkpt lat="46.49852" lon="6.73208" /><trkpt lat="46.49859" lon="6.7325" /><trkpt lat="46.49864" lon="6.73277" /><trkpt lat="46.49866" lon="6.73292" /><trkpt lat="46.49869" lon="6.73313" /><trkpt lat="46.49872" lon="6.73332" /><trkpt lat="46.49874" lon="6.73351" /><trkpt lat="46.49875" lon="6.73366" /><trkpt lat="46.49876" lon="6.73381" /><trkpt lat="46.49877" lon="6.73397" /><trkpt lat="46.49878" lon="6.73413" /><trkpt lat="46.49878" lon="6.73431" /><trkpt lat="46.49878" lon="6.73448" /><trkpt lat="46.49878" lon="6.73468" /><trkpt lat="46.49877" lon="6.73487" /><trkpt lat="46.49876" lon="6.73501" /><trkpt lat="46.49875" lon="6.73517" /><trkpt lat="46.49873" lon="6.73532" /><trkpt lat="46.49871" lon="6.7355" /><trkpt lat="46.49869" lon="6.73565" /><trkpt lat="46.49867" lon="6.7358" /><trkpt lat="46.49864" lon="6.73597" /><trkpt lat="46.49861" lon="6.73613" /><trkpt lat="46.49859" lon="6.73625" /><trkpt lat="46.49855" lon="6.73641" /><trkpt lat="46.49852" lon="6.73652" /><trkpt lat="46.49849" lon="6.73664" /><trkpt lat="46.49844" lon="6.73683" /><trkpt lat="46.49839" lon="6.73699" /><trkpt lat="46.49834" lon="6.73715" /><trkpt lat="46.4983" lon="6.73725" /><trkpt lat="46.49827" lon="6.73735" /><trkpt lat="46.4982" lon="6.73753" /><trkpt lat="46.49811" lon="6.73776" /><trkpt lat="46.49802" lon="6.73795" /><trkpt lat="46.49776" lon="6.73853" /><trkpt lat="46.49768" lon="6.73872" /><trkpt lat="46.49762" lon="6.73887" /><trkpt lat="46.49756" lon="6.73904" /><trkpt lat="46.49752" lon="6.73915" /><trkpt lat="46.49747" lon="6.73927" /><trkpt lat="46.49743" lon="6.7394" /><trkpt lat="46.49738" lon="6.73954" /><trkpt lat="46.49734" lon="6.73967" /><trkpt lat="46.4973" lon="6.73982" /><trkpt lat="46.49727" lon="6.73997" /><trkpt lat="46.49722" lon="6.74014" /><trkpt lat="46.49719" lon="6.7403" /><trkpt lat="46.49715" lon="6.74047" /><trkpt lat="46.49712" lon="6.74064" /><trkpt lat="46.49709" lon="6.74082" /><trkpt lat="46.49706" lon="6.74103" /><trkpt lat="46.49704" lon="6.74122" /><trkpt lat="46.49701" lon="6.74148" /><trkpt lat="46.49663" lon="6.74504" /><trkpt lat="46.4966" lon="6.74526" /><trkpt lat="46.49657" lon="6.7455" /><trkpt lat="46.49654" lon="6.74573" /><trkpt lat="46.4965" lon="6.74597" /><trkpt lat="46.49645" lon="6.74618" /><trkpt lat="46.49642" lon="6.74635" /><trkpt lat="46.49638" lon="6.74653" /><trkpt lat="46.49633" lon="6.7467" /><trkpt lat="46.49627" lon="6.74691" /><trkpt lat="46.49621" lon="6.7471" /><trkpt lat="46.49616" lon="6.74723" /><trkpt lat="46.4961" lon="6.74738" /><trkpt lat="46.49605" lon="6.74753" /><trkpt lat="46.49599" lon="6.74767" /><trkpt lat="46.49593" lon="6.7478" /><trkpt lat="46.49587" lon="6.74793" /><trkpt lat="46.49579" lon="6.7481" /><trkpt lat="46.49572" lon="6.74823" /><trkpt lat="46.49563" lon="6.74838" /><trkpt lat="46.49555" lon="6.74852" /><trkpt lat="46.49548" lon="6.74864" /><trkpt lat="46.49541" lon="6.74875" /><trkpt lat="46.49532" lon="6.74888" /><trkpt lat="46.49522" lon="6.74901" /><trkpt lat="46.49515" lon="6.74911" /><trkpt lat="46.49507" lon="6.74921" /><trkpt lat="46.49498" lon="6.74932" /><trkpt lat="46.49489" lon="6.74943" /><trkpt lat="46.49479" lon="6.74953" /><trkpt lat="46.49464" lon="6.7497" /><trkpt lat="46.49439" lon="6.74998" /><trkpt lat="46.49428" lon="6.75011" /><trkpt lat="46.49418" lon="6.75023" /><trkpt lat="46.49407" lon="6.75037" /><trkpt lat="46.49398" lon="6.7505" /><trkpt lat="46.49391" lon="6.7506" /><trkpt lat="46.49383" lon="6.75072" /><trkpt lat="46.49377" lon="6.75082" /><trkpt lat="46.4937" lon="6.75094" /><trkpt lat="46.49365" lon="6.75104" /><trkpt lat="46.49358" lon="6.75116" /><trkpt lat="46.49351" lon="6.7513" /><trkpt lat="46.49344" lon="6.75145" /><trkpt lat="46.49329" lon="6.75178" /><trkpt lat="46.49313" lon="6.75214" /><trkpt lat="46.49307" lon="6.75227" /><trkpt lat="46.493" lon="6.75241" /><trkpt lat="46.4929" lon="6.75259" /><trkpt lat="46.49281" lon="6.75276" /><trkpt lat="46.49272" lon="6.75291" /><trkpt lat="46.49267" lon="6.75298" /><trkpt lat="46.4926" lon="6.75309" /><trkpt lat="46.49249" lon="6.75323" /><trkpt lat="46.4924" lon="6.75336" /><trkpt lat="46.4923" lon="6.75347" /><trkpt lat="46.49221" lon="6.75358" /><trkpt lat="46.49209" lon="6.7537" /><trkpt lat="46.49201" lon="6.7538" /><trkpt lat="46.4919" lon="6.75391" /><trkpt lat="46.49169" lon="6.75412" /><trkpt lat="46.49155" lon="6.75427" /><trkpt lat="46.49148" lon="6.75436" /><trkpt lat="46.49141" lon="6.75444" /><trkpt lat="46.49122" lon="6.75467" /><trkpt lat="46.49104" lon="6.75492" /><trkpt lat="46.49088" lon="6.75518" /><trkpt lat="46.49073" lon="6.75546" /><trkpt lat="46.49059" lon="6.75575" /><trkpt lat="46.49047" lon="6.75605" /><trkpt lat="46.49035" lon="6.75637" /><trkpt lat="46.49024" lon="6.75671" /><trkpt lat="46.49014" lon="6.7571" /><trkpt lat="46.49005" lon="6.75755" /><trkpt lat="46.48999" lon="6.75795" /><trkpt lat="46.48995" lon="6.75836" /><trkpt lat="46.48993" lon="6.75873" /><trkpt lat="46.48993" lon="6.75906" /><trkpt lat="46.48995" lon="6.75966" /><trkpt lat="46.49002" lon="6.76024" /><trkpt lat="46.49007" lon="6.76051" /><trkpt lat="46.49012" lon="6.76075" /><trkpt lat="46.49016" lon="6.76096" /><trkpt lat="46.49021" lon="6.76115" /><trkpt lat="46.49027" lon="6.76135" /><trkpt lat="46.49033" lon="6.76153" /><trkpt lat="46.49041" lon="6.76174" /><trkpt lat="46.49047" lon="6.76191" /><trkpt lat="46.49055" lon="6.76209" /><trkpt lat="46.49063" lon="6.76226" /><trkpt lat="46.49074" lon="6.76246" /><trkpt lat="46.49083" lon="6.76262" /><trkpt lat="46.49093" lon="6.76278" /><trkpt lat="46.49099" lon="6.76287" /><trkpt lat="46.49109" lon="6.76302" /><trkpt lat="46.4912" lon="6.76316" /><trkpt lat="46.49132" lon="6.76331" /><trkpt lat="46.49141" lon="6.76342" /><trkpt lat="46.49156" lon="6.76358" /><trkpt lat="46.49181" lon="6.76384" /><trkpt lat="46.4921" lon="6.76414" /><trkpt lat="46.49276" lon="6.76482" /><trkpt lat="46.4936" lon="6.76569" /><trkpt lat="46.4939" lon="6.766" /><trkpt lat="46.49411" lon="6.7662" /><trkpt lat="46.49425" lon="6.76633" /><trkpt lat="46.49438" lon="6.76645" /><trkpt lat="46.49446" lon="6.76651" /><trkpt lat="46.49454" lon="6.76657" /><trkpt lat="46.49468" lon="6.76668" /><trkpt lat="46.49476" lon="6.76673" /><trkpt lat="46.49486" lon="6.7668" /><trkpt lat="46.49498" lon="6.76687" /><trkpt lat="46.49513" lon="6.76696" /><trkpt lat="46.49527" lon="6.76704" /><trkpt lat="46.49537" lon="6.76709" /><trkpt lat="46.49549" lon="6.76714" /><trkpt lat="46.49557" lon="6.76717" /><trkpt lat="46.49566" lon="6.7672" /><trkpt lat="46.49573" lon="6.76723" /><trkpt lat="46.4958" lon="6.76725" /><trkpt lat="46.49592" lon="6.76728" /><trkpt lat="46.49604" lon="6.76732" /><trkpt lat="46.49626" lon="6.76737" /><trkpt lat="46.49662" lon="6.76745" /><trkpt lat="46.49693" lon="6.76753" /><trkpt lat="46.4971" lon="6.76757" /><trkpt lat="46.49717" lon="6.7676" /><trkpt lat="46.49725" lon="6.76762" /><trkpt lat="46.49738" lon="6.76767" /><trkpt lat="46.4975" lon="6.76772" /><trkpt lat="46.49761" lon="6.76777" /><trkpt lat="46.49771" lon="6.76782" /><trkpt lat="46.49777" lon="6.76786" /><trkpt lat="46.49784" lon="6.7679" /><trkpt lat="46.49791" lon="6.76794" /><trkpt lat="46.49796" lon="6.76798" /><trkpt lat="46.49803" lon="6.76802" /><trkpt lat="46.49809" lon="6.76807" /><trkpt lat="46.49822" lon="6.76817" /><trkpt lat="46.49833" lon="6.76826" /><trkpt lat="46.49843" lon="6.76835" /><trkpt lat="46.4985" lon="6.76842" /><trkpt lat="46.49857" lon="6.76849" /><trkpt lat="46.49868" lon="6.7686" /><trkpt lat="46.49876" lon="6.7687" /><trkpt lat="46.49883" lon="6.76879" /><trkpt lat="46.4989" lon="6.76888" /><trkpt lat="46.49897" lon="6.76897" /><trkpt lat="46.49907" lon="6.76911" /><trkpt lat="46.49919" lon="6.76929" /><trkpt lat="46.49931" lon="6.76948" /><trkpt lat="46.4994" lon="6.76964" /><trkpt lat="46.49948" lon="6.76979" /><trkpt lat="46.49955" lon="6.76994" /><trkpt lat="46.49963" lon="6.7701" /><trkpt lat="46.49971" lon="6.7703" /><trkpt lat="46.49979" lon="6.7705" /><trkpt lat="46.49986" lon="6.77069" /><trkpt lat="46.49992" lon="6.77086" /><trkpt lat="46.49998" lon="6.77107" /><trkpt lat="46.50003" lon="6.77128" /><trkpt lat="46.50008" lon="6.77148" /><trkpt lat="46.50012" lon="6.77167" /><trkpt lat="46.50016" lon="6.77188" /><trkpt lat="46.50019" lon="6.77208" /><trkpt lat="46.50022" lon="6.77226" /><trkpt lat="46.50023" lon="6.77242" /><trkpt lat="46.50025" lon="6.77266" /><trkpt lat="46.50027" lon="6.77289" /><trkpt lat="46.50028" lon="6.77315" /><trkpt lat="46.5003" lon="6.77383" /><trkpt lat="46.50034" lon="6.77512" /><trkpt lat="46.50036" lon="6.77541" /><trkpt lat="46.50037" lon="6.77568" /><trkpt lat="46.50038" lon="6.77588" /><trkpt lat="46.5004" lon="6.77608" /><trkpt lat="46.50041" lon="6.77626" /><trkpt lat="46.50044" lon="6.77645" /><trkpt lat="46.50046" lon="6.77665" /><trkpt lat="46.50049" lon="6.77684" /><trkpt lat="46.50051" lon="6.77698" /><trkpt lat="46.50054" lon="6.77715" /><trkpt lat="46.50058" lon="6.77736" /><trkpt lat="46.50063" lon="6.77758" /><trkpt lat="46.50066" lon="6.77774" /><trkpt lat="46.5007" lon="6.77792" /><trkpt lat="46.50075" lon="6.77811" /><trkpt lat="46.5008" lon="6.77829" /><trkpt lat="46.50086" lon="6.77848" /><trkpt lat="46.50092" lon="6.77869" /><trkpt lat="46.501" lon="6.77892" /><trkpt lat="46.50107" lon="6.77913" /><trkpt lat="46.50115" lon="6.77934" /><trkpt lat="46.50124" lon="6.77958" /><trkpt lat="46.50134" lon="6.7798" /><trkpt lat="46.50143" lon="6.78" /><trkpt lat="46.50154" lon="6.78023" /><trkpt lat="46.50165" lon="6.78045" /><trkpt lat="46.50176" lon="6.78065" /><trkpt lat="46.50189" lon="6.78089" /><trkpt lat="46.50202" lon="6.78111" /><trkpt lat="46.50216" lon="6.78134" /><trkpt lat="46.50229" lon="6.78154" /><trkpt lat="46.50236" lon="6.78165" /><trkpt lat="46.50244" lon="6.78177" /><trkpt lat="46.50256" lon="6.78193" /><trkpt lat="46.50265" lon="6.78206" /><trkpt lat="46.50275" lon="6.78218" /><trkpt lat="46.50291" lon="6.78239" /><trkpt lat="46.50306" lon="6.78257" /><trkpt lat="46.50318" lon="6.78271" /><trkpt lat="46.5033" lon="6.78284" /><trkpt lat="46.50341" lon="6.78296" /><trkpt lat="46.50355" lon="6.78311" /><trkpt lat="46.50369" lon="6.78324" /><trkpt lat="46.50383" lon="6.78337" /><trkpt lat="46.50399" lon="6.78351" /><trkpt lat="46.50414" lon="6.78363" /><trkpt lat="46.50429" lon="6.78376" /><trkpt lat="46.50441" lon="6.78384" /><trkpt lat="46.50454" lon="6.78394" /><trkpt lat="46.50467" lon="6.78403" /><trkpt lat="46.50494" lon="6.7842" /><trkpt lat="46.505" lon="6.78424" /><trkpt lat="46.5051" lon="6.7843" /><trkpt lat="46.5052" lon="6.78436" /><trkpt lat="46.50533" lon="6.78442" /><trkpt lat="46.50547" lon="6.7845" /><trkpt lat="46.50567" lon="6.7846" /><trkpt lat="46.50587" lon="6.7847" /><trkpt lat="46.50607" lon="6.78479" /><trkpt lat="46.50631" lon="6.78488" /><trkpt lat="46.50653" lon="6.78498" /><trkpt lat="46.50727" lon="6.78528" /><trkpt lat="46.50803" lon="6.78559" /><trkpt lat="46.50862" lon="6.78584" /><trkpt lat="46.50935" lon="6.78614" /><trkpt lat="46.50956" lon="6.78623" /><trkpt lat="46.50981" lon="6.78634" /><trkpt lat="46.50997" lon="6.78642" /><trkpt lat="46.51011" lon="6.78648" /><trkpt lat="46.51026" lon="6.78656" /><trkpt lat="46.5104" lon="6.78664" /><trkpt lat="46.51056" lon="6.78673" /><trkpt lat="46.51071" lon="6.78683" /><trkpt lat="46.5109" lon="6.78695" /><trkpt lat="46.51103" lon="6.78704" /><trkpt lat="46.51114" lon="6.78713" /><trkpt lat="46.51126" lon="6.78721" /><trkpt lat="46.51139" lon="6.78732" /><trkpt lat="46.51152" lon="6.78742" /><trkpt lat="46.51166" lon="6.78753" /><trkpt lat="46.51179" lon="6.78765" /><trkpt lat="46.51194" lon="6.78779" /><trkpt lat="46.51207" lon="6.78792" /><trkpt lat="46.51222" lon="6.78806" /><trkpt lat="46.51235" lon="6.7882" /><trkpt lat="46.51258" lon="6.78845" /><trkpt lat="46.51262" lon="6.78849" /><trkpt lat="46.51281" lon="6.78871" /><trkpt lat="46.51299" lon="6.78894" /><trkpt lat="46.51317" lon="6.78918" /><trkpt lat="46.51334" lon="6.7894" /><trkpt lat="46.5135" lon="6.78963" /><trkpt lat="46.51362" lon="6.78982" /><trkpt lat="46.51372" lon="6.78997" /><trkpt lat="46.51381" lon="6.79012" /><trkpt lat="46.5139" lon="6.79028" /><trkpt lat="46.51399" lon="6.79043" /><trkpt lat="46.51408" lon="6.79059" /><trkpt lat="46.51417" lon="6.79075" /><trkpt lat="46.51426" lon="6.79092" /><trkpt lat="46.51434" lon="6.79109" /><trkpt lat="46.51443" lon="6.79126" /><trkpt lat="46.51451" lon="6.79145" /><trkpt lat="46.51458" lon="6.7916" /><trkpt lat="46.51466" lon="6.7918" /><trkpt lat="46.51475" lon="6.79202" /><trkpt lat="46.51483" lon="6.79223" /><trkpt lat="46.51493" lon="6.79252" /><trkpt lat="46.51503" lon="6.7928" /><trkpt lat="46.51507" lon="6.79294" /><trkpt lat="46.51511" lon="6.79308" /><trkpt lat="46.51515" lon="6.79321" /><trkpt lat="46.51519" lon="6.79336" /><trkpt lat="46.51526" lon="6.79365" /><trkpt lat="46.51533" lon="6.79395" /><trkpt lat="46.51541" lon="6.79431" /><trkpt lat="46.51546" lon="6.79462" /><trkpt lat="46.5155" lon="6.79485" /><trkpt lat="46.51554" lon="6.79512" /><trkpt lat="46.51556" lon="6.79531" /><trkpt lat="46.51559" lon="6.79552" /><trkpt lat="46.51561" lon="6.79578" /><trkpt lat="46.51564" lon="6.79606" /><trkpt lat="46.51565" lon="6.79626" /><trkpt lat="46.51566" lon="6.79646" /><trkpt lat="46.51566" lon="6.79667" /><trkpt lat="46.51567" lon="6.79687" /><trkpt lat="46.51567" lon="6.79718" /><trkpt lat="46.51567" lon="6.7975" /><trkpt lat="46.51566" lon="6.79781" /><trkpt lat="46.51564" lon="6.79814" /><trkpt lat="46.51559" lon="6.79945" /><trkpt lat="46.51558" lon="6.7997" /><trkpt lat="46.51557" lon="6.79995" /><trkpt lat="46.51557" lon="6.8002" /><trkpt lat="46.51557" lon="6.80046" /><trkpt lat="46.51558" lon="6.80073" /><trkpt lat="46.5156" lon="6.801" /><trkpt lat="46.51561" lon="6.80118" /><trkpt lat="46.51563" lon="6.80137" /><trkpt lat="46.51565" lon="6.80155" /><trkpt lat="46.51567" lon="6.80172" /><trkpt lat="46.51569" lon="6.80188" /><trkpt lat="46.51571" lon="6.80204" /><trkpt lat="46.51574" lon="6.80219" /><trkpt lat="46.51577" lon="6.80235" /><trkpt lat="46.51581" lon="6.80256" /><trkpt lat="46.51587" lon="6.80282" /><trkpt lat="46.51592" lon="6.80301" /><trkpt lat="46.51597" lon="6.80321" /><trkpt lat="46.51603" lon="6.80342" /><trkpt lat="46.5161" lon="6.80362" /><trkpt lat="46.51617" lon="6.80383" /><trkpt lat="46.51624" lon="6.80403" /><trkpt lat="46.51633" lon="6.80425" /><trkpt lat="46.51642" lon="6.80447" /><trkpt lat="46.5165" lon="6.80465" /><trkpt lat="46.51659" lon="6.80483" /><trkpt lat="46.51668" lon="6.805" /><trkpt lat="46.51677" lon="6.80517" /><trkpt lat="46.51686" lon="6.80533" /><trkpt lat="46.51695" lon="6.80548" /><trkpt lat="46.51707" lon="6.80567" /><trkpt lat="46.51721" lon="6.80587" /><trkpt lat="46.51733" lon="6.80604" /><trkpt lat="46.51747" lon="6.80621" /><trkpt lat="46.51761" lon="6.80639" /><trkpt lat="46.51775" lon="6.80654" /><trkpt lat="46.51789" lon="6.80669" /><trkpt lat="46.51803" lon="6.80683" /><trkpt lat="46.51932" lon="6.80808" /><trkpt lat="46.51985" lon="6.80857" /><trkpt lat="46.51994" lon="6.80865" /><trkpt lat="46.52008" lon="6.80877" /><trkpt lat="46.52021" lon="6.80889" /><trkpt lat="46.52035" lon="6.80901" /><trkpt lat="46.52049" lon="6.80913" /><trkpt lat="46.52071" lon="6.8093" /><trkpt lat="46.52094" lon="6.80948" /><trkpt lat="46.5214" lon="6.80983" /><trkpt lat="46.52257" lon="6.81071" /><trkpt lat="46.52323" lon="6.81121" /><trkpt lat="46.52334" lon="6.8113" /><trkpt lat="46.52345" lon="6.81138" /><trkpt lat="46.52358" lon="6.81149" /><trkpt lat="46.5237" lon="6.81159" /><trkpt lat="46.5238" lon="6.81168" /><trkpt lat="46.52389" lon="6.81177" /><trkpt lat="46.52401" lon="6.81189" /><trkpt lat="46.5241" lon="6.812" /><trkpt lat="46.52423" lon="6.81214" /><trkpt lat="46.52433" lon="6.81228" /><trkpt lat="46.52442" lon="6.81239" /><trkpt lat="46.5245" lon="6.8125" /><trkpt lat="46.52464" lon="6.8127" /><trkpt lat="46.52484" lon="6.813" /><trkpt lat="46.52525" lon="6.8136" /><trkpt lat="46.52541" lon="6.81383" /><trkpt lat="46.52557" lon="6.81405" /><trkpt lat="46.52566" lon="6.81417" /><trkpt lat="46.52574" lon="6.81427" /><trkpt lat="46.52582" lon="6.81437" /><trkpt lat="46.5259" lon="6.81445" /><trkpt lat="46.52602" lon="6.81459" /><trkpt lat="46.52615" lon="6.81472" /><trkpt lat="46.52628" lon="6.81484" /><trkpt lat="46.5264" lon="6.81495" /><trkpt lat="46.52653" lon="6.81506" /><trkpt lat="46.52672" lon="6.81521" /><trkpt lat="46.52704" lon="6.81545" /><trkpt lat="46.52783" lon="6.81606" /><trkpt lat="46.52798" lon="6.81617" /><trkpt lat="46.5281" lon="6.81627" /><trkpt lat="46.5282" lon="6.81635" /><trkpt lat="46.5283" lon="6.81644" /><trkpt lat="46.5284" lon="6.81653" /><trkpt lat="46.52849" lon="6.81663" /><trkpt lat="46.52859" lon="6.81673" /><trkpt lat="46.52869" lon="6.81685" /><trkpt lat="46.52879" lon="6.81697" /><trkpt lat="46.52888" lon="6.81709" /><trkpt lat="46.52897" lon="6.81722" /><trkpt lat="46.52906" lon="6.81737" /><trkpt lat="46.52915" lon="6.81751" /><trkpt lat="46.52924" lon="6.81766" /><trkpt lat="46.52931" lon="6.81781" /><trkpt lat="46.52939" lon="6.81797" /><trkpt lat="46.52946" lon="6.81812" /><trkpt lat="46.52956" lon="6.81833" /><trkpt lat="46.52964" lon="6.81854" /><trkpt lat="46.52971" lon="6.81871" /><trkpt lat="46.52976" lon="6.81887" /><trkpt lat="46.52982" lon="6.81903" /><trkpt lat="46.52987" lon="6.81921" /><trkpt lat="46.52992" lon="6.81938" /><trkpt lat="46.52997" lon="6.81957" /><trkpt lat="46.53001" lon="6.81974" /><trkpt lat="46.53004" lon="6.8199" /><trkpt lat="46.53006" lon="6.82005" /><trkpt lat="46.53009" lon="6.82023" /><trkpt lat="46.53011" lon="6.8204" /><trkpt lat="46.53013" lon="6.82053" /><trkpt lat="46.53014" lon="6.82068" /><trkpt lat="46.53016" lon="6.82083" /><trkpt lat="46.53018" lon="6.82097" /><trkpt lat="46.5302" lon="6.82116" /><trkpt lat="46.53022" lon="6.82131" /><trkpt lat="46.53025" lon="6.8215" /><trkpt lat="46.53027" lon="6.82165" /><trkpt lat="46.5303" lon="6.8218" /><trkpt lat="46.53033" lon="6.82196" /><trkpt lat="46.53037" lon="6.8221" /><trkpt lat="46.5304" lon="6.82224" /><trkpt lat="46.53044" lon="6.82236" /><trkpt lat="46.53047" lon="6.82248" /><trkpt lat="46.53051" lon="6.82261" /><trkpt lat="46.53055" lon="6.82273" /><trkpt lat="46.5306" lon="6.82287" /><trkpt lat="46.53065" lon="6.82303" /><trkpt lat="46.53092" lon="6.82381" /><trkpt lat="46.53105" lon="6.82419" /><trkpt lat="46.53112" lon="6.82439" /><trkpt lat="46.53119" lon="6.82458" /><trkpt lat="46.53128" lon="6.82481" /><trkpt lat="46.53133" lon="6.82495" /><trkpt lat="46.53138" lon="6.82508" /><trkpt lat="46.53145" lon="6.82525" /><trkpt lat="46.53152" lon="6.82543" /><trkpt lat="46.5316" lon="6.82563" /><trkpt lat="46.53165" lon="6.82574" /><trkpt lat="46.53169" lon="6.82584" /><trkpt lat="46.53175" lon="6.82598" /><trkpt lat="46.53182" lon="6.82613" /><trkpt lat="46.53187" lon="6.82626" /><trkpt lat="46.53193" lon="6.82638" /><trkpt lat="46.53199" lon="6.82651" /><trkpt lat="46.53207" lon="6.82668" /><trkpt lat="46.53216" lon="6.82686" /><trkpt lat="46.53223" lon="6.827" /><trkpt lat="46.53235" lon="6.82724" /><trkpt lat="46.53241" lon="6.82736" /><trkpt lat="46.53248" lon="6.82748" /><trkpt lat="46.53258" lon="6.82766" /><trkpt lat="46.53273" lon="6.82794" /><trkpt lat="46.53309" lon="6.82859" /><trkpt lat="46.53321" lon="6.8288" /><trkpt lat="46.53329" lon="6.82896" /><trkpt lat="46.53338" lon="6.82912" /><trkpt lat="46.53347" lon="6.8293" /><trkpt lat="46.53355" lon="6.82947" /><trkpt lat="46.53363" lon="6.82964" /><trkpt lat="46.53371" lon="6.82982" /><trkpt lat="46.53379" lon="6.82998" /><trkpt lat="46.53385" lon="6.83014" /><trkpt lat="46.53395" lon="6.83037" /><trkpt lat="46.53406" lon="6.83064" /><trkpt lat="46.53507" lon="6.83322" /><trkpt lat="46.53516" lon="6.83343" /><trkpt lat="46.53521" lon="6.83356" /><trkpt lat="46.5353" lon="6.83378" /><trkpt lat="46.53535" lon="6.83388" /><trkpt lat="46.53539" lon="6.83398" /><trkpt lat="46.53544" lon="6.83407" /><trkpt lat="46.53551" lon="6.8342" /><trkpt lat="46.53558" lon="6.83433" /><trkpt lat="46.53565" lon="6.83445" /><trkpt lat="46.53572" lon="6.83457" /><trkpt lat="46.53578" lon="6.83466" /><trkpt lat="46.53584" lon="6.83475" /><trkpt lat="46.5359" lon="6.83484" /><trkpt lat="46.53597" lon="6.83493" /><trkpt lat="46.53603" lon="6.83501" /><trkpt lat="46.53609" lon="6.83509" /><trkpt lat="46.53617" lon="6.83517" /><trkpt lat="46.53622" lon="6.83523" /><trkpt lat="46.53628" lon="6.83529" /><trkpt lat="46.53633" lon="6.83534" /><trkpt lat="46.53641" lon="6.83542" /><trkpt lat="46.5365" lon="6.8355" /><trkpt lat="46.53659" lon="6.83558" /><trkpt lat="46.53672" lon="6.83568" /><trkpt lat="46.53685" lon="6.83578" /><trkpt lat="46.53695" lon="6.83586" /><trkpt lat="46.53707" lon="6.83594" /><trkpt lat="46.53722" lon="6.83604" /><trkpt lat="46.53734" lon="6.83612" /><trkpt lat="46.53746" lon="6.83619" /><trkpt lat="46.53757" lon="6.83625" /><trkpt lat="46.53767" lon="6.83631" /><trkpt lat="46.53778" lon="6.83636" /><trkpt lat="46.53789" lon="6.83642" /><trkpt lat="46.53799" lon="6.83646" /><trkpt lat="46.53807" lon="6.83649" /><trkpt lat="46.53816" lon="6.83653" /><trkpt lat="46.53825" lon="6.83656" /><trkpt lat="46.53834" lon="6.8366" /><trkpt lat="46.53847" lon="6.83664" /><trkpt lat="46.53857" lon="6.83667" /><trkpt lat="46.53867" lon="6.83669" /><trkpt lat="46.53911" lon="6.83681" /><trkpt lat="46.53983" lon="6.83699" /><trkpt lat="46.53997" lon="6.83702" /><trkpt lat="46.54011" lon="6.83704" /><trkpt lat="46.54023" lon="6.83706" /><trkpt lat="46.54045" lon="6.83709" /><trkpt lat="46.54107" lon="6.83714" /><trkpt lat="46.54125" lon="6.83716" /><trkpt lat="46.54138" lon="6.83717" /><trkpt lat="46.5415" lon="6.83719" /><trkpt lat="46.54163" lon="6.83721" /><trkpt lat="46.54172" lon="6.83723" /><trkpt lat="46.54184" lon="6.83727" /><trkpt lat="46.54194" lon="6.8373" /><trkpt lat="46.54204" lon="6.83734" /><trkpt lat="46.54214" lon="6.83738" /><trkpt lat="46.54222" lon="6.83742" /><trkpt lat="46.54232" lon="6.83747" /><trkpt lat="46.54242" lon="6.83753" /><trkpt lat="46.54252" lon="6.83759" /><trkpt lat="46.54263" lon="6.83766" /><trkpt lat="46.54272" lon="6.83772" /><trkpt lat="46.5428" lon="6.83778" /><trkpt lat="46.54292" lon="6.83787" /><trkpt lat="46.54302" lon="6.83796" /><trkpt lat="46.54316" lon="6.83808" /><trkpt lat="46.54325" lon="6.83817" /><trkpt lat="46.54332" lon="6.83825" /><trkpt lat="46.54342" lon="6.83835" /><trkpt lat="46.54351" lon="6.83846" /><trkpt lat="46.5436" lon="6.83857" /><trkpt lat="46.54368" lon="6.83868" /><trkpt lat="46.54376" lon="6.83878" /><trkpt lat="46.54383" lon="6.83889" /><trkpt lat="46.54391" lon="6.83902" /><trkpt lat="46.544" lon="6.83916" /><trkpt lat="46.54406" lon="6.83927" /><trkpt lat="46.54413" lon="6.83938" /><trkpt lat="46.5442" lon="6.83952" /><trkpt lat="46.54427" lon="6.83965" /><trkpt lat="46.54433" lon="6.83979" /><trkpt lat="46.54439" lon="6.83993" /><trkpt lat="46.54444" lon="6.84005" /><trkpt lat="46.54448" lon="6.84017" /><trkpt lat="46.54457" lon="6.84042" /><trkpt lat="46.54466" lon="6.84065" /><trkpt lat="46.54475" lon="6.84092" /><trkpt lat="46.54488" lon="6.84129" /><trkpt lat="46.545" lon="6.84162" /><trkpt lat="46.54515" lon="6.84205" /><trkpt lat="46.54521" lon="6.8422" /><trkpt lat="46.54526" lon="6.84233" /><trkpt lat="46.54531" lon="6.84244" /><trkpt lat="46.54536" lon="6.84255" /><trkpt lat="46.54544" lon="6.84271" /><trkpt lat="46.54552" lon="6.84287" /><trkpt lat="46.5456" lon="6.843" /><trkpt lat="46.54566" lon="6.8431" /><trkpt lat="46.54573" lon="6.84319" /><trkpt lat="46.54579" lon="6.84329" /><trkpt lat="46.54587" lon="6.84339" /><trkpt lat="46.54594" lon="6.84348" /><trkpt lat="46.54603" lon="6.84358" /><trkpt lat="46.54612" lon="6.84368" /><trkpt lat="46.54621" lon="6.84378" /><trkpt lat="46.54632" lon="6.84389" /><trkpt lat="46.54643" lon="6.84399" /><trkpt lat="46.54656" lon="6.84409" /><trkpt lat="46.54663" lon="6.84415" /><trkpt lat="46.54669" lon="6.84419" /><trkpt lat="46.54681" lon="6.84428" /><trkpt lat="46.54685" lon="6.84431" /><trkpt lat="46.54692" lon="6.84435" /><trkpt lat="46.54698" lon="6.84439" /><trkpt lat="46.54708" lon="6.84445" /><trkpt lat="46.54718" lon="6.8445" /><trkpt lat="46.5473" lon="6.84456" /><trkpt lat="46.54741" lon="6.84461" /><trkpt lat="46.54752" lon="6.84465" /><trkpt lat="46.5476" lon="6.84468" /><trkpt lat="46.54769" lon="6.84471" /><trkpt lat="46.54781" lon="6.84475" /><trkpt lat="46.54789" lon="6.84477" /><trkpt lat="46.54799" lon="6.84479" /><trkpt lat="46.54806" lon="6.8448" /><trkpt lat="46.54813" lon="6.84482" /><trkpt lat="46.54821" lon="6.84483" /><trkpt lat="46.5483" lon="6.84484" /><trkpt lat="46.54844" lon="6.84485" /><trkpt lat="46.54858" lon="6.84485" /><trkpt lat="46.5487" lon="6.84485" /><trkpt lat="46.54882" lon="6.84484" /><trkpt lat="46.54895" lon="6.84483" /><trkpt lat="46.54905" lon="6.84481" /><trkpt lat="46.54917" lon="6.84479" /><trkpt lat="46.54929" lon="6.84476" /><trkpt lat="46.54941" lon="6.84473" /><trkpt lat="46.54992" lon="6.84457" /><trkpt lat="46.55011" lon="6.84452" /><trkpt lat="46.55026" lon="6.84448" /><trkpt lat="46.55039" lon="6.84445" /><trkpt lat="46.55057" lon="6.84442" /><trkpt lat="46.55066" lon="6.84441" /><trkpt lat="46.55078" lon="6.84439" /><trkpt lat="46.55092" lon="6.84438" /><trkpt lat="46.55106" lon="6.84438" /><trkpt lat="46.55119" lon="6.84438" /><trkpt lat="46.55136" lon="6.84438" /><trkpt lat="46.55152" lon="6.84439" /><trkpt lat="46.55324" lon="6.84451" /><trkpt lat="46.55372" lon="6.84454" /><trkpt lat="46.55376" lon="6.84455" /><trkpt lat="46.55404" lon="6.84457" /><trkpt lat="46.55418" lon="6.84458" /><trkpt lat="46.55431" lon="6.84459" /><trkpt lat="46.55446" lon="6.84461" /><trkpt lat="46.55459" lon="6.84463" /><trkpt lat="46.55475" lon="6.84467" /><trkpt lat="46.55489" lon="6.8447" /><trkpt lat="46.55504" lon="6.84474" /><trkpt lat="46.55518" lon="6.84479" /><trkpt lat="46.55531" lon="6.84484" /><trkpt lat="46.55547" lon="6.8449" /><trkpt lat="46.55565" lon="6.84498" /><trkpt lat="46.55586" lon="6.84508" /><trkpt lat="46.55626" lon="6.84526" /><trkpt lat="46.5564" lon="6.84532" /><trkpt lat="46.55647" lon="6.84536" /><trkpt lat="46.55655" lon="6.84539" /><trkpt lat="46.55666" lon="6.84543" /><trkpt lat="46.55678" lon="6.84546" /><trkpt lat="46.55688" lon="6.84549" /><trkpt lat="46.55698" lon="6.84551" /><trkpt lat="46.55709" lon="6.84553" /><trkpt lat="46.55719" lon="6.84554" /><trkpt lat="46.55733" lon="6.84555" /><trkpt lat="46.55745" lon="6.84555" /><trkpt lat="46.55755" lon="6.84554" /><trkpt lat="46.55769" lon="6.84553" /><trkpt lat="46.55778" lon="6.84552" /><trkpt lat="46.55788" lon="6.8455" /><trkpt lat="46.558" lon="6.84547" /><trkpt lat="46.55811" lon="6.84544" /><trkpt lat="46.55818" lon="6.84541" /><trkpt lat="46.55828" lon="6.84538" /><trkpt lat="46.55838" lon="6.84534" /><trkpt lat="46.55851" lon="6.84527" /><trkpt lat="46.55862" lon="6.84521" /><trkpt lat="46.55878" lon="6.84512" /><trkpt lat="46.55886" lon="6.84506" /><trkpt lat="46.55894" lon="6.84501" /><trkpt lat="46.55903" lon="6.84493" /><trkpt lat="46.55914" lon="6.84485" /><trkpt lat="46.55929" lon="6.84472" /><trkpt lat="46.55935" lon="6.84466" /><trkpt lat="46.56023" lon="6.84385" /><trkpt lat="46.56032" lon="6.84375" /><trkpt lat="46.56042" lon="6.84366" /><trkpt lat="46.56051" lon="6.84356" /><trkpt lat="46.56059" lon="6.84346" /><trkpt lat="46.56068" lon="6.84334" /><trkpt lat="46.56077" lon="6.84322" /><trkpt lat="46.56085" lon="6.84311" /><trkpt lat="46.56091" lon="6.84301" /><trkpt lat="46.561" lon="6.84287" /><trkpt lat="46.56108" lon="6.84273" /><trkpt lat="46.56126" lon="6.84241" /><trkpt lat="46.56161" lon="6.84178" /><trkpt lat="46.56169" lon="6.84163" /><trkpt lat="46.56178" lon="6.84148" /><trkpt lat="46.56186" lon="6.84136" /><trkpt lat="46.56195" lon="6.84124" /><trkpt lat="46.56204" lon="6.84112" /><trkpt lat="46.56212" lon="6.84101" /><trkpt lat="46.56221" lon="6.84091" /><trkpt lat="46.56229" lon="6.84082" /><trkpt lat="46.56238" lon="6.84073" /><trkpt lat="46.56248" lon="6.84063" /><trkpt lat="46.56261" lon="6.84052" /><trkpt lat="46.56275" lon="6.84039" /><trkpt lat="46.5645" lon="6.83889" /><trkpt lat="46.56489" lon="6.83856" /><trkpt lat="46.56505" lon="6.83842" /><trkpt lat="46.56519" lon="6.8383" /><trkpt lat="46.56533" lon="6.83819" /><trkpt lat="46.56553" lon="6.83803" /><trkpt lat="46.56563" lon="6.83796" /><trkpt lat="46.56573" lon="6.83788" /><trkpt lat="46.56587" lon="6.83779" /><trkpt lat="46.566" lon="6.8377" /><trkpt lat="46.56614" lon="6.83762" /><trkpt lat="46.56626" lon="6.83754" /><trkpt lat="46.56639" lon="6.83746" /><trkpt lat="46.56652" lon="6.83739" /><trkpt lat="46.5667" lon="6.8373" /><trkpt lat="46.56688" lon="6.83721" /><trkpt lat="46.56703" lon="6.83714" /><trkpt lat="46.56717" lon="6.83708" /><trkpt lat="46.56731" lon="6.83702" /><trkpt lat="46.5675" lon="6.83695" /><trkpt lat="46.5676" lon="6.83692" /><trkpt lat="46.5677" lon="6.83688" /><trkpt lat="46.56793" lon="6.83681" /><trkpt lat="46.56817" lon="6.83675" /><trkpt lat="46.56839" lon="6.8367" /><trkpt lat="46.56861" lon="6.83666" /><trkpt lat="46.5688" lon="6.83663" /><trkpt lat="46.56897" lon="6.83661" /><trkpt lat="46.56913" lon="6.83659" /><trkpt lat="46.56928" lon="6.83658" /><trkpt lat="46.56945" lon="6.83657" /><trkpt lat="46.56962" lon="6.83657" /><trkpt lat="46.56981" lon="6.83657" /><trkpt lat="46.57" lon="6.83658" /><trkpt lat="46.57016" lon="6.83659" /><trkpt lat="46.57032" lon="6.83661" /><trkpt lat="46.57051" lon="6.83663" /><trkpt lat="46.57069" lon="6.83666" /><trkpt lat="46.57085" lon="6.83669" /><trkpt lat="46.57101" lon="6.83672" /><trkpt lat="46.57112" lon="6.83675" /><trkpt lat="46.57136" lon="6.83681" /><trkpt lat="46.57154" lon="6.83687" /><trkpt lat="46.5717" lon="6.83692" /><trkpt lat="46.57189" lon="6.83699" /><trkpt lat="46.57199" lon="6.83703" /><trkpt lat="46.57208" lon="6.83707" /><trkpt lat="46.57227" lon="6.83715" /><trkpt lat="46.5724" lon="6.83721" /><trkpt lat="46.57253" lon="6.83727" /><trkpt lat="46.57268" lon="6.83733" /><trkpt lat="46.57283" lon="6.83741" /><trkpt lat="46.5729" lon="6.83744" /><trkpt lat="46.57296" lon="6.83747" /><trkpt lat="46.57309" lon="6.83755" /><trkpt lat="46.57317" lon="6.8376" /><trkpt lat="46.57324" lon="6.83765" /><trkpt lat="46.57335" lon="6.83772" /><trkpt lat="46.57351" lon="6.83784" /><trkpt lat="46.57431" lon="6.83839" /><trkpt lat="46.57445" lon="6.83849" /><trkpt lat="46.57453" lon="6.83854" /><trkpt lat="46.57462" lon="6.8386" /><trkpt lat="46.57472" lon="6.83865" /><trkpt lat="46.57481" lon="6.8387" /><trkpt lat="46.57493" lon="6.83877" /><trkpt lat="46.5751" lon="6.83884" /><trkpt lat="46.57522" lon="6.83889" /><trkpt lat="46.57533" lon="6.83893" /><trkpt lat="46.57547" lon="6.83898" /><trkpt lat="46.57558" lon="6.839" /><trkpt lat="46.57569" lon="6.83903" /><trkpt lat="46.57577" lon="6.83905" /><trkpt lat="46.57589" lon="6.83907" /><trkpt lat="46.57597" lon="6.83908" /><trkpt lat="46.57619" lon="6.83911" /><trkpt lat="46.57647" lon="6.83914" /><trkpt lat="46.57754" lon="6.83925" /><trkpt lat="46.57781" lon="6.83928" /><trkpt lat="46.57794" lon="6.83929" /><trkpt lat="46.57807" lon="6.8393" /><trkpt lat="46.57819" lon="6.83931" /><trkpt lat="46.57831" lon="6.83931" /><trkpt lat="46.57842" lon="6.8393" /><trkpt lat="46.57851" lon="6.83929" /><trkpt lat="46.57862" lon="6.83928" /><trkpt lat="46.57872" lon="6.83926" /><trkpt lat="46.5788" lon="6.83924" /><trkpt lat="46.57887" lon="6.83922" /><trkpt lat="46.579" lon="6.83918" /><trkpt lat="46.5791" lon="6.83915" /><trkpt lat="46.57922" lon="6.8391" /><trkpt lat="46.57931" lon="6.83905" /><trkpt lat="46.57942" lon="6.839" /><trkpt lat="46.57951" lon="6.83894" /><trkpt lat="46.5796" lon="6.83889" /><trkpt lat="46.57967" lon="6.83884" /><trkpt lat="46.57977" lon="6.83877" /><trkpt lat="46.57988" lon="6.83867" /><trkpt lat="46.57999" lon="6.83858" /><trkpt lat="46.58008" lon="6.83849" /><trkpt lat="46.58017" lon="6.8384" /><trkpt lat="46.58029" lon="6.83827" /><trkpt lat="46.58039" lon="6.83814" /><trkpt lat="46.5805" lon="6.838" /><trkpt lat="46.5806" lon="6.83785" /><trkpt lat="46.58066" lon="6.83775" /><trkpt lat="46.58073" lon="6.83764" /><trkpt lat="46.58082" lon="6.83748" /><trkpt lat="46.58093" lon="6.83727" /><trkpt lat="46.58104" lon="6.83707" /><trkpt lat="46.58192" lon="6.83537" /><trkpt lat="46.58201" lon="6.8352" /><trkpt lat="46.5821" lon="6.83504" /><trkpt lat="46.58219" lon="6.83488" /><trkpt lat="46.58229" lon="6.83473" /><trkpt lat="46.58239" lon="6.83459" /><trkpt lat="46.58248" lon="6.83447" /><trkpt lat="46.58258" lon="6.83435" /><trkpt lat="46.58268" lon="6.83424" /><trkpt lat="46.58275" lon="6.83418" /><trkpt lat="46.58281" lon="6.83412" /><trkpt lat="46.58291" lon="6.83403" /><trkpt lat="46.58301" lon="6.83395" /><trkpt lat="46.58311" lon="6.83387" /><trkpt lat="46.5832" lon="6.83381" /><trkpt lat="46.58327" lon="6.83376" /><trkpt lat="46.58338" lon="6.83369" /><trkpt lat="46.5835" lon="6.83361" /><trkpt lat="46.58362" lon="6.83353" /><trkpt lat="46.58374" lon="6.83346" /><trkpt lat="46.58433" lon="6.83308" /><trkpt lat="46.58456" lon="6.83293" /><trkpt lat="46.58475" lon="6.8328" /><trkpt lat="46.5849" lon="6.83269" /><trkpt lat="46.58504" lon="6.83259" /><trkpt lat="46.5853" lon="6.83242" /><trkpt lat="46.58625" lon="6.83182" /><trkpt lat="46.58632" lon="6.83178" /><trkpt lat="46.58635" lon="6.83176" /><trkpt lat="46.58646" lon="6.83171" /><trkpt lat="46.58657" lon="6.83166" /><trkpt lat="46.58665" lon="6.83162" /><trkpt lat="46.58674" lon="6.83159" /><trkpt lat="46.58686" lon="6.83155" /><trkpt lat="46.58694" lon="6.83153" /><trkpt lat="46.587" lon="6.83152" /><trkpt lat="46.58707" lon="6.8315" /><trkpt lat="46.58712" lon="6.83149" /><trkpt lat="46.58718" lon="6.83149" /><trkpt lat="46.58724" lon="6.83148" /><trkpt lat="46.5873" lon="6.83147" /><trkpt lat="46.58736" lon="6.83147" /><trkpt lat="46.58743" lon="6.83146" /><trkpt lat="46.58757" lon="6.83146" /><trkpt lat="46.58764" lon="6.83147" /><trkpt lat="46.58772" lon="6.83147" /><trkpt lat="46.58779" lon="6.83148" /><trkpt lat="46.58787" lon="6.83149" /><trkpt lat="46.58795" lon="6.83151" /><trkpt lat="46.58805" lon="6.83153" /><trkpt lat="46.58817" lon="6.83156" /><trkpt lat="46.5883" lon="6.8316" /><trkpt lat="46.58843" lon="6.83164" /><trkpt lat="46.59017" lon="6.83227" /><trkpt lat="46.59037" lon="6.83234" /><trkpt lat="46.59057" lon="6.83242" /><trkpt lat="46.59072" lon="6.83247" /><trkpt lat="46.59085" lon="6.83253" /><trkpt lat="46.59097" lon="6.83259" /><trkpt lat="46.59108" lon="6.83265" /><trkpt lat="46.59119" lon="6.83272" /><trkpt lat="46.5913" lon="6.83279" /><trkpt lat="46.59141" lon="6.83286" /><trkpt lat="46.59151" lon="6.83294" /><trkpt lat="46.59164" lon="6.83304" /><trkpt lat="46.59175" lon="6.83313" /><trkpt lat="46.59191" lon="6.83327" /><trkpt lat="46.59206" lon="6.8334" /><trkpt lat="46.59386" lon="6.83499" /><trkpt lat="46.59409" lon="6.83519" /><trkpt lat="46.59421" lon="6.83529" /><trkpt lat="46.59432" lon="6.83538" /><trkpt lat="46.59438" lon="6.83543" /><trkpt lat="46.59448" lon="6.8355" /><trkpt lat="46.59454" lon="6.83554" /><trkpt lat="46.59461" lon="6.83558" /><trkpt lat="46.59468" lon="6.83562" /><trkpt lat="46.59476" lon="6.83567" /><trkpt lat="46.59486" lon="6.83571" /><trkpt lat="46.59495" lon="6.83575" /><trkpt lat="46.59504" lon="6.83579" /><trkpt lat="46.59512" lon="6.83581" /><trkpt lat="46.59519" lon="6.83583" /><trkpt lat="46.59527" lon="6.83585" /><trkpt lat="46.59534" lon="6.83587" /><trkpt lat="46.59541" lon="6.83588" /><trkpt lat="46.59548" lon="6.83589" /><trkpt lat="46.59555" lon="6.8359" /><trkpt lat="46.59562" lon="6.8359" /><trkpt lat="46.5957" lon="6.83591" /><trkpt lat="46.59582" lon="6.83591" /><trkpt lat="46.59594" lon="6.8359" /><trkpt lat="46.5961" lon="6.83589" /><trkpt lat="46.59626" lon="6.83587" /><trkpt lat="46.59638" lon="6.83586" /><trkpt lat="46.59833" lon="6.83563" /><trkpt lat="46.60007" lon="6.83542" /><trkpt lat="46.60024" lon="6.8354" /><trkpt lat="46.60044" lon="6.83538" /><trkpt lat="46.60054" lon="6.83538" /><trkpt lat="46.60064" lon="6.83537" /><trkpt lat="46.60077" lon="6.83538" /><trkpt lat="46.60088" lon="6.83538" /><trkpt lat="46.60099" lon="6.8354" /><trkpt lat="46.60108" lon="6.83541" /><trkpt lat="46.6012" lon="6.83544" /><trkpt lat="46.60132" lon="6.83547" /><trkpt lat="46.60142" lon="6.8355" /><trkpt lat="46.60152" lon="6.83554" /><trkpt lat="46.60161" lon="6.83557" /><trkpt lat="46.6017" lon="6.83561" /><trkpt lat="46.60182" lon="6.83567" /><trkpt lat="46.60193" lon="6.83573" /><trkpt lat="46.60201" lon="6.83578" /><trkpt lat="46.60209" lon="6.83582" /><trkpt lat="46.60218" lon="6.83589" /><trkpt lat="46.60228" lon="6.83595" /><trkpt lat="46.60237" lon="6.83603" /><trkpt lat="46.60247" lon="6.83611" /><trkpt lat="46.60257" lon="6.8362" /><trkpt lat="46.60268" lon="6.83631" /><trkpt lat="46.60279" lon="6.83642" /><trkpt lat="46.60289" lon="6.83654" /><trkpt lat="46.60296" lon="6.83663" /><trkpt lat="46.60308" lon="6.83678" /><trkpt lat="46.60317" lon="6.83691" /><trkpt lat="46.60326" lon="6.83704" /><trkpt lat="46.60335" lon="6.83719" /><trkpt lat="46.60345" lon="6.83735" /><trkpt lat="46.60356" lon="6.83753" /><trkpt lat="46.60496" lon="6.83989" /><trkpt lat="46.60505" lon="6.84004" /><trkpt lat="46.60514" lon="6.84019" /><trkpt lat="46.60529" lon="6.84042" /><trkpt lat="46.60539" lon="6.84056" /><trkpt lat="46.60547" lon="6.84067" /><trkpt lat="46.60555" lon="6.84077" /><trkpt lat="46.60562" lon="6.84085" /><trkpt lat="46.6057" lon="6.84094" /><trkpt lat="46.60581" lon="6.84104" /><trkpt lat="46.60591" lon="6.84114" /><trkpt lat="46.60601" lon="6.84123" /><trkpt lat="46.60612" lon="6.84131" /><trkpt lat="46.60626" lon="6.84141" /><trkpt lat="46.60638" lon="6.84148" /><trkpt lat="46.60648" lon="6.84154" /><trkpt lat="46.60658" lon="6.84159" /><trkpt lat="46.6067" lon="6.84164" /><trkpt lat="46.60683" lon="6.84169" /><trkpt lat="46.60696" lon="6.84173" /><trkpt lat="46.60711" lon="6.84176" /><trkpt lat="46.60724" lon="6.84179" /><trkpt lat="46.60733" lon="6.8418" /><trkpt lat="46.60744" lon="6.84181" /><trkpt lat="46.60755" lon="6.84181" /><trkpt lat="46.60767" lon="6.8418" /><trkpt lat="46.60778" lon="6.8418" /><trkpt lat="46.60792" lon="6.84178" /><trkpt lat="46.60804" lon="6.84175" /><trkpt lat="46.60814" lon="6.84173" /><trkpt lat="46.60826" lon="6.84169" /><trkpt lat="46.60839" lon="6.84165" /><trkpt lat="46.60864" lon="6.84155" /><trkpt lat="46.6088" lon="6.84149" /><trkpt lat="46.60898" lon="6.84141" /><trkpt lat="46.60908" lon="6.84138" /><trkpt lat="46.60921" lon="6.84133" /><trkpt lat="46.60935" lon="6.84129" /><trkpt lat="46.60946" lon="6.84126" /><trkpt lat="46.60958" lon="6.84123" /><trkpt lat="46.6097" lon="6.84121" /><trkpt lat="46.60981" lon="6.8412" /><trkpt lat="46.60991" lon="6.84119" /><trkpt lat="46.61002" lon="6.84119" /><trkpt lat="46.61011" lon="6.8412" /><trkpt lat="46.6102" lon="6.8412" /><trkpt lat="46.6103" lon="6.84121" /><trkpt lat="46.61041" lon="6.84123" /><trkpt lat="46.61052" lon="6.84126" /><trkpt lat="46.61062" lon="6.84128" /><trkpt lat="46.61073" lon="6.84132" /><trkpt lat="46.61083" lon="6.84135" /><trkpt lat="46.61094" lon="6.8414" /><trkpt lat="46.61105" lon="6.84145" /><trkpt lat="46.61117" lon="6.84152" /><trkpt lat="46.61128" lon="6.84158" /><trkpt lat="46.61135" lon="6.84163" /><trkpt lat="46.61142" lon="6.84167" /><trkpt lat="46.61148" lon="6.84172" /><trkpt lat="46.61155" lon="6.84177" /><trkpt lat="46.61166" lon="6.84186" /><trkpt lat="46.61176" lon="6.84196" /><trkpt lat="46.61186" lon="6.84205" /><trkpt lat="46.61195" lon="6.84215" /><trkpt lat="46.61204" lon="6.84224" /><trkpt lat="46.61213" lon="6.84235" /><trkpt lat="46.61219" lon="6.84243" /><trkpt lat="46.61228" lon="6.84255" /><trkpt lat="46.61236" lon="6.84267" /><trkpt lat="46.61248" lon="6.84285" /><trkpt lat="46.61259" lon="6.84302" /><trkpt lat="46.61268" lon="6.8432" /><trkpt lat="46.61276" lon="6.84335" /><trkpt lat="46.61289" lon="6.84359" /><trkpt lat="46.61296" lon="6.84372" /><trkpt lat="46.61304" lon="6.84385" /><trkpt lat="46.61308" lon="6.84393" /><trkpt lat="46.61314" lon="6.84401" /><trkpt lat="46.61322" lon="6.84414" /><trkpt lat="46.61331" lon="6.84426" /><trkpt lat="46.61339" lon="6.84437" /><trkpt lat="46.61347" lon="6.84447" /><trkpt lat="46.61355" lon="6.84457" /><trkpt lat="46.61366" lon="6.84468" /><trkpt lat="46.61377" lon="6.84479" /><trkpt lat="46.61387" lon="6.84488" /><trkpt lat="46.61396" lon="6.84496" /><trkpt lat="46.61408" lon="6.84505" /><trkpt lat="46.6142" lon="6.84514" /><trkpt lat="46.61433" lon="6.84522" /><trkpt lat="46.61446" lon="6.8453" /><trkpt lat="46.61456" lon="6.84536" /><trkpt lat="46.61467" lon="6.84542" /><trkpt lat="46.61486" lon="6.84553" /><trkpt lat="46.61527" lon="6.84576" /><trkpt lat="46.6161" lon="6.84623" /><trkpt lat="46.61636" lon="6.84638" /><trkpt lat="46.61654" lon="6.84649" /><trkpt lat="46.61672" lon="6.8466" /><trkpt lat="46.61689" lon="6.84671" /><trkpt lat="46.61706" lon="6.84683" /><trkpt lat="46.61723" lon="6.84695" /><trkpt lat="46.61794" lon="6.8475" /><trkpt lat="46.61809" lon="6.84761" /><trkpt lat="46.61824" lon="6.84773" /><trkpt lat="46.61838" lon="6.84783" /><trkpt lat="46.61848" lon="6.84789" /><trkpt lat="46.61859" lon="6.84796" /><trkpt lat="46.61894" lon="6.84816" /><trkpt lat="46.61938" lon="6.84842" /><trkpt lat="46.61967" lon="6.84858" /><trkpt lat="46.6198" lon="6.84866" /><trkpt lat="46.61992" lon="6.84874" /><trkpt lat="46.62005" lon="6.84883" /><trkpt lat="46.62016" lon="6.84891" /><trkpt lat="46.62026" lon="6.84899" /><trkpt lat="46.62034" lon="6.84907" /><trkpt lat="46.6205" lon="6.84921" /><trkpt lat="46.62059" lon="6.8493" /><trkpt lat="46.62075" lon="6.84946" /><trkpt lat="46.62132" lon="6.85004" /><trkpt lat="46.62152" lon="6.85024" /><trkpt lat="46.62223" lon="6.85096" /><trkpt lat="46.62225" lon="6.85098" /><trkpt lat="46.62235" lon="6.85108" /><trkpt lat="46.62237" lon="6.8511" /><trkpt lat="46.6231" lon="6.85184" /><trkpt lat="46.62334" lon="6.85208" /><trkpt lat="46.62359" lon="6.85231" /><trkpt lat="46.62379" lon="6.8525" /><trkpt lat="46.62401" lon="6.85271" /><trkpt lat="46.62445" lon="6.8531" /><trkpt lat="46.62631" lon="6.85478" /><trkpt lat="46.62817" lon="6.85656" /><trkpt lat="46.6299" lon="6.85844" /><trkpt lat="46.63168" lon="6.86064" /><trkpt lat="46.63335" lon="6.8628" /><trkpt lat="46.63507" lon="6.86483" /><trkpt lat="46.63594" lon="6.86575" /><trkpt lat="46.6369" lon="6.86672" /><trkpt lat="46.63785" lon="6.86761" /><trkpt lat="46.63878" lon="6.86842" /><trkpt lat="46.6399" lon="6.86935" /><trkpt lat="46.64093" lon="6.87022" /><trkpt lat="46.64677" lon="6.87514" /><trkpt lat="46.65083" lon="6.87857" /><trkpt lat="46.65127" lon="6.87894" /><trkpt lat="46.65155" lon="6.87917" /><trkpt lat="46.65172" lon="6.87933" /><trkpt lat="46.65189" lon="6.87948" /><trkpt lat="46.65201" lon="6.87959" /><trkpt lat="46.65358" lon="6.88109" /><trkpt lat="46.65461" lon="6.88208" /><trkpt lat="46.65518" lon="6.88262" /><trkpt lat="46.65529" lon="6.88272" /><trkpt lat="46.65538" lon="6.88281" /><trkpt lat="46.6555" lon="6.88292" /><trkpt lat="46.65559" lon="6.883" /><trkpt lat="46.65569" lon="6.88309" /><trkpt lat="46.65579" lon="6.88317" /><trkpt lat="46.65589" lon="6.88326" /><trkpt lat="46.65599" lon="6.88334" /><trkpt lat="46.6561" lon="6.88343" /><trkpt lat="46.65631" lon="6.88359" /><trkpt lat="46.65652" lon="6.88374" /><trkpt lat="46.65671" lon="6.88387" /><trkpt lat="46.6569" lon="6.884" /><trkpt lat="46.65709" lon="6.88412" /><trkpt lat="46.65729" lon="6.88423" /><trkpt lat="46.65746" lon="6.88433" /><trkpt lat="46.65811" lon="6.8847" /><trkpt lat="46.65963" lon="6.88555" /><trkpt lat="46.65972" lon="6.88561" /><trkpt lat="46.65981" lon="6.88567" /><trkpt lat="46.6599" lon="6.88573" /><trkpt lat="46.65999" lon="6.88579" /><trkpt lat="46.66007" lon="6.88585" /><trkpt lat="46.6602" lon="6.88595" /><trkpt lat="46.66025" lon="6.886" /><trkpt lat="46.66031" lon="6.88604" /><trkpt lat="46.66039" lon="6.88612" /><trkpt lat="46.66045" lon="6.88617" /><trkpt lat="46.6605" lon="6.88623" /><trkpt lat="46.66062" lon="6.88634" /><trkpt lat="46.66071" lon="6.88645" /><trkpt lat="46.6608" lon="6.88655" /><trkpt lat="46.66092" lon="6.8867" /><trkpt lat="46.66103" lon="6.88685" /><trkpt lat="46.66109" lon="6.88694" /><trkpt lat="46.66115" lon="6.88703" /><trkpt lat="46.66122" lon="6.88713" /><trkpt lat="46.66127" lon="6.88722" /><trkpt lat="46.66137" lon="6.88739" /><trkpt lat="46.66145" lon="6.88754" /><trkpt lat="46.6616" lon="6.88781" /><trkpt lat="46.66183" lon="6.88828" /><trkpt lat="46.66284" lon="6.89024" /><trkpt lat="46.66295" lon="6.89047" /><trkpt lat="46.66306" lon="6.89067" /><trkpt lat="46.66315" lon="6.89082" /><trkpt lat="46.66324" lon="6.89098" /><trkpt lat="46.66333" lon="6.89112" /><trkpt lat="46.66342" lon="6.89125" /><trkpt lat="46.66351" lon="6.89136" /><trkpt lat="46.6636" lon="6.89147" /><trkpt lat="46.66371" lon="6.8916" /><trkpt lat="46.66381" lon="6.89172" /><trkpt lat="46.66391" lon="6.89182" /><trkpt lat="46.66401" lon="6.89192" /><trkpt lat="46.66412" lon="6.89203" /><trkpt lat="46.66424" lon="6.89214" /><trkpt lat="46.66499" lon="6.89281" /><trkpt lat="46.665" lon="6.89282" /><trkpt lat="46.66734" lon="6.89491" /><trkpt lat="46.66749" lon="6.89505" /><trkpt lat="46.66767" lon="6.89522" /><trkpt lat="46.66793" lon="6.89547" /><trkpt lat="46.66816" lon="6.89571" /><trkpt lat="46.669" lon="6.89656" /><trkpt lat="46.6692" lon="6.89676" /><trkpt lat="46.66937" lon="6.89692" /><trkpt lat="46.66949" lon="6.89704" /><trkpt lat="46.66959" lon="6.89713" /><trkpt lat="46.66968" lon="6.8972" /><trkpt lat="46.66978" lon="6.89728" /><trkpt lat="46.66988" lon="6.89736" /><trkpt lat="46.66999" lon="6.89743" /><trkpt lat="46.67009" lon="6.8975" /><trkpt lat="46.67019" lon="6.89755" /><trkpt lat="46.67031" lon="6.89762" /><trkpt lat="46.67044" lon="6.89768" /><trkpt lat="46.67057" lon="6.89775" /><trkpt lat="46.67231" lon="6.89859" /><trkpt lat="46.67233" lon="6.8986" /><trkpt lat="46.67711" lon="6.9009" /><trkpt lat="46.67793" lon="6.90129" /><trkpt lat="46.67836" lon="6.9015" /><trkpt lat="46.67862" lon="6.90163" /><trkpt lat="46.67882" lon="6.90173" /><trkpt lat="46.67901" lon="6.90184" /><trkpt lat="46.67916" lon="6.90193" /><trkpt lat="46.67931" lon="6.90203" /><trkpt lat="46.67944" lon="6.90212" /><trkpt lat="46.67962" lon="6.90224" /><trkpt lat="46.67973" lon="6.90232" /><trkpt lat="46.67982" lon="6.90239" /><trkpt lat="46.67992" lon="6.90247" /><trkpt lat="46.68008" lon="6.9026" /><trkpt lat="46.68018" lon="6.90269" /><trkpt lat="46.68027" lon="6.90277" /><trkpt lat="46.68036" lon="6.90285" /><trkpt lat="46.68044" lon="6.90293" /><trkpt lat="46.68053" lon="6.90302" /><trkpt lat="46.68062" lon="6.9031" /><trkpt lat="46.68079" lon="6.90328" /><trkpt lat="46.68111" lon="6.90364" /><trkpt lat="46.68112" lon="6.90366" /><trkpt lat="46.68131" lon="6.90388" /><trkpt lat="46.68144" lon="6.90404" /><trkpt lat="46.68166" lon="6.90432" /><trkpt lat="46.6818" lon="6.90448" /><trkpt lat="46.68193" lon="6.90464" /><trkpt lat="46.68205" lon="6.90478" /><trkpt lat="46.68218" lon="6.90492" /><trkpt lat="46.68231" lon="6.90504" /><trkpt lat="46.68244" lon="6.90516" /><trkpt lat="46.68257" lon="6.90526" /><trkpt lat="46.6827" lon="6.90537" /><trkpt lat="46.68283" lon="6.90545" /><trkpt lat="46.68296" lon="6.90553" /><trkpt lat="46.6831" lon="6.90561" /><trkpt lat="46.68325" lon="6.90569" /><trkpt lat="46.68338" lon="6.90575" /><trkpt lat="46.68352" lon="6.9058" /><trkpt lat="46.68366" lon="6.90585" /><trkpt lat="46.6838" lon="6.90589" /><trkpt lat="46.6839" lon="6.90591" /><trkpt lat="46.684" lon="6.90593" /><trkpt lat="46.68415" lon="6.90595" /><trkpt lat="46.68426" lon="6.90596" /><trkpt lat="46.68439" lon="6.90597" /><trkpt lat="46.68465" lon="6.90597" /><trkpt lat="46.68544" lon="6.90593" /><trkpt lat="46.68689" lon="6.90584" /><trkpt lat="46.68757" lon="6.9058" /><trkpt lat="46.68771" lon="6.9058" /><trkpt lat="46.68785" lon="6.90579" /><trkpt lat="46.68799" lon="6.90579" /><trkpt lat="46.68814" lon="6.9058" /><trkpt lat="46.68826" lon="6.90581" /><trkpt lat="46.68838" lon="6.90583" /><trkpt lat="46.68847" lon="6.90584" /><trkpt lat="46.68854" lon="6.90586" /><trkpt lat="46.68864" lon="6.90588" /><trkpt lat="46.68875" lon="6.90591" /><trkpt lat="46.68883" lon="6.90594" /><trkpt lat="46.68894" lon="6.90598" /><trkpt lat="46.68902" lon="6.90601" /><trkpt lat="46.6891" lon="6.90605" /><trkpt lat="46.68922" lon="6.9061" /><trkpt lat="46.68936" lon="6.90618" /><trkpt lat="46.68947" lon="6.90625" /><trkpt lat="46.68954" lon="6.90629" /><trkpt lat="46.6896" lon="6.90634" /><trkpt lat="46.68966" lon="6.90638" /><trkpt lat="46.68972" lon="6.90643" /><trkpt lat="46.68984" lon="6.90652" /><trkpt lat="46.68992" lon="6.9066" /><trkpt lat="46.69" lon="6.90666" /><trkpt lat="46.6901" lon="6.90676" /><trkpt lat="46.6902" lon="6.90687" /><trkpt lat="46.69035" lon="6.90703" /><trkpt lat="46.69066" lon="6.90738" /><trkpt lat="46.69078" lon="6.90755" /><trkpt lat="46.69091" lon="6.90774" /><trkpt lat="46.6912" lon="6.90807" /><trkpt lat="46.69139" lon="6.90829" /><trkpt lat="46.69148" lon="6.90839" /><trkpt lat="46.69156" lon="6.9085" /><trkpt lat="46.69166" lon="6.90861" /><trkpt lat="46.69175" lon="6.90874" /><trkpt lat="46.69181" lon="6.90883" /><trkpt lat="46.69189" lon="6.90894" /><trkpt lat="46.69197" lon="6.90907" /><trkpt lat="46.69208" lon="6.90925" /><trkpt lat="46.69276" lon="6.91041" /><trkpt lat="46.69281" lon="6.9105" /><trkpt lat="46.69365" lon="6.91192" /><trkpt lat="46.69365" lon="6.91192" /></trkseg></trk></gpx>