<gpx version="1.1" creator="Trainlog.me"><trk><name>Trip Path</name><trkseg><trkpt lat="46.59836" lon="7.90797" /><trkpt lat="46.59842" lon="7.90796" /><trkpt lat="46.5988" lon="7.90788" /><trkpt lat="46.59889" lon="7.90786" /><trkpt lat="46.59898" lon="7.90783" /><trkpt lat="46.59905" lon="7.90781" /><trkpt lat="46.59913" lon="7.90777" /><trkpt lat="46.59927" lon="7.90772" /><trkpt lat="46.59938" lon="7.90766" /><trkpt lat="46.59946" lon="7.90761" /><trkpt lat="46.59952" lon="7.90757" /><trkpt lat="46.59954" lon="7.90755" /><trkpt lat="46.59969" lon="7.90739" /><trkpt lat="46.59973" lon="7.90734" /><trkpt lat="46.59979" lon="7.90725" /><trkpt lat="46.59993" lon="7.90703" /><trkpt lat="46.60007" lon="7.90687" /><trkpt lat="46.60018" lon="7.90677" /><trkpt lat="46.60035" lon="7.90666" /><trkpt lat="46.60065" lon="7.90651" /><trkpt lat="46.6008" lon="7.90645" /><trkpt lat="46.60095" lon="7.90642" /><trkpt lat="46.60106" lon="7.90641" /><trkpt lat="46.60119" lon="7.90643" /><trkpt lat="46.60136" lon="7.90648" /><trkpt lat="46.6016" lon="7.90656" /><trkpt lat="46.60178" lon="7.90662" /><trkpt lat="46.60194" lon="7.90665" /><trkpt lat="46.6022" lon="7.90668" /><trkpt lat="46.60241" lon="7.90671" /><trkpt lat="46.6027" lon="7.90673" /><trkpt lat="46.60298" lon="7.90671" /><trkpt lat="46.60313" lon="7.90669" /><trkpt lat="46.60331" lon="7.90665" /><trkpt lat="46.60414" lon="7.90635" /><trkpt lat="46.60455" lon="7.90618" /><trkpt lat="46.60584" lon="7.90548" /><trkpt lat="46.60602" lon="7.9054" /><trkpt lat="46.60615" lon="7.90538" /><trkpt lat="46.60628" lon="7.90537" /><trkpt lat="46.60677" lon="7.90542" /><trkpt lat="46.6069" lon="7.90542" /><trkpt lat="46.60708" lon="7.90536" /><trkpt lat="46.60722" lon="7.90528" /><trkpt lat="46.60736" lon="7.90517" /><trkpt lat="46.60752" lon="7.90499" /><trkpt lat="46.60764" lon="7.90477" /><trkpt lat="46.60773" lon="7.90454" /><trkpt lat="46.60778" lon="7.90438" /><trkpt lat="46.60783" lon="7.9042" /><trkpt lat="46.60791" lon="7.90397" /><trkpt lat="46.60798" lon="7.90382" /><trkpt lat="46.60806" lon="7.90368" /><trkpt lat="46.60816" lon="7.90354" /><trkpt lat="46.60826" lon="7.90342" /><trkpt lat="46.60854" lon="7.90316" /><trkpt lat="46.6088" lon="7.90294" /><trkpt lat="46.60896" lon="7.90285" /><trkpt lat="46.60933" lon="7.90275" /><trkpt lat="46.60976" lon="7.90269" /><trkpt lat="46.6107" lon="7.90245" /><trkpt lat="46.61178" lon="7.90198" /><trkpt lat="46.61203" lon="7.90196" /><trkpt lat="46.61225" lon="7.90199" /><trkpt lat="46.61246" lon="7.90206" /><trkpt lat="46.61279" lon="7.90228" /><trkpt lat="46.6131" lon="7.90249" /><trkpt lat="46.61331" lon="7.90263" /><trkpt lat="46.61356" lon="7.9028" /><trkpt lat="46.61372" lon="7.9029" /><trkpt lat="46.6138" lon="7.90295" /><trkpt lat="46.61387" lon="7.90298" /><trkpt lat="46.61396" lon="7.90299" /><trkpt lat="46.61415" lon="7.90298" /><trkpt lat="46.61433" lon="7.90296" /><trkpt lat="46.61442" lon="7.90293" /><trkpt lat="46.61451" lon="7.90289" /><trkpt lat="46.61473" lon="7.90273" /><trkpt lat="46.61505" lon="7.90251" /><trkpt lat="46.61528" lon="7.90233" /><trkpt lat="46.6155" lon="7.90219" /><trkpt lat="46.61571" lon="7.90203" /><trkpt lat="46.61593" lon="7.90192" /><trkpt lat="46.61617" lon="7.90189" /><trkpt lat="46.61647" lon="7.90196" /><trkpt lat="46.61695" lon="7.90207" /><trkpt lat="46.61731" lon="7.90231" /><trkpt lat="46.61753" lon="7.90245" /><trkpt lat="46.61779" lon="7.90262" /><trkpt lat="46.61795" lon="7.90266" /><trkpt lat="46.61812" lon="7.90265" /><trkpt lat="46.61844" lon="7.9025" /><trkpt lat="46.61922" lon="7.90226" /><trkpt lat="46.61976" lon="7.90217" /><trkpt lat="46.62027" lon="7.90235" /><trkpt lat="46.62214" lon="7.90352" /><trkpt lat="46.62237" lon="7.90362" /><trkpt lat="46.62266" lon="7.90363" /><trkpt lat="46.62322" lon="7.90366" /><trkpt lat="46.6243" lon="7.90396" /><trkpt lat="46.62491" lon="7.90391" /><trkpt lat="46.62549" lon="7.90378" /><trkpt lat="46.62595" lon="7.90352" /><trkpt lat="46.62646" lon="7.90328" /><trkpt lat="46.62786" lon="7.90291" /><trkpt lat="46.6281" lon="7.90286" /><trkpt lat="46.62834" lon="7.90288" /><trkpt lat="46.62856" lon="7.90297" /><trkpt lat="46.62882" lon="7.90306" /><trkpt lat="46.62893" lon="7.9031" /><trkpt lat="46.6291" lon="7.90312" /><trkpt lat="46.62927" lon="7.9031" /><trkpt lat="46.6294" lon="7.90305" /><trkpt lat="46.62961" lon="7.90292" /><trkpt lat="46.62978" lon="7.90274" /><trkpt lat="46.63016" lon="7.90214" /><trkpt lat="46.6304" lon="7.90176" /><trkpt lat="46.6306" lon="7.90153" /><trkpt lat="46.63069" lon="7.90143" /><trkpt lat="46.63076" lon="7.90136" /><trkpt lat="46.63081" lon="7.90132" /><trkpt lat="46.63084" lon="7.9013" /><trkpt lat="46.63098" lon="7.90118" /><trkpt lat="46.63134" lon="7.90092" /><trkpt lat="46.63153" lon="7.90078" /><trkpt lat="46.6317" lon="7.90065" /><trkpt lat="46.63219" lon="7.90028" /><trkpt lat="46.63244" lon="7.9001" /><trkpt lat="46.63262" lon="7.89996" /><trkpt lat="46.63262" lon="7.89996" /></trkseg></trk></gpx>