<gpx version="1.1" creator="Trainlog.me"><trk><name>Trip Path</name><trkseg><trkpt lat="46.59885" lon="7.90763" /><trkpt lat="46.59889" lon="7.90763" /><trkpt lat="46.59888" lon="7.90756" /><trkpt lat="46.59888" lon="7.90756" /><trkpt lat="46.59881" lon="7.90757" /><trkpt lat="46.59875" lon="7.90758" /><trkpt lat="46.59864" lon="7.90758" /><trkpt lat="46.59852" lon="7.90757" /><trkpt lat="46.59845" lon="7.90757" /><trkpt lat="46.59839" lon="7.90758" /><trkpt lat="46.5981" lon="7.9076" /><trkpt lat="46.59797" lon="7.90758" /><trkpt lat="46.59785" lon="7.90754" /><trkpt lat="46.59772" lon="7.90747" /><trkpt lat="46.59767" lon="7.90744" /><trkpt lat="46.59764" lon="7.90743" /><trkpt lat="46.5976" lon="7.90741" /><trkpt lat="46.59754" lon="7.90741" /><trkpt lat="46.59748" lon="7.90742" /><trkpt lat="46.5973" lon="7.90752" /><trkpt lat="46.59719" lon="7.90757" /><trkpt lat="46.59713" lon="7.9076" /><trkpt lat="46.59709" lon="7.90761" /><trkpt lat="46.59704" lon="7.90761" /><trkpt lat="46.59697" lon="7.90761" /><trkpt lat="46.59682" lon="7.90759" /><trkpt lat="46.5967" lon="7.90758" /><trkpt lat="46.59628" lon="7.90752" /><trkpt lat="46.59617" lon="7.9075" /><trkpt lat="46.59575" lon="7.90744" /><trkpt lat="46.59556" lon="7.90741" /><trkpt lat="46.59546" lon="7.90742" /><trkpt lat="46.59543" lon="7.90742" /><trkpt lat="46.59528" lon="7.90743" /><trkpt lat="46.59505" lon="7.90746" /><trkpt lat="46.595" lon="7.90746" /><trkpt lat="46.59483" lon="7.90747" /><trkpt lat="46.59475" lon="7.90747" /><trkpt lat="46.59416" lon="7.90739" /><trkpt lat="46.59407" lon="7.90737" /><trkpt lat="46.59398" lon="7.90733" /><trkpt lat="46.59389" lon="7.90727" /><trkpt lat="46.59381" lon="7.90726" /><trkpt lat="46.59374" lon="7.90726" /><trkpt lat="46.59366" lon="7.90728" /><trkpt lat="46.59355" lon="7.90731" /><trkpt lat="46.59304" lon="7.90744" /><trkpt lat="46.59295" lon="7.90747" /><trkpt lat="46.59282" lon="7.90753" /><trkpt lat="46.59274" lon="7.90761" /><trkpt lat="46.59268" lon="7.90773" /><trkpt lat="46.59267" lon="7.90777" /><trkpt lat="46.59266" lon="7.90785" /><trkpt lat="46.59267" lon="7.90794" /><trkpt lat="46.59268" lon="7.90802" /><trkpt lat="46.59269" lon="7.90805" /><trkpt lat="46.59272" lon="7.90811" /><trkpt lat="46.59277" lon="7.90818" /><trkpt lat="46.59283" lon="7.90825" /><trkpt lat="46.5929" lon="7.90832" /><trkpt lat="46.59297" lon="7.90836" /><trkpt lat="46.59307" lon="7.9084" /><trkpt lat="46.59343" lon="7.90844" /><trkpt lat="46.59349" lon="7.90845" /><trkpt lat="46.59353" lon="7.90848" /><trkpt lat="46.59356" lon="7.90852" /><trkpt lat="46.59359" lon="7.90856" /><trkpt lat="46.5936" lon="7.90862" /><trkpt lat="46.59361" lon="7.90865" /><trkpt lat="46.5936" lon="7.90875" /><trkpt lat="46.59358" lon="7.90882" /><trkpt lat="46.59354" lon="7.90895" /><trkpt lat="46.59349" lon="7.90907" /><trkpt lat="46.59343" lon="7.90918" /><trkpt lat="46.5933" lon="7.90937" /><trkpt lat="46.59327" lon="7.9094" /><trkpt lat="46.59296" lon="7.90983" /><trkpt lat="46.59286" lon="7.90999" /><trkpt lat="46.59279" lon="7.91009" /><trkpt lat="46.59274" lon="7.91015" /><trkpt lat="46.59268" lon="7.91019" /><trkpt lat="46.59255" lon="7.91026" /><trkpt lat="46.59245" lon="7.91035" /><trkpt lat="46.59225" lon="7.91064" /><trkpt lat="46.59209" lon="7.91078" /><trkpt lat="46.59204" lon="7.91082" /><trkpt lat="46.59196" lon="7.91087" /><trkpt lat="46.59132" lon="7.91119" /><trkpt lat="46.59104" lon="7.91134" /><trkpt lat="46.59091" lon="7.91142" /><trkpt lat="46.59089" lon="7.91144" /><trkpt lat="46.59079" lon="7.91153" /><trkpt lat="46.5907" lon="7.91163" /><trkpt lat="46.59061" lon="7.91172" /><trkpt lat="46.59056" lon="7.91178" /><trkpt lat="46.59053" lon="7.91181" /><trkpt lat="46.59044" lon="7.91188" /><trkpt lat="46.59035" lon="7.91193" /><trkpt lat="46.59022" lon="7.91199" /><trkpt lat="46.59003" lon="7.91209" /><trkpt lat="46.58992" lon="7.91215" /><trkpt lat="46.58962" lon="7.91236" /><trkpt lat="46.58948" lon="7.91245" /><trkpt lat="46.5892" lon="7.91265" /><trkpt lat="46.58879" lon="7.91291" /><trkpt lat="46.5887" lon="7.91299" /><trkpt lat="46.58829" lon="7.91345" /><trkpt lat="46.58814" lon="7.91364" /><trkpt lat="46.58806" lon="7.91379" /><trkpt lat="46.58803" lon="7.91384" /><trkpt lat="46.58797" lon="7.91394" /><trkpt lat="46.58791" lon="7.91401" /><trkpt lat="46.58783" lon="7.91407" /><trkpt lat="46.58774" lon="7.91412" /><trkpt lat="46.58768" lon="7.91415" /><trkpt lat="46.58757" lon="7.91421" /><trkpt lat="46.58751" lon="7.91425" /><trkpt lat="46.58744" lon="7.91431" /><trkpt lat="46.58734" lon="7.91439" /><trkpt lat="46.5872" lon="7.91451" /><trkpt lat="46.58709" lon="7.91461" /><trkpt lat="46.58702" lon="7.91465" /><trkpt lat="46.58696" lon="7.91468" /><trkpt lat="46.58689" lon="7.91471" /><trkpt lat="46.58679" lon="7.91472" /><trkpt lat="46.58667" lon="7.91473" /><trkpt lat="46.58654" lon="7.91476" /><trkpt lat="46.58613" lon="7.91488" /><trkpt lat="46.58587" lon="7.91497" /><trkpt lat="46.58583" lon="7.91498" /><trkpt lat="46.5858" lon="7.91499" /><trkpt lat="46.58578" lon="7.915" /><trkpt lat="46.58575" lon="7.91501" /><trkpt lat="46.58542" lon="7.91512" /><trkpt lat="46.58514" lon="7.91519" /><trkpt lat="46.5847" lon="7.91533" /><trkpt lat="46.58463" lon="7.91535" /><trkpt lat="46.58448" lon="7.91541" /><trkpt lat="46.58431" lon="7.91548" /><trkpt lat="46.58412" lon="7.91552" /><trkpt lat="46.584" lon="7.91552" /><trkpt lat="46.58391" lon="7.91551" /><trkpt lat="46.58384" lon="7.91548" /><trkpt lat="46.58378" lon="7.91543" /><trkpt lat="46.58371" lon="7.91536" /><trkpt lat="46.58362" lon="7.91527" /><trkpt lat="46.58355" lon="7.9152" /><trkpt lat="46.58346" lon="7.91514" /><trkpt lat="46.58336" lon="7.91508" /><trkpt lat="46.5833" lon="7.91505" /><trkpt lat="46.5832" lon="7.91503" /><trkpt lat="46.58314" lon="7.91502" /><trkpt lat="46.58299" lon="7.91503" /><trkpt lat="46.58272" lon="7.91507" /><trkpt lat="46.58258" lon="7.91507" /><trkpt lat="46.58216" lon="7.91503" /><trkpt lat="46.58153" lon="7.91504" /><trkpt lat="46.58142" lon="7.91504" /><trkpt lat="46.58097" lon="7.91504" /><trkpt lat="46.57923" lon="7.91467" /><trkpt lat="46.57903" lon="7.91463" /><trkpt lat="46.57782" lon="7.91436" /><trkpt lat="46.57767" lon="7.91431" /><trkpt lat="46.57754" lon="7.91427" /><trkpt lat="46.57698" lon="7.91413" /><trkpt lat="46.57628" lon="7.91393" /><trkpt lat="46.57598" lon="7.91382" /><trkpt lat="46.57577" lon="7.91373" /><trkpt lat="46.57525" lon="7.91337" /><trkpt lat="46.57498" lon="7.91319" /><trkpt lat="46.57484" lon="7.91314" /><trkpt lat="46.57468" lon="7.91309" /><trkpt lat="46.57452" lon="7.91307" /><trkpt lat="46.57433" lon="7.91305" /><trkpt lat="46.57384" lon="7.91284" /><trkpt lat="46.57351" lon="7.91261" /><trkpt lat="46.57328" lon="7.91244" /><trkpt lat="46.57304" lon="7.91228" /><trkpt lat="46.5729" lon="7.91221" /><trkpt lat="46.57262" lon="7.91204" /><trkpt lat="46.57237" lon="7.91189" /><trkpt lat="46.57226" lon="7.91182" /><trkpt lat="46.57217" lon="7.91173" /><trkpt lat="46.57208" lon="7.91164" /><trkpt lat="46.572" lon="7.91155" /><trkpt lat="46.57175" lon="7.91127" /><trkpt lat="46.5717" lon="7.91121" /><trkpt lat="46.57159" lon="7.91111" /><trkpt lat="46.57148" lon="7.91103" /><trkpt lat="46.57137" lon="7.91097" /><trkpt lat="46.57128" lon="7.91092" /><trkpt lat="46.57117" lon="7.91088" /><trkpt lat="46.57043" lon="7.9106" /><trkpt lat="46.57023" lon="7.91053" /><trkpt lat="46.56975" lon="7.91036" /><trkpt lat="46.56947" lon="7.91026" /><trkpt lat="46.569" lon="7.91009" /><trkpt lat="46.5689" lon="7.91006" /><trkpt lat="46.56877" lon="7.90999" /><trkpt lat="46.56862" lon="7.90992" /><trkpt lat="46.56832" lon="7.90976" /><trkpt lat="46.56809" lon="7.90964" /><trkpt lat="46.56754" lon="7.90936" /><trkpt lat="46.56725" lon="7.9092" /><trkpt lat="46.5672" lon="7.90917" /><trkpt lat="46.56686" lon="7.909" /><trkpt lat="46.56659" lon="7.90885" /><trkpt lat="46.56637" lon="7.90871" /><trkpt lat="46.56608" lon="7.90853" /><trkpt lat="46.56486" lon="7.90771" /><trkpt lat="46.56398" lon="7.90712" /><trkpt lat="46.56343" lon="7.90669" /><trkpt lat="46.56312" lon="7.90644" /><trkpt lat="46.56299" lon="7.90631" /><trkpt lat="46.56287" lon="7.90619" /><trkpt lat="46.56274" lon="7.90603" /><trkpt lat="46.56265" lon="7.9059" /><trkpt lat="46.56257" lon="7.90578" /><trkpt lat="46.56245" lon="7.90562" /><trkpt lat="46.56233" lon="7.90548" /><trkpt lat="46.56221" lon="7.90537" /><trkpt lat="46.5621" lon="7.90529" /><trkpt lat="46.562" lon="7.90524" /><trkpt lat="46.56191" lon="7.9052" /><trkpt lat="46.56183" lon="7.90517" /><trkpt lat="46.5617" lon="7.90514" /><trkpt lat="46.56144" lon="7.9051" /><trkpt lat="46.56017" lon="7.9049" /><trkpt lat="46.5598" lon="7.90483" /><trkpt lat="46.55953" lon="7.90476" /><trkpt lat="46.55929" lon="7.90468" /><trkpt lat="46.55814" lon="7.90427" /><trkpt lat="46.55763" lon="7.90409" /><trkpt lat="46.5574" lon="7.90402" /><trkpt lat="46.55717" lon="7.90396" /><trkpt lat="46.55681" lon="7.90387" /><trkpt lat="46.55618" lon="7.9037" /><trkpt lat="46.55591" lon="7.90357" /><trkpt lat="46.55565" lon="7.9034" /><trkpt lat="46.5555" lon="7.9033" /><trkpt lat="46.55511" lon="7.90301" /><trkpt lat="46.55505" lon="7.90298" /><trkpt lat="46.55505" lon="7.90298" /><trkpt lat="46.5551" lon="7.90271" /><trkpt lat="46.5552" lon="7.90231" /><trkpt lat="46.55512" lon="7.90209" /><trkpt lat="46.55503" lon="7.90197" /><trkpt lat="46.5549" lon="7.90181" /><trkpt lat="46.5549" lon="7.90181" /><trkpt lat="46.55497" lon="7.90153" /><trkpt lat="46.55486" lon="7.90141" /><trkpt lat="46.55486" lon="7.90141" /><trkpt lat="46.55491" lon="7.9013" /><trkpt lat="46.55493" lon="7.90126" /><trkpt lat="46.55493" lon="7.90126" /><trkpt lat="46.55519" lon="7.90133" /><trkpt lat="46.55522" lon="7.90134" /><trkpt lat="46.55522" lon="7.90134" /></trkseg></trk></gpx>