<gpx version="1.1" creator="Trainlog.me"><trk><name>Trip Path</name><trkseg><trkpt lat="46.36139" lon="7.05219" /><trkpt lat="46.36136" lon="7.05231" /><trkpt lat="46.36112" lon="7.05316" /><trkpt lat="46.36111" lon="7.05322" /><trkpt lat="46.36109" lon="7.05326" /><trkpt lat="46.36106" lon="7.05332" /><trkpt lat="46.36093" lon="7.0536" /><trkpt lat="46.3609" lon="7.05366" /><trkpt lat="46.36088" lon="7.0537" /><trkpt lat="46.36084" lon="7.05375" /><trkpt lat="46.36081" lon="7.05378" /><trkpt lat="46.36077" lon="7.05381" /><trkpt lat="46.36073" lon="7.05384" /><trkpt lat="46.3607" lon="7.05386" /><trkpt lat="46.36066" lon="7.05388" /><trkpt lat="46.36062" lon="7.05389" /><trkpt lat="46.36058" lon="7.0539" /><trkpt lat="46.36054" lon="7.0539" /><trkpt lat="46.36051" lon="7.0539" /><trkpt lat="46.36047" lon="7.0539" /><trkpt lat="46.36044" lon="7.0539" /><trkpt lat="46.3604" lon="7.05389" /><trkpt lat="46.36037" lon="7.05388" /><trkpt lat="46.36032" lon="7.05386" /><trkpt lat="46.36029" lon="7.05384" /><trkpt lat="46.36025" lon="7.05381" /><trkpt lat="46.36021" lon="7.05377" /><trkpt lat="46.36017" lon="7.05373" /><trkpt lat="46.36014" lon="7.05369" /><trkpt lat="46.3601" lon="7.05363" /><trkpt lat="46.36006" lon="7.05356" /><trkpt lat="46.36004" lon="7.05351" /><trkpt lat="46.36002" lon="7.05343" /><trkpt lat="46.35999" lon="7.05335" /><trkpt lat="46.35991" lon="7.05293" /><trkpt lat="46.35989" lon="7.05286" /><trkpt lat="46.35987" lon="7.05279" /><trkpt lat="46.35985" lon="7.05273" /><trkpt lat="46.35982" lon="7.05267" /><trkpt lat="46.35979" lon="7.05263" /><trkpt lat="46.35976" lon="7.05258" /><trkpt lat="46.35971" lon="7.05251" /><trkpt lat="46.35964" lon="7.05244" /><trkpt lat="46.35901" lon="7.0518" /><trkpt lat="46.35896" lon="7.05175" /><trkpt lat="46.3589" lon="7.05171" /><trkpt lat="46.35885" lon="7.05167" /><trkpt lat="46.3588" lon="7.05164" /><trkpt lat="46.35875" lon="7.05162" /><trkpt lat="46.35871" lon="7.0516" /><trkpt lat="46.35866" lon="7.05159" /><trkpt lat="46.35861" lon="7.05158" /><trkpt lat="46.35854" lon="7.05158" /><trkpt lat="46.35809" lon="7.0516" /><trkpt lat="46.35803" lon="7.0516" /><trkpt lat="46.35798" lon="7.05161" /><trkpt lat="46.35793" lon="7.05162" /><trkpt lat="46.35788" lon="7.05164" /><trkpt lat="46.35783" lon="7.05167" /><trkpt lat="46.35779" lon="7.05169" /><trkpt lat="46.35774" lon="7.05173" /><trkpt lat="46.35769" lon="7.05178" /><trkpt lat="46.35762" lon="7.05185" /><trkpt lat="46.35709" lon="7.05244" /><trkpt lat="46.35703" lon="7.05251" /><trkpt lat="46.35698" lon="7.05257" /><trkpt lat="46.35693" lon="7.05264" /><trkpt lat="46.35688" lon="7.05273" /><trkpt lat="46.35684" lon="7.05282" /><trkpt lat="46.35681" lon="7.05294" /><trkpt lat="46.35678" lon="7.05306" /><trkpt lat="46.35676" lon="7.05318" /><trkpt lat="46.35671" lon="7.05405" /><trkpt lat="46.3567" lon="7.05419" /><trkpt lat="46.35669" lon="7.05428" /><trkpt lat="46.35666" lon="7.05438" /><trkpt lat="46.35664" lon="7.05447" /><trkpt lat="46.3566" lon="7.05456" /><trkpt lat="46.35655" lon="7.05464" /><trkpt lat="46.35651" lon="7.0547" /><trkpt lat="46.35646" lon="7.05476" /><trkpt lat="46.35641" lon="7.05481" /><trkpt lat="46.35636" lon="7.05484" /><trkpt lat="46.35631" lon="7.05487" /><trkpt lat="46.35602" lon="7.05504" /><trkpt lat="46.35597" lon="7.05506" /><trkpt lat="46.35591" lon="7.05509" /><trkpt lat="46.35584" lon="7.05511" /><trkpt lat="46.35578" lon="7.05512" /><trkpt lat="46.35565" lon="7.05514" /><trkpt lat="46.35491" lon="7.05525" /><trkpt lat="46.35488" lon="7.05526" /><trkpt lat="46.35476" lon="7.05528" /><trkpt lat="46.35472" lon="7.05528" /><trkpt lat="46.35468" lon="7.05528" /><trkpt lat="46.35464" lon="7.05528" /><trkpt lat="46.35459" lon="7.05526" /><trkpt lat="46.35456" lon="7.05525" /><trkpt lat="46.35451" lon="7.05523" /><trkpt lat="46.3541" lon="7.05495" /><trkpt lat="46.35405" lon="7.05491" /><trkpt lat="46.354" lon="7.05487" /><trkpt lat="46.35397" lon="7.05484" /><trkpt lat="46.35394" lon="7.0548" /><trkpt lat="46.35387" lon="7.05471" /><trkpt lat="46.35378" lon="7.05456" /><trkpt lat="46.35374" lon="7.0545" /><trkpt lat="46.35371" lon="7.05445" /><trkpt lat="46.35367" lon="7.05437" /><trkpt lat="46.35363" lon="7.05428" /><trkpt lat="46.35359" lon="7.05419" /><trkpt lat="46.35353" lon="7.05404" /><trkpt lat="46.35345" lon="7.05387" /><trkpt lat="46.35342" lon="7.05379" /><trkpt lat="46.35338" lon="7.05373" /><trkpt lat="46.35333" lon="7.05363" /><trkpt lat="46.35328" lon="7.05354" /><trkpt lat="46.3532" lon="7.05341" /><trkpt lat="46.35294" lon="7.053" /><trkpt lat="46.35275" lon="7.05269" /><trkpt lat="46.35261" lon="7.05248" /><trkpt lat="46.35257" lon="7.05241" /><trkpt lat="46.35254" lon="7.05236" /><trkpt lat="46.3525" lon="7.05227" /><trkpt lat="46.35246" lon="7.05219" /><trkpt lat="46.35234" lon="7.05187" /><trkpt lat="46.35232" lon="7.05182" /><trkpt lat="46.35229" lon="7.05175" /><trkpt lat="46.35226" lon="7.05168" /><trkpt lat="46.35223" lon="7.05162" /><trkpt lat="46.35219" lon="7.05156" /><trkpt lat="46.35214" lon="7.0515" /><trkpt lat="46.3521" lon="7.05145" /><trkpt lat="46.35203" lon="7.05137" /><trkpt lat="46.35192" lon="7.05126" /><trkpt lat="46.35174" lon="7.05108" /><trkpt lat="46.35155" lon="7.05089" /><trkpt lat="46.35144" lon="7.05078" /><trkpt lat="46.35136" lon="7.05071" /><trkpt lat="46.35129" lon="7.05063" /><trkpt lat="46.35124" lon="7.05056" /><trkpt lat="46.35119" lon="7.0505" /><trkpt lat="46.35113" lon="7.05042" /><trkpt lat="46.35108" lon="7.05035" /><trkpt lat="46.35097" lon="7.05019" /><trkpt lat="46.35054" lon="7.04957" /><trkpt lat="46.35033" lon="7.04926" /><trkpt lat="46.35016" lon="7.049" /><trkpt lat="46.35005" lon="7.04882" /><trkpt lat="46.34999" lon="7.0487" /><trkpt lat="46.34995" lon="7.0486" /><trkpt lat="46.34991" lon="7.04851" /><trkpt lat="46.34988" lon="7.04842" /><trkpt lat="46.34985" lon="7.04832" /><trkpt lat="46.34982" lon="7.0482" /><trkpt lat="46.34977" lon="7.048" /><trkpt lat="46.34974" lon="7.04789" /><trkpt lat="46.34971" lon="7.04779" /><trkpt lat="46.34969" lon="7.04771" /><trkpt lat="46.34966" lon="7.04763" /><trkpt lat="46.34963" lon="7.04758" /><trkpt lat="46.34961" lon="7.04753" /><trkpt lat="46.34957" lon="7.04747" /><trkpt lat="46.34952" lon="7.04741" /><trkpt lat="46.34945" lon="7.04734" /><trkpt lat="46.34932" lon="7.04721" /><trkpt lat="46.34886" lon="7.04684" /><trkpt lat="46.34878" lon="7.04678" /><trkpt lat="46.34869" lon="7.04673" /><trkpt lat="46.34862" lon="7.0467" /><trkpt lat="46.34855" lon="7.04667" /><trkpt lat="46.34838" lon="7.04662" /><trkpt lat="46.34828" lon="7.04659" /><trkpt lat="46.34821" lon="7.04657" /><trkpt lat="46.34817" lon="7.04656" /><trkpt lat="46.34813" lon="7.04656" /><trkpt lat="46.3481" lon="7.04656" /><trkpt lat="46.34805" lon="7.04656" /><trkpt lat="46.34801" lon="7.04657" /><trkpt lat="46.34797" lon="7.04658" /><trkpt lat="46.34793" lon="7.04659" /><trkpt lat="46.34788" lon="7.04661" /><trkpt lat="46.34757" lon="7.04677" /><trkpt lat="46.3475" lon="7.04681" /><trkpt lat="46.34743" lon="7.04683" /><trkpt lat="46.34737" lon="7.04684" /><trkpt lat="46.34732" lon="7.04685" /><trkpt lat="46.34727" lon="7.04684" /><trkpt lat="46.3472" lon="7.04683" /><trkpt lat="46.34699" lon="7.0468" /><trkpt lat="46.34691" lon="7.04679" /><trkpt lat="46.34684" lon="7.04679" /><trkpt lat="46.34679" lon="7.0468" /><trkpt lat="46.34673" lon="7.04681" /><trkpt lat="46.34666" lon="7.04684" /><trkpt lat="46.34656" lon="7.04689" /><trkpt lat="46.34642" lon="7.04695" /><trkpt lat="46.34635" lon="7.04697" /><trkpt lat="46.34628" lon="7.04699" /><trkpt lat="46.34622" lon="7.04699" /><trkpt lat="46.34617" lon="7.04699" /><trkpt lat="46.34611" lon="7.04698" /><trkpt lat="46.34607" lon="7.04697" /><trkpt lat="46.34604" lon="7.04695" /><trkpt lat="46.34553" lon="7.04664" /><trkpt lat="46.34548" lon="7.04661" /><trkpt lat="46.34541" lon="7.04658" /><trkpt lat="46.34532" lon="7.04655" /><trkpt lat="46.34522" lon="7.04653" /><trkpt lat="46.34514" lon="7.04652" /><trkpt lat="46.34498" lon="7.04652" /><trkpt lat="46.3449" lon="7.04652" /><trkpt lat="46.34484" lon="7.04651" /><trkpt lat="46.34479" lon="7.0465" /><trkpt lat="46.34474" lon="7.04648" /><trkpt lat="46.34468" lon="7.04646" /><trkpt lat="46.34463" lon="7.04644" /><trkpt lat="46.34458" lon="7.04641" /><trkpt lat="46.34453" lon="7.04637" /><trkpt lat="46.34446" lon="7.04632" /><trkpt lat="46.34434" lon="7.0462" /><trkpt lat="46.34419" lon="7.04606" /><trkpt lat="46.34412" lon="7.04599" /><trkpt lat="46.34406" lon="7.04594" /><trkpt lat="46.344" lon="7.04589" /><trkpt lat="46.34396" lon="7.04586" /><trkpt lat="46.34387" lon="7.0458" /><trkpt lat="46.3438" lon="7.04575" /><trkpt lat="46.34362" lon="7.04563" /><trkpt lat="46.34343" lon="7.04553" /><trkpt lat="46.34333" lon="7.04548" /><trkpt lat="46.34323" lon="7.04543" /><trkpt lat="46.34315" lon="7.04539" /><trkpt lat="46.34306" lon="7.04536" /><trkpt lat="46.343" lon="7.04533" /><trkpt lat="46.34293" lon="7.04531" /><trkpt lat="46.34285" lon="7.04528" /><trkpt lat="46.34276" lon="7.04526" /><trkpt lat="46.34267" lon="7.04524" /><trkpt lat="46.3426" lon="7.04522" /><trkpt lat="46.34253" lon="7.04521" /><trkpt lat="46.34246" lon="7.04521" /><trkpt lat="46.34238" lon="7.04521" /><trkpt lat="46.34231" lon="7.04522" /><trkpt lat="46.34223" lon="7.04524" /><trkpt lat="46.34214" lon="7.04527" /><trkpt lat="46.3418" lon="7.04541" /><trkpt lat="46.34172" lon="7.04544" /><trkpt lat="46.34167" lon="7.04546" /><trkpt lat="46.34163" lon="7.04546" /><trkpt lat="46.34157" lon="7.04547" /><trkpt lat="46.34153" lon="7.04546" /><trkpt lat="46.34148" lon="7.04545" /><trkpt lat="46.34141" lon="7.04543" /><trkpt lat="46.34124" lon="7.04536" /><trkpt lat="46.34109" lon="7.04528" /><trkpt lat="46.34102" lon="7.04525" /><trkpt lat="46.34096" lon="7.0452" /><trkpt lat="46.34089" lon="7.04515" /><trkpt lat="46.34085" lon="7.04511" /><trkpt lat="46.34081" lon="7.04506" /><trkpt lat="46.34078" lon="7.04501" /><trkpt lat="46.34073" lon="7.04495" /><trkpt lat="46.34069" lon="7.04486" /><trkpt lat="46.34066" lon="7.04479" /><trkpt lat="46.34063" lon="7.04471" /><trkpt lat="46.34061" lon="7.04464" /><trkpt lat="46.34055" lon="7.04442" /><trkpt lat="46.34051" lon="7.04428" /><trkpt lat="46.34046" lon="7.04414" /><trkpt lat="46.34042" lon="7.04405" /><trkpt lat="46.34039" lon="7.04397" /><trkpt lat="46.34036" lon="7.04389" /><trkpt lat="46.34032" lon="7.04382" /><trkpt lat="46.34028" lon="7.04374" /><trkpt lat="46.34023" lon="7.04366" /><trkpt lat="46.34017" lon="7.04359" /><trkpt lat="46.34011" lon="7.04351" /><trkpt lat="46.34006" lon="7.04345" /><trkpt lat="46.33998" lon="7.04335" /><trkpt lat="46.33987" lon="7.04326" /><trkpt lat="46.33978" lon="7.04319" /><trkpt lat="46.3397" lon="7.04312" /><trkpt lat="46.33964" lon="7.04308" /><trkpt lat="46.33959" lon="7.04304" /><trkpt lat="46.33953" lon="7.04302" /><trkpt lat="46.33947" lon="7.043" /><trkpt lat="46.33943" lon="7.04299" /><trkpt lat="46.33937" lon="7.04298" /><trkpt lat="46.33931" lon="7.04298" /><trkpt lat="46.33925" lon="7.04298" /><trkpt lat="46.3392" lon="7.04299" /><trkpt lat="46.33914" lon="7.04301" /><trkpt lat="46.33908" lon="7.04304" /><trkpt lat="46.33899" lon="7.04308" /><trkpt lat="46.33889" lon="7.04313" /><trkpt lat="46.33884" lon="7.04316" /><trkpt lat="46.33879" lon="7.04318" /><trkpt lat="46.33875" lon="7.04319" /><trkpt lat="46.33871" lon="7.0432" /><trkpt lat="46.33865" lon="7.04321" /><trkpt lat="46.33862" lon="7.0432" /><trkpt lat="46.33857" lon="7.0432" /><trkpt lat="46.33853" lon="7.04319" /><trkpt lat="46.33849" lon="7.04317" /><trkpt lat="46.33844" lon="7.04314" /><trkpt lat="46.3384" lon="7.04311" /><trkpt lat="46.33836" lon="7.04308" /><trkpt lat="46.33833" lon="7.04304" /><trkpt lat="46.33829" lon="7.04297" /><trkpt lat="46.33826" lon="7.04293" /><trkpt lat="46.33823" lon="7.04286" /><trkpt lat="46.3382" lon="7.0428" /><trkpt lat="46.33818" lon="7.04272" /><trkpt lat="46.33814" lon="7.04257" /><trkpt lat="46.33808" lon="7.04235" /><trkpt lat="46.33799" lon="7.04193" /><trkpt lat="46.33791" lon="7.04166" /><trkpt lat="46.33789" lon="7.04154" /><trkpt lat="46.33783" lon="7.04129" /><trkpt lat="46.33781" lon="7.04118" /><trkpt lat="46.33778" lon="7.04095" /><trkpt lat="46.33775" lon="7.04065" /><trkpt lat="46.33774" lon="7.04055" /><trkpt lat="46.33773" lon="7.04049" /><trkpt lat="46.33771" lon="7.04042" /><trkpt lat="46.3377" lon="7.04036" /><trkpt lat="46.33768" lon="7.04028" /><trkpt lat="46.33765" lon="7.0402" /><trkpt lat="46.33758" lon="7.03999" /><trkpt lat="46.33755" lon="7.03989" /><trkpt lat="46.33753" lon="7.03981" /><trkpt lat="46.33751" lon="7.03973" /><trkpt lat="46.3375" lon="7.03963" /><trkpt lat="46.33749" lon="7.03951" /><trkpt lat="46.33748" lon="7.03941" /><trkpt lat="46.33747" lon="7.03934" /><trkpt lat="46.33746" lon="7.03927" /><trkpt lat="46.33744" lon="7.03917" /><trkpt lat="46.33743" lon="7.03911" /><trkpt lat="46.33741" lon="7.03904" /><trkpt lat="46.33739" lon="7.03898" /><trkpt lat="46.33738" lon="7.03896" /><trkpt lat="46.33736" lon="7.03891" /><trkpt lat="46.33733" lon="7.03886" /><trkpt lat="46.33731" lon="7.03881" /><trkpt lat="46.33727" lon="7.03876" /><trkpt lat="46.33723" lon="7.0387" /><trkpt lat="46.33719" lon="7.03865" /><trkpt lat="46.33701" lon="7.03844" /><trkpt lat="46.33675" lon="7.03813" /><trkpt lat="46.3367" lon="7.03808" /><trkpt lat="46.33665" lon="7.03803" /><trkpt lat="46.33662" lon="7.038" /><trkpt lat="46.33658" lon="7.03797" /><trkpt lat="46.33653" lon="7.03793" /><trkpt lat="46.3365" lon="7.03792" /><trkpt lat="46.33645" lon="7.03789" /><trkpt lat="46.33641" lon="7.03788" /><trkpt lat="46.33637" lon="7.03787" /><trkpt lat="46.33633" lon="7.03787" /><trkpt lat="46.33628" lon="7.03787" /><trkpt lat="46.33622" lon="7.03787" /><trkpt lat="46.33617" lon="7.03788" /><trkpt lat="46.33612" lon="7.0379" /><trkpt lat="46.33607" lon="7.03792" /><trkpt lat="46.33603" lon="7.03794" /><trkpt lat="46.33597" lon="7.03798" /><trkpt lat="46.33589" lon="7.03804" /><trkpt lat="46.33575" lon="7.03814" /><trkpt lat="46.3357" lon="7.03818" /><trkpt lat="46.33564" lon="7.03821" /><trkpt lat="46.33561" lon="7.03822" /><trkpt lat="46.33553" lon="7.03825" /><trkpt lat="46.33547" lon="7.03826" /><trkpt lat="46.33539" lon="7.03828" /><trkpt lat="46.33483" lon="7.03833" /><trkpt lat="46.33469" lon="7.03834" /><trkpt lat="46.33453" lon="7.03834" /><trkpt lat="46.33433" lon="7.03834" /><trkpt lat="46.33428" lon="7.03834" /><trkpt lat="46.33422" lon="7.03834" /><trkpt lat="46.33414" lon="7.03835" /><trkpt lat="46.3341" lon="7.03836" /><trkpt lat="46.33403" lon="7.03839" /><trkpt lat="46.33396" lon="7.03842" /><trkpt lat="46.33387" lon="7.03847" /><trkpt lat="46.33342" lon="7.03878" /><trkpt lat="46.33326" lon="7.03889" /><trkpt lat="46.3332" lon="7.03894" /><trkpt lat="46.33315" lon="7.03899" /><trkpt lat="46.3331" lon="7.03904" /><trkpt lat="46.3329" lon="7.03933" /><trkpt lat="46.33285" lon="7.0394" /><trkpt lat="46.33281" lon="7.03945" /><trkpt lat="46.33276" lon="7.0395" /><trkpt lat="46.33271" lon="7.03954" /><trkpt lat="46.33265" lon="7.03956" /><trkpt lat="46.33262" lon="7.03958" /><trkpt lat="46.33257" lon="7.0396" /><trkpt lat="46.33252" lon="7.03961" /><trkpt lat="46.33245" lon="7.03962" /><trkpt lat="46.33239" lon="7.03961" /><trkpt lat="46.33234" lon="7.03961" /><trkpt lat="46.33229" lon="7.03959" /><trkpt lat="46.33222" lon="7.03956" /><trkpt lat="46.33217" lon="7.03952" /><trkpt lat="46.33211" lon="7.03947" /><trkpt lat="46.33206" lon="7.03943" /><trkpt lat="46.33202" lon="7.03937" /><trkpt lat="46.33198" lon="7.0393" /><trkpt lat="46.33194" lon="7.03922" /><trkpt lat="46.33191" lon="7.03917" /><trkpt lat="46.33189" lon="7.03912" /><trkpt lat="46.33187" lon="7.03906" /><trkpt lat="46.33186" lon="7.039" /><trkpt lat="46.33185" lon="7.03895" /><trkpt lat="46.33184" lon="7.03889" /><trkpt lat="46.33183" lon="7.03882" /><trkpt lat="46.33183" lon="7.03875" /><trkpt lat="46.33183" lon="7.03871" /><trkpt lat="46.33183" lon="7.03868" /><trkpt lat="46.33184" lon="7.03863" /><trkpt lat="46.33184" lon="7.03859" /><trkpt lat="46.33185" lon="7.03854" /><trkpt lat="46.33186" lon="7.03848" /><trkpt lat="46.33188" lon="7.03842" /><trkpt lat="46.33191" lon="7.03834" /><trkpt lat="46.33272" lon="7.03635" /><trkpt lat="46.33275" lon="7.03627" /><trkpt lat="46.33277" lon="7.03621" /><trkpt lat="46.3328" lon="7.03614" /><trkpt lat="46.33282" lon="7.03605" /><trkpt lat="46.33283" lon="7.03598" /><trkpt lat="46.33284" lon="7.03591" /><trkpt lat="46.33284" lon="7.03585" /><trkpt lat="46.33285" lon="7.03579" /><trkpt lat="46.33285" lon="7.03572" /><trkpt lat="46.33285" lon="7.0356" /><trkpt lat="46.33282" lon="7.03466" /><trkpt lat="46.33282" lon="7.03455" /><trkpt lat="46.33283" lon="7.03447" /><trkpt lat="46.33284" lon="7.0344" /><trkpt lat="46.33286" lon="7.0343" /><trkpt lat="46.33292" lon="7.03405" /><trkpt lat="46.33297" lon="7.03383" /><trkpt lat="46.33298" lon="7.03376" /><trkpt lat="46.333" lon="7.03369" /><trkpt lat="46.333" lon="7.03363" /><trkpt lat="46.33301" lon="7.03357" /><trkpt lat="46.33302" lon="7.03351" /><trkpt lat="46.33302" lon="7.03345" /><trkpt lat="46.33302" lon="7.0334" /><trkpt lat="46.33301" lon="7.03333" /><trkpt lat="46.33301" lon="7.03327" /><trkpt lat="46.333" lon="7.03321" /><trkpt lat="46.33298" lon="7.03314" /><trkpt lat="46.33296" lon="7.03307" /><trkpt lat="46.33292" lon="7.033" /><trkpt lat="46.33289" lon="7.03294" /><trkpt lat="46.33284" lon="7.03286" /><trkpt lat="46.33271" lon="7.03269" /><trkpt lat="46.33251" lon="7.03243" /><trkpt lat="46.33245" lon="7.03234" /><trkpt lat="46.33238" lon="7.03224" /><trkpt lat="46.33234" lon="7.03217" /><trkpt lat="46.33229" lon="7.03205" /><trkpt lat="46.33223" lon="7.03191" /><trkpt lat="46.33214" lon="7.0316" /><trkpt lat="46.33211" lon="7.03151" /><trkpt lat="46.33207" lon="7.03143" /><trkpt lat="46.33204" lon="7.03138" /><trkpt lat="46.332" lon="7.03132" /><trkpt lat="46.33174" lon="7.03097" /><trkpt lat="46.33169" lon="7.0309" /><trkpt lat="46.33146" lon="7.03058" /><trkpt lat="46.33141" lon="7.03052" /><trkpt lat="46.33137" lon="7.03046" /><trkpt lat="46.33131" lon="7.0304" /><trkpt lat="46.33126" lon="7.03034" /><trkpt lat="46.3312" lon="7.03025" /><trkpt lat="46.33109" lon="7.03009" /><trkpt lat="46.33102" lon="7.02998" /><trkpt lat="46.33096" lon="7.02989" /><trkpt lat="46.33091" lon="7.0298" /><trkpt lat="46.33038" lon="7.02856" /><trkpt lat="46.33027" lon="7.02827" /><trkpt lat="46.33017" lon="7.02801" /><trkpt lat="46.33008" lon="7.0277" /><trkpt lat="46.33003" lon="7.02751" /><trkpt lat="46.33" lon="7.0274" /><trkpt lat="46.32994" lon="7.02727" /><trkpt lat="46.3299" lon="7.0272" /><trkpt lat="46.32985" lon="7.0271" /><trkpt lat="46.32959" lon="7.02667" /><trkpt lat="46.32924" lon="7.02608" /><trkpt lat="46.3292" lon="7.02602" /><trkpt lat="46.32916" lon="7.02597" /><trkpt lat="46.32911" lon="7.02591" /><trkpt lat="46.32902" lon="7.02583" /><trkpt lat="46.32863" lon="7.02547" /><trkpt lat="46.32856" lon="7.0254" /><trkpt lat="46.32847" lon="7.02529" /><trkpt lat="46.32828" lon="7.02503" /><trkpt lat="46.32781" lon="7.0244" /><trkpt lat="46.32763" lon="7.02415" /><trkpt lat="46.32759" lon="7.0241" /><trkpt lat="46.32751" lon="7.024" /><trkpt lat="46.32744" lon="7.02392" /><trkpt lat="46.32739" lon="7.02387" /><trkpt lat="46.32733" lon="7.02382" /><trkpt lat="46.32727" lon="7.02378" /><trkpt lat="46.32719" lon="7.02375" /><trkpt lat="46.32712" lon="7.02373" /><trkpt lat="46.32703" lon="7.02371" /><trkpt lat="46.32691" lon="7.0237" /><trkpt lat="46.32679" lon="7.02368" /><trkpt lat="46.32674" lon="7.02367" /><trkpt lat="46.32668" lon="7.02365" /><trkpt lat="46.32662" lon="7.02362" /><trkpt lat="46.32657" lon="7.02358" /><trkpt lat="46.32651" lon="7.02353" /><trkpt lat="46.32646" lon="7.02347" /><trkpt lat="46.32642" lon="7.02341" /><trkpt lat="46.32639" lon="7.02335" /><trkpt lat="46.32623" lon="7.02308" /><trkpt lat="46.32623" lon="7.02307" /><trkpt lat="46.32615" lon="7.0229" /><trkpt lat="46.32612" lon="7.02285" /><trkpt lat="46.32587" lon="7.02234" /><trkpt lat="46.32583" lon="7.02227" /><trkpt lat="46.32579" lon="7.0222" /><trkpt lat="46.32556" lon="7.02187" /><trkpt lat="46.32552" lon="7.0218" /><trkpt lat="46.3254" lon="7.0216" /><trkpt lat="46.32534" lon="7.02149" /><trkpt lat="46.32526" lon="7.02131" /><trkpt lat="46.32519" lon="7.02111" /><trkpt lat="46.32515" lon="7.02102" /><trkpt lat="46.32505" lon="7.02082" /><trkpt lat="46.32493" lon="7.02057" /><trkpt lat="46.32464" lon="7.02004" /><trkpt lat="46.3245" lon="7.01978" /><trkpt lat="46.32446" lon="7.01969" /><trkpt lat="46.32443" lon="7.01962" /><trkpt lat="46.32441" lon="7.01953" /><trkpt lat="46.32439" lon="7.01945" /><trkpt lat="46.32438" lon="7.01936" /><trkpt lat="46.32437" lon="7.01924" /><trkpt lat="46.32436" lon="7.01886" /><trkpt lat="46.32436" lon="7.01878" /><trkpt lat="46.32435" lon="7.01869" /><trkpt lat="46.32433" lon="7.0186" /><trkpt lat="46.32432" lon="7.01853" /><trkpt lat="46.3243" lon="7.01845" /><trkpt lat="46.32426" lon="7.01836" /><trkpt lat="46.32424" lon="7.01829" /><trkpt lat="46.32421" lon="7.01824" /><trkpt lat="46.32417" lon="7.01818" /><trkpt lat="46.32413" lon="7.01813" /><trkpt lat="46.32391" lon="7.01787" /><trkpt lat="46.32388" lon="7.01782" /><trkpt lat="46.32384" lon="7.01776" /><trkpt lat="46.32381" lon="7.0177" /><trkpt lat="46.32378" lon="7.01762" /><trkpt lat="46.32376" lon="7.01753" /><trkpt lat="46.32374" lon="7.01745" /><trkpt lat="46.32372" lon="7.01737" /><trkpt lat="46.32371" lon="7.01726" /><trkpt lat="46.32368" lon="7.01701" /><trkpt lat="46.32366" lon="7.01691" /><trkpt lat="46.32365" lon="7.01683" /><trkpt lat="46.32363" lon="7.01677" /><trkpt lat="46.3236" lon="7.01666" /><trkpt lat="46.32356" lon="7.01658" /><trkpt lat="46.32352" lon="7.01649" /><trkpt lat="46.32346" lon="7.01639" /><trkpt lat="46.32331" lon="7.01619" /><trkpt lat="46.32325" lon="7.01609" /><trkpt lat="46.32321" lon="7.01602" /><trkpt lat="46.32318" lon="7.01595" /><trkpt lat="46.32316" lon="7.01589" /><trkpt lat="46.32314" lon="7.01581" /><trkpt lat="46.32312" lon="7.01571" /><trkpt lat="46.32308" lon="7.0155" /><trkpt lat="46.32306" lon="7.01535" /><trkpt lat="46.32304" lon="7.01528" /><trkpt lat="46.32302" lon="7.01519" /><trkpt lat="46.32299" lon="7.0151" /><trkpt lat="46.32296" lon="7.01502" /><trkpt lat="46.32292" lon="7.01495" /><trkpt lat="46.32288" lon="7.01488" /><trkpt lat="46.32276" lon="7.0147" /><trkpt lat="46.32271" lon="7.01462" /><trkpt lat="46.32265" lon="7.01456" /><trkpt lat="46.3226" lon="7.0145" /><trkpt lat="46.32246" lon="7.01437" /><trkpt lat="46.32238" lon="7.01429" /><trkpt lat="46.32229" lon="7.01422" /><trkpt lat="46.32219" lon="7.01414" /><trkpt lat="46.3219" lon="7.01397" /><trkpt lat="46.32185" lon="7.01394" /><trkpt lat="46.32181" lon="7.0139" /><trkpt lat="46.32177" lon="7.01386" /><trkpt lat="46.32173" lon="7.0138" /><trkpt lat="46.32137" lon="7.0132" /><trkpt lat="46.3213" lon="7.01308" /><trkpt lat="46.32124" lon="7.01298" /><trkpt lat="46.32121" lon="7.01291" /><trkpt lat="46.32119" lon="7.01285" /><trkpt lat="46.32116" lon="7.01276" /><trkpt lat="46.32115" lon="7.01267" /><trkpt lat="46.32114" lon="7.01258" /><trkpt lat="46.32114" lon="7.01252" /><trkpt lat="46.32114" lon="7.01244" /><trkpt lat="46.32115" lon="7.01237" /><trkpt lat="46.32119" lon="7.01211" /><trkpt lat="46.32119" lon="7.01199" /><trkpt lat="46.32119" lon="7.01187" /><trkpt lat="46.32119" lon="7.01178" /><trkpt lat="46.32117" lon="7.01167" /><trkpt lat="46.32114" lon="7.01158" /><trkpt lat="46.32109" lon="7.01146" /><trkpt lat="46.32091" lon="7.01106" /><trkpt lat="46.32064" lon="7.0104" /><trkpt lat="46.32055" lon="7.01017" /><trkpt lat="46.32048" lon="7.00996" /><trkpt lat="46.32044" lon="7.00984" /><trkpt lat="46.32039" lon="7.00974" /><trkpt lat="46.32032" lon="7.00961" /><trkpt lat="46.3202" lon="7.00942" /><trkpt lat="46.32005" lon="7.00917" /><trkpt lat="46.31997" lon="7.00907" /><trkpt lat="46.31989" lon="7.00899" /><trkpt lat="46.3198" lon="7.00888" /><trkpt lat="46.31972" lon="7.00877" /><trkpt lat="46.31963" lon="7.00863" /><trkpt lat="46.31952" lon="7.00842" /><trkpt lat="46.31934" lon="7.00812" /><trkpt lat="46.31928" lon="7.00802" /><trkpt lat="46.31922" lon="7.00794" /><trkpt lat="46.31847" lon="7.00695" /><trkpt lat="46.31843" lon="7.00687" /><trkpt lat="46.31838" lon="7.00677" /><trkpt lat="46.31829" lon="7.00649" /><trkpt lat="46.31818" lon="7.00622" /><trkpt lat="46.31806" lon="7.00591" /><trkpt lat="46.31795" lon="7.00563" /><trkpt lat="46.31784" lon="7.00536" /><trkpt lat="46.31781" lon="7.00527" /><trkpt lat="46.31777" lon="7.00518" /><trkpt lat="46.31773" lon="7.00509" /><trkpt lat="46.31712" lon="7.00389" /><trkpt lat="46.31682" lon="7.00334" /><trkpt lat="46.31676" lon="7.00324" /><trkpt lat="46.31668" lon="7.00313" /><trkpt lat="46.31662" lon="7.00307" /><trkpt lat="46.31657" lon="7.00303" /><trkpt lat="46.31649" lon="7.00297" /><trkpt lat="46.3164" lon="7.00292" /><trkpt lat="46.31581" lon="7.00259" /><trkpt lat="46.31575" lon="7.00257" /><trkpt lat="46.3157" lon="7.00254" /><trkpt lat="46.31565" lon="7.00253" /><trkpt lat="46.31559" lon="7.00252" /><trkpt lat="46.31553" lon="7.00252" /><trkpt lat="46.31546" lon="7.00253" /><trkpt lat="46.31529" lon="7.00254" /><trkpt lat="46.31522" lon="7.00255" /><trkpt lat="46.31518" lon="7.00254" /><trkpt lat="46.31515" lon="7.00254" /><trkpt lat="46.31511" lon="7.00252" /><trkpt lat="46.31507" lon="7.00251" /><trkpt lat="46.31503" lon="7.00249" /><trkpt lat="46.315" lon="7.00246" /><trkpt lat="46.31497" lon="7.00244" /><trkpt lat="46.31494" lon="7.00241" /><trkpt lat="46.3149" lon="7.00238" /><trkpt lat="46.31487" lon="7.00234" /><trkpt lat="46.31485" lon="7.00231" /><trkpt lat="46.31483" lon="7.00227" /><trkpt lat="46.31481" lon="7.00225" /><trkpt lat="46.31479" lon="7.00221" /><trkpt lat="46.31477" lon="7.00217" /><trkpt lat="46.31476" lon="7.00214" /><trkpt lat="46.31474" lon="7.00209" /><trkpt lat="46.31473" lon="7.00203" /><trkpt lat="46.31472" lon="7.00199" /><trkpt lat="46.31471" lon="7.00194" /><trkpt lat="46.3147" lon="7.00189" /><trkpt lat="46.31469" lon="7.00181" /><trkpt lat="46.31468" lon="7.00161" /><trkpt lat="46.31466" lon="7.00147" /><trkpt lat="46.31465" lon="7.00139" /><trkpt lat="46.31464" lon="7.00133" /><trkpt lat="46.31463" lon="7.00128" /><trkpt lat="46.31461" lon="7.00121" /><trkpt lat="46.31458" lon="7.00113" /><trkpt lat="46.31447" lon="7.00085" /><trkpt lat="46.31444" lon="7.00075" /><trkpt lat="46.31441" lon="7.00066" /><trkpt lat="46.31438" lon="7.00051" /><trkpt lat="46.31431" lon="7.00026" /><trkpt lat="46.31428" lon="7.00014" /><trkpt lat="46.31426" lon="7.00006" /><trkpt lat="46.31423" lon="7" /><trkpt lat="46.31421" lon="6.99995" /><trkpt lat="46.31403" lon="6.9996" /><trkpt lat="46.31399" lon="6.99952" /><trkpt lat="46.31396" lon="6.99946" /><trkpt lat="46.31393" lon="6.99937" /><trkpt lat="46.31391" lon="6.99931" /><trkpt lat="46.3139" lon="6.99925" /><trkpt lat="46.31388" lon="6.99915" /><trkpt lat="46.31383" lon="6.99888" /><trkpt lat="46.31381" lon="6.99876" /><trkpt lat="46.31378" lon="6.99867" /><trkpt lat="46.31374" lon="6.99856" /><trkpt lat="46.31371" lon="6.99846" /><trkpt lat="46.31368" lon="6.9984" /><trkpt lat="46.31366" lon="6.99831" /><trkpt lat="46.31362" lon="6.99818" /><trkpt lat="46.3133" lon="6.9968" /><trkpt lat="46.31327" lon="6.99671" /><trkpt lat="46.31326" lon="6.99663" /><trkpt lat="46.31325" lon="6.99655" /><trkpt lat="46.31324" lon="6.99648" /><trkpt lat="46.31324" lon="6.99641" /><trkpt lat="46.31324" lon="6.99627" /><trkpt lat="46.31324" lon="6.99506" /><trkpt lat="46.31325" lon="6.99488" /><trkpt lat="46.31326" lon="6.99473" /><trkpt lat="46.31327" lon="6.99457" /><trkpt lat="46.3133" lon="6.99422" /><trkpt lat="46.31332" lon="6.9939" /><trkpt lat="46.31333" lon="6.99381" /><trkpt lat="46.31333" lon="6.99374" /><trkpt lat="46.31335" lon="6.99368" /><trkpt lat="46.31336" lon="6.99362" /><trkpt lat="46.31338" lon="6.99356" /><trkpt lat="46.3134" lon="6.99349" /><trkpt lat="46.31342" lon="6.99343" /><trkpt lat="46.31345" lon="6.99337" /><trkpt lat="46.31349" lon="6.99329" /><trkpt lat="46.3138" lon="6.9927" /><trkpt lat="46.31388" lon="6.99256" /><trkpt lat="46.31391" lon="6.99249" /><trkpt lat="46.31394" lon="6.99243" /><trkpt lat="46.31396" lon="6.99238" /><trkpt lat="46.31398" lon="6.99233" /><trkpt lat="46.31399" lon="6.99227" /><trkpt lat="46.31401" lon="6.9922" /><trkpt lat="46.31402" lon="6.99215" /><trkpt lat="46.31402" lon="6.9921" /><trkpt lat="46.31403" lon="6.99204" /><trkpt lat="46.31403" lon="6.99196" /><trkpt lat="46.31403" lon="6.99188" /><trkpt lat="46.31403" lon="6.99174" /><trkpt lat="46.31403" lon="6.99168" /><trkpt lat="46.31402" lon="6.99162" /><trkpt lat="46.31402" lon="6.99156" /><trkpt lat="46.31401" lon="6.9915" /><trkpt lat="46.314" lon="6.99142" /><trkpt lat="46.31398" lon="6.99135" /><trkpt lat="46.31393" lon="6.9911" /><trkpt lat="46.31392" lon="6.99105" /><trkpt lat="46.31391" lon="6.99101" /><trkpt lat="46.3139" lon="6.99093" /><trkpt lat="46.31389" lon="6.99087" /><trkpt lat="46.31389" lon="6.99082" /><trkpt lat="46.31389" lon="6.99077" /><trkpt lat="46.31389" lon="6.99072" /><trkpt lat="46.3139" lon="6.99063" /><trkpt lat="46.3139" lon="6.99055" /><trkpt lat="46.31392" lon="6.9903" /><trkpt lat="46.31392" lon="6.99024" /><trkpt lat="46.31392" lon="6.99017" /><trkpt lat="46.31392" lon="6.9901" /><trkpt lat="46.31392" lon="6.99005" /><trkpt lat="46.31391" lon="6.99" /><trkpt lat="46.3139" lon="6.98996" /><trkpt lat="46.31389" lon="6.98989" /><trkpt lat="46.31388" lon="6.98983" /><trkpt lat="46.31386" lon="6.98977" /><trkpt lat="46.31384" lon="6.98971" /><trkpt lat="46.31381" lon="6.98965" /><trkpt lat="46.31377" lon="6.98958" /><trkpt lat="46.31372" lon="6.9895" /><trkpt lat="46.31352" lon="6.98923" /><trkpt lat="46.31349" lon="6.98918" /><trkpt lat="46.31345" lon="6.98912" /><trkpt lat="46.31343" lon="6.98907" /><trkpt lat="46.3134" lon="6.98901" /><trkpt lat="46.31338" lon="6.98896" /><trkpt lat="46.31336" lon="6.98892" /><trkpt lat="46.31335" lon="6.98888" /><trkpt lat="46.31334" lon="6.98882" /><trkpt lat="46.31332" lon="6.98876" /><trkpt lat="46.31331" lon="6.9887" /><trkpt lat="46.31331" lon="6.98864" /><trkpt lat="46.3133" lon="6.98857" /><trkpt lat="46.3133" lon="6.98853" /><trkpt lat="46.3133" lon="6.98847" /><trkpt lat="46.31331" lon="6.98842" /><trkpt lat="46.31331" lon="6.98835" /><trkpt lat="46.31332" lon="6.98829" /><trkpt lat="46.31334" lon="6.9882" /><trkpt lat="46.31339" lon="6.98805" /><trkpt lat="46.31343" lon="6.9879" /><trkpt lat="46.31346" lon="6.98779" /><trkpt lat="46.31347" lon="6.98773" /><trkpt lat="46.31348" lon="6.98767" /><trkpt lat="46.31349" lon="6.98762" /><trkpt lat="46.31349" lon="6.98755" /><trkpt lat="46.31349" lon="6.98747" /><trkpt lat="46.31349" lon="6.98741" /><trkpt lat="46.31348" lon="6.98734" /><trkpt lat="46.31346" lon="6.98728" /><trkpt lat="46.31345" lon="6.98722" /><trkpt lat="46.31343" lon="6.98716" /><trkpt lat="46.31341" lon="6.9871" /><trkpt lat="46.31338" lon="6.98705" /><trkpt lat="46.31334" lon="6.98699" /><trkpt lat="46.31331" lon="6.98695" /><trkpt lat="46.31328" lon="6.98691" /><trkpt lat="46.31325" lon="6.98687" /><trkpt lat="46.31321" lon="6.98684" /><trkpt lat="46.31317" lon="6.98682" /><trkpt lat="46.31313" lon="6.98679" /><trkpt lat="46.31309" lon="6.98677" /><trkpt lat="46.31305" lon="6.98676" /><trkpt lat="46.313" lon="6.98675" /><trkpt lat="46.31296" lon="6.98675" /><trkpt lat="46.31292" lon="6.98675" /><trkpt lat="46.31287" lon="6.98676" /><trkpt lat="46.31284" lon="6.98677" /><trkpt lat="46.3128" lon="6.98678" /><trkpt lat="46.31276" lon="6.9868" /><trkpt lat="46.31273" lon="6.98682" /><trkpt lat="46.31268" lon="6.98686" /><trkpt lat="46.31262" lon="6.98691" /><trkpt lat="46.31248" lon="6.98704" /><trkpt lat="46.31241" lon="6.9871" /><trkpt lat="46.31236" lon="6.98715" /><trkpt lat="46.31231" lon="6.98718" /><trkpt lat="46.31226" lon="6.9872" /><trkpt lat="46.31222" lon="6.98722" /><trkpt lat="46.31217" lon="6.98724" /><trkpt lat="46.31213" lon="6.98725" /><trkpt lat="46.31207" lon="6.98725" /><trkpt lat="46.312" lon="6.98725" /><trkpt lat="46.31131" lon="6.98724" /><trkpt lat="46.31125" lon="6.98723" /><trkpt lat="46.3112" lon="6.98723" /><trkpt lat="46.31116" lon="6.98722" /><trkpt lat="46.31111" lon="6.98721" /><trkpt lat="46.31105" lon="6.98719" /><trkpt lat="46.31096" lon="6.98715" /><trkpt lat="46.3108" lon="6.98707" /><trkpt lat="46.31069" lon="6.98703" /><trkpt lat="46.31058" lon="6.98698" /><trkpt lat="46.31046" lon="6.98694" /><trkpt lat="46.31032" lon="6.98689" /><trkpt lat="46.31015" lon="6.98684" /><trkpt lat="46.30994" lon="6.98678" /><trkpt lat="46.30989" lon="6.98677" /><trkpt lat="46.30985" lon="6.98675" /><trkpt lat="46.30979" lon="6.98672" /><trkpt lat="46.30974" lon="6.98669" /><trkpt lat="46.3097" lon="6.98665" /><trkpt lat="46.30967" lon="6.98662" /><trkpt lat="46.30963" lon="6.98657" /><trkpt lat="46.30958" lon="6.9865" /><trkpt lat="46.30953" lon="6.98641" /><trkpt lat="46.3093" lon="6.98603" /><trkpt lat="46.30924" lon="6.98593" /><trkpt lat="46.30915" lon="6.98581" /><trkpt lat="46.30876" lon="6.98532" /><trkpt lat="46.30871" lon="6.98525" /><trkpt lat="46.30867" lon="6.98518" /><trkpt lat="46.30865" lon="6.98512" /><trkpt lat="46.30862" lon="6.98505" /><trkpt lat="46.3086" lon="6.985" /><trkpt lat="46.30858" lon="6.98493" /><trkpt lat="46.30857" lon="6.98487" /><trkpt lat="46.3085" lon="6.98449" /><trkpt lat="46.30847" lon="6.98437" /><trkpt lat="46.30845" lon="6.98431" /><trkpt lat="46.30844" lon="6.98425" /><trkpt lat="46.30841" lon="6.98419" /><trkpt lat="46.30838" lon="6.98412" /><trkpt lat="46.30836" lon="6.98406" /><trkpt lat="46.30811" lon="6.98352" /><trkpt lat="46.30802" lon="6.98333" /><trkpt lat="46.30799" lon="6.98325" /><trkpt lat="46.30794" lon="6.98317" /><trkpt lat="46.30789" lon="6.9831" /><trkpt lat="46.30785" lon="6.98306" /><trkpt lat="46.30782" lon="6.98302" /><trkpt lat="46.30777" lon="6.98297" /><trkpt lat="46.30774" lon="6.98295" /><trkpt lat="46.3077" lon="6.98292" /><trkpt lat="46.30765" lon="6.98289" /><trkpt lat="46.3076" lon="6.98287" /><trkpt lat="46.30743" lon="6.9828" /><trkpt lat="46.30742" lon="6.98279" /><trkpt lat="46.30735" lon="6.98276" /><trkpt lat="46.30729" lon="6.98273" /><trkpt lat="46.30725" lon="6.9827" /><trkpt lat="46.30721" lon="6.98267" /><trkpt lat="46.30717" lon="6.98263" /><trkpt lat="46.30714" lon="6.9826" /><trkpt lat="46.30711" lon="6.98256" /><trkpt lat="46.30708" lon="6.98252" /><trkpt lat="46.30705" lon="6.98246" /><trkpt lat="46.30703" lon="6.98242" /><trkpt lat="46.30702" lon="6.98237" /><trkpt lat="46.307" lon="6.98232" /><trkpt lat="46.30698" lon="6.98226" /><trkpt lat="46.30697" lon="6.98221" /><trkpt lat="46.30696" lon="6.98215" /><trkpt lat="46.30696" lon="6.9821" /><trkpt lat="46.30696" lon="6.98204" /><trkpt lat="46.30696" lon="6.98197" /><trkpt lat="46.30696" lon="6.98189" /><trkpt lat="46.30697" lon="6.98183" /><trkpt lat="46.30699" lon="6.98177" /><trkpt lat="46.307" lon="6.98171" /><trkpt lat="46.30702" lon="6.98164" /><trkpt lat="46.30704" lon="6.98161" /><trkpt lat="46.30707" lon="6.98154" /><trkpt lat="46.30709" lon="6.98149" /><trkpt lat="46.30713" lon="6.98145" /><trkpt lat="46.30716" lon="6.98141" /><trkpt lat="46.30719" lon="6.98138" /><trkpt lat="46.30723" lon="6.98134" /><trkpt lat="46.30727" lon="6.98131" /><trkpt lat="46.30732" lon="6.98128" /><trkpt lat="46.30736" lon="6.98126" /><trkpt lat="46.3074" lon="6.98125" /><trkpt lat="46.30745" lon="6.98124" /><trkpt lat="46.30749" lon="6.98124" /><trkpt lat="46.30753" lon="6.98124" /><trkpt lat="46.30757" lon="6.98124" /><trkpt lat="46.3076" lon="6.98125" /><trkpt lat="46.30763" lon="6.98126" /><trkpt lat="46.30766" lon="6.98128" /><trkpt lat="46.30769" lon="6.98129" /><trkpt lat="46.30772" lon="6.98131" /><trkpt lat="46.30775" lon="6.98133" /><trkpt lat="46.30778" lon="6.98135" /><trkpt lat="46.30781" lon="6.98138" /><trkpt lat="46.30784" lon="6.98142" /><trkpt lat="46.30786" lon="6.98144" /><trkpt lat="46.30788" lon="6.98147" /><trkpt lat="46.30792" lon="6.98154" /><trkpt lat="46.30795" lon="6.9816" /><trkpt lat="46.30797" lon="6.98165" /><trkpt lat="46.30799" lon="6.98171" /><trkpt lat="46.30801" lon="6.98177" /><trkpt lat="46.30802" lon="6.98183" /><trkpt lat="46.30805" lon="6.98192" /><trkpt lat="46.30807" lon="6.98201" /><trkpt lat="46.30809" lon="6.98209" /><trkpt lat="46.30811" lon="6.98217" /><trkpt lat="46.30813" lon="6.98224" /><trkpt lat="46.30815" lon="6.98229" /><trkpt lat="46.30817" lon="6.98234" /><trkpt lat="46.3082" lon="6.98239" /><trkpt lat="46.30823" lon="6.98245" /><trkpt lat="46.30827" lon="6.98251" /><trkpt lat="46.30831" lon="6.98255" /><trkpt lat="46.30835" lon="6.98259" /><trkpt lat="46.30839" lon="6.98263" /><trkpt lat="46.30844" lon="6.98266" /><trkpt lat="46.30848" lon="6.98268" /><trkpt lat="46.30853" lon="6.9827" /><trkpt lat="46.30857" lon="6.98272" /><trkpt lat="46.30861" lon="6.98273" /><trkpt lat="46.30865" lon="6.98273" /><trkpt lat="46.3087" lon="6.98273" /><trkpt lat="46.30875" lon="6.98273" /><trkpt lat="46.30879" lon="6.98273" /><trkpt lat="46.30891" lon="6.98272" /><trkpt lat="46.30899" lon="6.98272" /><trkpt lat="46.30904" lon="6.98273" /><trkpt lat="46.30909" lon="6.98273" /><trkpt lat="46.30913" lon="6.98275" /><trkpt lat="46.30919" lon="6.98277" /><trkpt lat="46.30924" lon="6.98281" /><trkpt lat="46.30928" lon="6.98284" /><trkpt lat="46.30933" lon="6.98288" /><trkpt lat="46.30936" lon="6.98292" /><trkpt lat="46.3094" lon="6.98296" /><trkpt lat="46.30944" lon="6.98303" /><trkpt lat="46.30949" lon="6.98311" /><trkpt lat="46.30951" lon="6.98317" /><trkpt lat="46.30953" lon="6.98322" /><trkpt lat="46.30956" lon="6.9833" /><trkpt lat="46.30958" lon="6.98338" /><trkpt lat="46.30959" lon="6.98345" /><trkpt lat="46.3096" lon="6.98353" /><trkpt lat="46.3096" lon="6.98361" /><trkpt lat="46.3096" lon="6.98368" /><trkpt lat="46.3096" lon="6.98376" /><trkpt lat="46.30959" lon="6.98389" /><trkpt lat="46.30957" lon="6.98407" /><trkpt lat="46.30957" lon="6.98415" /><trkpt lat="46.30956" lon="6.98424" /><trkpt lat="46.30956" lon="6.98435" /><trkpt lat="46.30956" lon="6.98441" /><trkpt lat="46.30957" lon="6.98447" /><trkpt lat="46.30957" lon="6.98452" /><trkpt lat="46.30959" lon="6.9846" /><trkpt lat="46.30961" lon="6.98466" /><trkpt lat="46.30962" lon="6.98472" /><trkpt lat="46.30964" lon="6.98478" /><trkpt lat="46.30966" lon="6.98484" /><trkpt lat="46.30971" lon="6.98494" /><trkpt lat="46.30974" lon="6.98499" /><trkpt lat="46.30978" lon="6.98507" /><trkpt lat="46.30981" lon="6.98512" /><trkpt lat="46.30984" lon="6.98516" /><trkpt lat="46.30987" lon="6.9852" /><trkpt lat="46.30991" lon="6.98524" /><trkpt lat="46.30994" lon="6.98527" /><trkpt lat="46.30998" lon="6.9853" /><trkpt lat="46.31002" lon="6.98532" /><trkpt lat="46.31006" lon="6.98534" /><trkpt lat="46.31009" lon="6.98535" /><trkpt lat="46.31013" lon="6.98537" /><trkpt lat="46.31018" lon="6.98538" /><trkpt lat="46.31022" lon="6.98538" /><trkpt lat="46.31031" lon="6.98538" /><trkpt lat="46.31047" lon="6.98538" /><trkpt lat="46.31054" lon="6.98538" /><trkpt lat="46.31061" lon="6.98538" /><trkpt lat="46.31067" lon="6.98539" /><trkpt lat="46.31076" lon="6.98541" /><trkpt lat="46.31087" lon="6.98544" /><trkpt lat="46.31156" lon="6.98561" /><trkpt lat="46.3117" lon="6.98564" /><trkpt lat="46.31176" lon="6.98565" /><trkpt lat="46.31181" lon="6.98566" /><trkpt lat="46.31186" lon="6.98565" /><trkpt lat="46.31191" lon="6.98565" /><trkpt lat="46.31197" lon="6.98564" /><trkpt lat="46.31205" lon="6.98561" /><trkpt lat="46.3124" lon="6.98551" /><trkpt lat="46.31248" lon="6.98549" /><trkpt lat="46.31258" lon="6.98548" /><trkpt lat="46.31269" lon="6.98547" /><trkpt lat="46.31298" lon="6.98544" /><trkpt lat="46.31305" lon="6.98544" /><trkpt lat="46.3131" lon="6.98544" /><trkpt lat="46.31315" lon="6.98545" /><trkpt lat="46.31319" lon="6.98546" /><trkpt lat="46.31324" lon="6.98548" /><trkpt lat="46.31328" lon="6.9855" /><trkpt lat="46.31351" lon="6.98564" /><trkpt lat="46.31373" lon="6.98577" /><trkpt lat="46.3139" lon="6.98585" /><trkpt lat="46.31397" lon="6.98589" /><trkpt lat="46.31403" lon="6.98592" /><trkpt lat="46.31408" lon="6.98596" /><trkpt lat="46.31413" lon="6.986" /><trkpt lat="46.31417" lon="6.98605" /><trkpt lat="46.31423" lon="6.98612" /><trkpt lat="46.31449" lon="6.98644" /><trkpt lat="46.31455" lon="6.9865" /><trkpt lat="46.3146" lon="6.98654" /><trkpt lat="46.31463" lon="6.98657" /><trkpt lat="46.31469" lon="6.98661" /><trkpt lat="46.31477" lon="6.98664" /><trkpt lat="46.31484" lon="6.98666" /><trkpt lat="46.31491" lon="6.98666" /><trkpt lat="46.31499" lon="6.98665" /><trkpt lat="46.31506" lon="6.98662" /><trkpt lat="46.31512" lon="6.98659" /><trkpt lat="46.31518" lon="6.98653" /><trkpt lat="46.31522" lon="6.98648" /><trkpt lat="46.31524" lon="6.98645" /><trkpt lat="46.31526" lon="6.98641" /><trkpt lat="46.31529" lon="6.98636" /><trkpt lat="46.31532" lon="6.9863" /><trkpt lat="46.31534" lon="6.98624" /><trkpt lat="46.31537" lon="6.98614" /><trkpt lat="46.31548" lon="6.9858" /><trkpt lat="46.31562" lon="6.98535" /><trkpt lat="46.31564" lon="6.98526" /><trkpt lat="46.31565" lon="6.98521" /><trkpt lat="46.31567" lon="6.98514" /><trkpt lat="46.31568" lon="6.98506" /><trkpt lat="46.31568" lon="6.98501" /><trkpt lat="46.31569" lon="6.98497" /><trkpt lat="46.31569" lon="6.9849" /><trkpt lat="46.31568" lon="6.98484" /><trkpt lat="46.31568" lon="6.98478" /><trkpt lat="46.31566" lon="6.98471" /><trkpt lat="46.31565" lon="6.98466" /><trkpt lat="46.31564" lon="6.98461" /><trkpt lat="46.31562" lon="6.98455" /><trkpt lat="46.3156" lon="6.98451" /><trkpt lat="46.31557" lon="6.98445" /><trkpt lat="46.31554" lon="6.9844" /><trkpt lat="46.3155" lon="6.98435" /><trkpt lat="46.31547" lon="6.98432" /><trkpt lat="46.31543" lon="6.98428" /><trkpt lat="46.3154" lon="6.98425" /><trkpt lat="46.31536" lon="6.98422" /><trkpt lat="46.31532" lon="6.9842" /><trkpt lat="46.31528" lon="6.98418" /><trkpt lat="46.31522" lon="6.98417" /><trkpt lat="46.31519" lon="6.98416" /><trkpt lat="46.31514" lon="6.98416" /><trkpt lat="46.31509" lon="6.98417" /><trkpt lat="46.31505" lon="6.98418" /><trkpt lat="46.31501" lon="6.98419" /><trkpt lat="46.31497" lon="6.98421" /><trkpt lat="46.31493" lon="6.98423" /><trkpt lat="46.31489" lon="6.98426" /><trkpt lat="46.31485" lon="6.98429" /><trkpt lat="46.31482" lon="6.98432" /><trkpt lat="46.31479" lon="6.98435" /><trkpt lat="46.31476" lon="6.9844" /><trkpt lat="46.31472" lon="6.98446" /><trkpt lat="46.31467" lon="6.98455" /><trkpt lat="46.31462" lon="6.98464" /><trkpt lat="46.31458" lon="6.98469" /><trkpt lat="46.31454" lon="6.98475" /><trkpt lat="46.31451" lon="6.9848" /><trkpt lat="46.31447" lon="6.98484" /><trkpt lat="46.31443" lon="6.98487" /><trkpt lat="46.3144" lon="6.9849" /><trkpt lat="46.31436" lon="6.98492" /><trkpt lat="46.31432" lon="6.98494" /><trkpt lat="46.31428" lon="6.98496" /><trkpt lat="46.31424" lon="6.98497" /><trkpt lat="46.3142" lon="6.98497" /><trkpt lat="46.31416" lon="6.98497" /><trkpt lat="46.31413" lon="6.98497" /><trkpt lat="46.31409" lon="6.98496" /><trkpt lat="46.31405" lon="6.98495" /><trkpt lat="46.314" lon="6.98493" /><trkpt lat="46.31395" lon="6.9849" /><trkpt lat="46.31391" lon="6.98487" /><trkpt lat="46.31388" lon="6.98484" /><trkpt lat="46.31384" lon="6.9848" /><trkpt lat="46.3138" lon="6.98476" /><trkpt lat="46.31377" lon="6.98472" /><trkpt lat="46.31374" lon="6.98467" /><trkpt lat="46.31372" lon="6.98462" /><trkpt lat="46.3137" lon="6.98456" /><trkpt lat="46.31368" lon="6.9845" /><trkpt lat="46.31366" lon="6.98445" /><trkpt lat="46.31365" lon="6.9844" /><trkpt lat="46.31364" lon="6.98434" /><trkpt lat="46.31364" lon="6.98429" /><trkpt lat="46.31363" lon="6.98423" /><trkpt lat="46.31363" lon="6.98418" /><trkpt lat="46.31363" lon="6.98412" /><trkpt lat="46.31364" lon="6.98405" /><trkpt lat="46.31365" lon="6.984" /><trkpt lat="46.31366" lon="6.98394" /><trkpt lat="46.31368" lon="6.98387" /><trkpt lat="46.31371" lon="6.98379" /><trkpt lat="46.31374" lon="6.98374" /><trkpt lat="46.31376" lon="6.98369" /><trkpt lat="46.3138" lon="6.98364" /><trkpt lat="46.31384" lon="6.98358" /><trkpt lat="46.31388" lon="6.98353" /><trkpt lat="46.31393" lon="6.98349" /><trkpt lat="46.31404" lon="6.98341" /><trkpt lat="46.31415" lon="6.98333" /><trkpt lat="46.31421" lon="6.98328" /><trkpt lat="46.31425" lon="6.98324" /><trkpt lat="46.31429" lon="6.9832" /><trkpt lat="46.31433" lon="6.98315" /><trkpt lat="46.31436" lon="6.9831" /><trkpt lat="46.31439" lon="6.98305" /><trkpt lat="46.31441" lon="6.98299" /><trkpt lat="46.31442" lon="6.98297" /><trkpt lat="46.31444" lon="6.98291" /><trkpt lat="46.31446" lon="6.98286" /><trkpt lat="46.31447" lon="6.98279" /><trkpt lat="46.31448" lon="6.98271" /><trkpt lat="46.31448" lon="6.98265" /><trkpt lat="46.31448" lon="6.98256" /><trkpt lat="46.31448" lon="6.98247" /><trkpt lat="46.31446" lon="6.98237" /><trkpt lat="46.31443" lon="6.98208" /><trkpt lat="46.31441" lon="6.98196" /><trkpt lat="46.31441" lon="6.98188" /><trkpt lat="46.3144" lon="6.98179" /><trkpt lat="46.31441" lon="6.9817" /><trkpt lat="46.31442" lon="6.98162" /><trkpt lat="46.31443" lon="6.98154" /><trkpt lat="46.31445" lon="6.98146" /><trkpt lat="46.31448" lon="6.98138" /><trkpt lat="46.31451" lon="6.98131" /><trkpt lat="46.31454" lon="6.98124" /><trkpt lat="46.31457" lon="6.98118" /><trkpt lat="46.31462" lon="6.98112" /><trkpt lat="46.31466" lon="6.98105" /><trkpt lat="46.3147" lon="6.981" /><trkpt lat="46.31475" lon="6.98093" /><trkpt lat="46.3148" lon="6.98088" /><trkpt lat="46.31485" lon="6.98082" /><trkpt lat="46.3149" lon="6.98079" /><trkpt lat="46.31494" lon="6.98075" /><trkpt lat="46.31499" lon="6.98072" /><trkpt lat="46.31504" lon="6.9807" /><trkpt lat="46.31509" lon="6.98067" /><trkpt lat="46.31515" lon="6.98065" /><trkpt lat="46.3152" lon="6.98064" /><trkpt lat="46.31525" lon="6.98063" /><trkpt lat="46.3153" lon="6.98063" /><trkpt lat="46.31536" lon="6.98063" /><trkpt lat="46.31542" lon="6.98063" /><trkpt lat="46.31564" lon="6.98063" /><trkpt lat="46.31575" lon="6.98064" /><trkpt lat="46.31584" lon="6.98064" /><trkpt lat="46.3159" lon="6.98064" /><trkpt lat="46.31596" lon="6.98063" /><trkpt lat="46.31602" lon="6.98062" /><trkpt lat="46.31608" lon="6.9806" /><trkpt lat="46.31614" lon="6.98057" /><trkpt lat="46.31619" lon="6.98054" /><trkpt lat="46.31624" lon="6.98051" /><trkpt lat="46.31628" lon="6.98047" /><trkpt lat="46.31633" lon="6.98043" /><trkpt lat="46.31638" lon="6.98038" /><trkpt lat="46.31643" lon="6.98032" /><trkpt lat="46.31647" lon="6.98025" /><trkpt lat="46.31652" lon="6.98018" /><trkpt lat="46.31656" lon="6.98009" /><trkpt lat="46.31659" lon="6.98" /><trkpt lat="46.31662" lon="6.97992" /><trkpt lat="46.31665" lon="6.97984" /><trkpt lat="46.31668" lon="6.97971" /><trkpt lat="46.31673" lon="6.9795" /><trkpt lat="46.31679" lon="6.97929" /><trkpt lat="46.31683" lon="6.9791" /><trkpt lat="46.31685" lon="6.97904" /><trkpt lat="46.31686" lon="6.97896" /><trkpt lat="46.31688" lon="6.97888" /><trkpt lat="46.31689" lon="6.97878" /><trkpt lat="46.3169" lon="6.97868" /><trkpt lat="46.3169" lon="6.97859" /><trkpt lat="46.31692" lon="6.97748" /><trkpt lat="46.31692" lon="6.9774" /><trkpt lat="46.31692" lon="6.97734" /><trkpt lat="46.31691" lon="6.97728" /><trkpt lat="46.3169" lon="6.97721" /><trkpt lat="46.31689" lon="6.97714" /><trkpt lat="46.31687" lon="6.97707" /><trkpt lat="46.31685" lon="6.97701" /><trkpt lat="46.31681" lon="6.97694" /><trkpt lat="46.31677" lon="6.97685" /><trkpt lat="46.31673" lon="6.97678" /><trkpt lat="46.31669" lon="6.97668" /><trkpt lat="46.31666" lon="6.97659" /><trkpt lat="46.31664" lon="6.97652" /><trkpt lat="46.3166" lon="6.97635" /><trkpt lat="46.31658" lon="6.97626" /><trkpt lat="46.31657" lon="6.97619" /><trkpt lat="46.31657" lon="6.97614" /><trkpt lat="46.31656" lon="6.97606" /><trkpt lat="46.31656" lon="6.97599" /><trkpt lat="46.31656" lon="6.97594" /><trkpt lat="46.31656" lon="6.97589" /><trkpt lat="46.31657" lon="6.97583" /><trkpt lat="46.31658" lon="6.97577" /><trkpt lat="46.31659" lon="6.97571" /><trkpt lat="46.31661" lon="6.97565" /><trkpt lat="46.31672" lon="6.97531" /><trkpt lat="46.31676" lon="6.97521" /><trkpt lat="46.31679" lon="6.97511" /><trkpt lat="46.31681" lon="6.97502" /><trkpt lat="46.31683" lon="6.97493" /><trkpt lat="46.31685" lon="6.97485" /><trkpt lat="46.31686" lon="6.97476" /><trkpt lat="46.31686" lon="6.97468" /><trkpt lat="46.31687" lon="6.9746" /><trkpt lat="46.31686" lon="6.97452" /><trkpt lat="46.31685" lon="6.97445" /><trkpt lat="46.31685" lon="6.97438" /><trkpt lat="46.31681" lon="6.9742" /><trkpt lat="46.31663" lon="6.97332" /><trkpt lat="46.3166" lon="6.97316" /><trkpt lat="46.31657" lon="6.97295" /><trkpt lat="46.31655" lon="6.9728" /><trkpt lat="46.31649" lon="6.97233" /><trkpt lat="46.31645" lon="6.97207" /><trkpt lat="46.31642" lon="6.97186" /><trkpt lat="46.31642" lon="6.97181" /><trkpt lat="46.31641" lon="6.97175" /><trkpt lat="46.31641" lon="6.9717" /><trkpt lat="46.31641" lon="6.97164" /><trkpt lat="46.31642" lon="6.97159" /><trkpt lat="46.31642" lon="6.97154" /><trkpt lat="46.31643" lon="6.9715" /><trkpt lat="46.31644" lon="6.97144" /><trkpt lat="46.31646" lon="6.97137" /><trkpt lat="46.31652" lon="6.9712" /><trkpt lat="46.31656" lon="6.97107" /><trkpt lat="46.3166" lon="6.97097" /><trkpt lat="46.31663" lon="6.97086" /><trkpt lat="46.31664" lon="6.97079" /><trkpt lat="46.31666" lon="6.97072" /><trkpt lat="46.31666" lon="6.97063" /><trkpt lat="46.31667" lon="6.97057" /><trkpt lat="46.31667" lon="6.97043" /><trkpt lat="46.31668" lon="6.97013" /><trkpt lat="46.31669" lon="6.96999" /><trkpt lat="46.31669" lon="6.96986" /><trkpt lat="46.3167" lon="6.96973" /><trkpt lat="46.3167" lon="6.96954" /><trkpt lat="46.31671" lon="6.96939" /><trkpt lat="46.31671" lon="6.96931" /><trkpt lat="46.3167" lon="6.96923" /><trkpt lat="46.3167" lon="6.96919" /><trkpt lat="46.31669" lon="6.96903" /><trkpt lat="46.31668" lon="6.96895" /><trkpt lat="46.31667" lon="6.96887" /><trkpt lat="46.31658" lon="6.96812" /><trkpt lat="46.31656" lon="6.96804" /><trkpt lat="46.31655" lon="6.96797" /><trkpt lat="46.31654" lon="6.96794" /><trkpt lat="46.31653" lon="6.96791" /><trkpt lat="46.3165" lon="6.96785" /><trkpt lat="46.31649" lon="6.96784" /><trkpt lat="46.31647" lon="6.9678" /><trkpt lat="46.31644" lon="6.96776" /><trkpt lat="46.31641" lon="6.96772" /><trkpt lat="46.31636" lon="6.96767" /><trkpt lat="46.31631" lon="6.96762" /><trkpt lat="46.31595" lon="6.96728" /><trkpt lat="46.3159" lon="6.96724" /><trkpt lat="46.31587" lon="6.9672" /><trkpt lat="46.31584" lon="6.96717" /><trkpt lat="46.31581" lon="6.96713" /><trkpt lat="46.31578" lon="6.96709" /><trkpt lat="46.31573" lon="6.967" /><trkpt lat="46.31559" lon="6.96675" /><trkpt lat="46.31554" lon="6.96666" /><trkpt lat="46.31551" lon="6.96661" /><trkpt lat="46.31546" lon="6.96652" /><trkpt lat="46.31544" lon="6.96648" /><trkpt lat="46.31541" lon="6.96641" /><trkpt lat="46.31538" lon="6.96635" /><trkpt lat="46.31536" lon="6.96629" /><trkpt lat="46.31535" lon="6.96624" /><trkpt lat="46.31534" lon="6.96619" /><trkpt lat="46.31532" lon="6.96612" /><trkpt lat="46.31532" lon="6.96605" /><trkpt lat="46.31531" lon="6.96598" /><trkpt lat="46.31531" lon="6.96588" /><trkpt lat="46.31531" lon="6.96584" /><trkpt lat="46.31531" lon="6.96533" /><trkpt lat="46.31531" lon="6.96525" /><trkpt lat="46.31532" lon="6.96519" /><trkpt lat="46.31533" lon="6.96514" /><trkpt lat="46.31534" lon="6.9651" /><trkpt lat="46.31536" lon="6.96498" /><trkpt lat="46.31538" lon="6.96493" /><trkpt lat="46.31539" lon="6.96489" /><trkpt lat="46.3154" lon="6.96486" /><trkpt lat="46.31542" lon="6.96482" /><trkpt lat="46.31543" lon="6.9648" /><trkpt lat="46.31546" lon="6.96474" /><trkpt lat="46.31548" lon="6.9647" /><trkpt lat="46.3155" lon="6.96468" /><trkpt lat="46.31552" lon="6.96465" /><trkpt lat="46.31554" lon="6.96463" /><trkpt lat="46.3156" lon="6.96457" /><trkpt lat="46.31573" lon="6.96443" /><trkpt lat="46.31577" lon="6.96441" /><trkpt lat="46.31582" lon="6.96437" /><trkpt lat="46.31563" lon="6.96447" /><trkpt lat="46.31557" lon="6.9645" /><trkpt lat="46.31551" lon="6.96453" /><trkpt lat="46.31547" lon="6.96454" /><trkpt lat="46.31522" lon="6.96461" /><trkpt lat="46.31517" lon="6.96463" /><trkpt lat="46.31511" lon="6.96466" /><trkpt lat="46.31485" lon="6.96479" /><trkpt lat="46.31476" lon="6.96483" /><trkpt lat="46.31458" lon="6.9649" /><trkpt lat="46.31449" lon="6.96492" /><trkpt lat="46.31436" lon="6.96498" /><trkpt lat="46.31404" lon="6.96513" /><trkpt lat="46.31424" lon="6.96499" /><trkpt lat="46.31432" lon="6.96493" /><trkpt lat="46.31442" lon="6.96488" /><trkpt lat="46.31456" lon="6.96482" /><trkpt lat="46.31482" lon="6.96468" /><trkpt lat="46.31508" lon="6.96455" /><trkpt lat="46.31519" lon="6.96448" /><trkpt lat="46.31526" lon="6.96444" /><trkpt lat="46.31539" lon="6.96434" /><trkpt lat="46.31546" lon="6.9643" /><trkpt lat="46.31553" lon="6.96426" /><trkpt lat="46.3156" lon="6.96421" /><trkpt lat="46.3164" lon="6.9638" /><trkpt lat="46.31661" lon="6.96369" /><trkpt lat="46.3168" lon="6.9636" /><trkpt lat="46.3168" lon="6.9636" /></trkseg></trk></gpx>