<gpx version="1.1" creator="Trainlog.me"><trk><name>Trip Path</name><trkseg><trkpt lat="46.34465" lon="7.00852" /><trkpt lat="46.34457" lon="7.00848" /><trkpt lat="46.34439" lon="7.00836" /><trkpt lat="46.34435" lon="7.00834" /><trkpt lat="46.34431" lon="7.00831" /><trkpt lat="46.34428" lon="7.00829" /><trkpt lat="46.34424" lon="7.00825" /><trkpt lat="46.34418" lon="7.00818" /><trkpt lat="46.34389" lon="7.00786" /><trkpt lat="46.34383" lon="7.00779" /><trkpt lat="46.34377" lon="7.00773" /><trkpt lat="46.34371" lon="7.00768" /><trkpt lat="46.34366" lon="7.00765" /><trkpt lat="46.34362" lon="7.00762" /><trkpt lat="46.34356" lon="7.00759" /><trkpt lat="46.3435" lon="7.00757" /><trkpt lat="46.3433" lon="7.00752" /><trkpt lat="46.34275" lon="7.00739" /><trkpt lat="46.34267" lon="7.00737" /><trkpt lat="46.34261" lon="7.00735" /><trkpt lat="46.34254" lon="7.00733" /><trkpt lat="46.34248" lon="7.00731" /><trkpt lat="46.34243" lon="7.00729" /><trkpt lat="46.34236" lon="7.00725" /><trkpt lat="46.34203" lon="7.00709" /><trkpt lat="46.34195" lon="7.00705" /><trkpt lat="46.34189" lon="7.00703" /><trkpt lat="46.34184" lon="7.007" /><trkpt lat="46.3418" lon="7.00699" /><trkpt lat="46.34175" lon="7.00698" /><trkpt lat="46.34165" lon="7.00696" /><trkpt lat="46.34156" lon="7.00695" /><trkpt lat="46.34154" lon="7.00695" /><trkpt lat="46.34151" lon="7.00695" /><trkpt lat="46.34148" lon="7.00695" /><trkpt lat="46.34144" lon="7.00695" /><trkpt lat="46.34141" lon="7.00696" /><trkpt lat="46.34138" lon="7.00696" /><trkpt lat="46.34135" lon="7.00697" /><trkpt lat="46.34132" lon="7.00698" /><trkpt lat="46.3413" lon="7.00699" /><trkpt lat="46.34128" lon="7.007" /><trkpt lat="46.34126" lon="7.00701" /><trkpt lat="46.34123" lon="7.00703" /><trkpt lat="46.34119" lon="7.00706" /><trkpt lat="46.34103" lon="7.00718" /><trkpt lat="46.34099" lon="7.0072" /><trkpt lat="46.34095" lon="7.00723" /><trkpt lat="46.3409" lon="7.00725" /><trkpt lat="46.34086" lon="7.00727" /><trkpt lat="46.34081" lon="7.00728" /><trkpt lat="46.34077" lon="7.00729" /><trkpt lat="46.34073" lon="7.0073" /><trkpt lat="46.34069" lon="7.0073" /><trkpt lat="46.34065" lon="7.00731" /><trkpt lat="46.34061" lon="7.00731" /><trkpt lat="46.34058" lon="7.0073" /><trkpt lat="46.34055" lon="7.0073" /><trkpt lat="46.34051" lon="7.00729" /><trkpt lat="46.34049" lon="7.00729" /><trkpt lat="46.34045" lon="7.00727" /><trkpt lat="46.34041" lon="7.00726" /><trkpt lat="46.34038" lon="7.00725" /><trkpt lat="46.34035" lon="7.00723" /><trkpt lat="46.34032" lon="7.00722" /><trkpt lat="46.34029" lon="7.0072" /><trkpt lat="46.34027" lon="7.00718" /><trkpt lat="46.34024" lon="7.00716" /><trkpt lat="46.34021" lon="7.00714" /><trkpt lat="46.34018" lon="7.00711" /><trkpt lat="46.34015" lon="7.00709" /><trkpt lat="46.34013" lon="7.00706" /><trkpt lat="46.3401" lon="7.00703" /><trkpt lat="46.34006" lon="7.00698" /><trkpt lat="46.33999" lon="7.00689" /><trkpt lat="46.3397" lon="7.0065" /><trkpt lat="46.33964" lon="7.00642" /><trkpt lat="46.33959" lon="7.00635" /><trkpt lat="46.33952" lon="7.00624" /><trkpt lat="46.33948" lon="7.00619" /><trkpt lat="46.33945" lon="7.00614" /><trkpt lat="46.33942" lon="7.00611" /><trkpt lat="46.33938" lon="7.00607" /><trkpt lat="46.33935" lon="7.00604" /><trkpt lat="46.33932" lon="7.00601" /><trkpt lat="46.33929" lon="7.00599" /><trkpt lat="46.33926" lon="7.00598" /><trkpt lat="46.33923" lon="7.00596" /><trkpt lat="46.33915" lon="7.00592" /><trkpt lat="46.33905" lon="7.00587" /><trkpt lat="46.33897" lon="7.00584" /><trkpt lat="46.33892" lon="7.00581" /><trkpt lat="46.33887" lon="7.00578" /><trkpt lat="46.33883" lon="7.00576" /><trkpt lat="46.33878" lon="7.00573" /><trkpt lat="46.33868" lon="7.00569" /><trkpt lat="46.33849" lon="7.00561" /><trkpt lat="46.33817" lon="7.00548" /><trkpt lat="46.33812" lon="7.00546" /><trkpt lat="46.33805" lon="7.00542" /><trkpt lat="46.338" lon="7.0054" /><trkpt lat="46.33795" lon="7.00536" /><trkpt lat="46.33789" lon="7.00531" /><trkpt lat="46.33786" lon="7.00527" /><trkpt lat="46.3378" lon="7.00521" /><trkpt lat="46.33775" lon="7.00515" /><trkpt lat="46.33771" lon="7.00508" /><trkpt lat="46.33766" lon="7.005" /><trkpt lat="46.33763" lon="7.00494" /><trkpt lat="46.3376" lon="7.00487" /><trkpt lat="46.33756" lon="7.00478" /><trkpt lat="46.33741" lon="7.00435" /><trkpt lat="46.33724" lon="7.00384" /><trkpt lat="46.33722" lon="7.00378" /><trkpt lat="46.3372" lon="7.00371" /><trkpt lat="46.33718" lon="7.00364" /><trkpt lat="46.33717" lon="7.00358" /><trkpt lat="46.33716" lon="7.00349" /><trkpt lat="46.33716" lon="7.00343" /><trkpt lat="46.33715" lon="7.00336" /><trkpt lat="46.33715" lon="7.0033" /><trkpt lat="46.33716" lon="7.00323" /><trkpt lat="46.33716" lon="7.00316" /><trkpt lat="46.33716" lon="7.0031" /><trkpt lat="46.33717" lon="7.00301" /><trkpt lat="46.33723" lon="7.00258" /><trkpt lat="46.33724" lon="7.0025" /><trkpt lat="46.33724" lon="7.00244" /><trkpt lat="46.33724" lon="7.00235" /><trkpt lat="46.33724" lon="7.00229" /><trkpt lat="46.33723" lon="7.00223" /><trkpt lat="46.33722" lon="7.00215" /><trkpt lat="46.33721" lon="7.00208" /><trkpt lat="46.3372" lon="7.00202" /><trkpt lat="46.33718" lon="7.00197" /><trkpt lat="46.33717" lon="7.00193" /><trkpt lat="46.33715" lon="7.00187" /><trkpt lat="46.33713" lon="7.00182" /><trkpt lat="46.3371" lon="7.00177" /><trkpt lat="46.33707" lon="7.0017" /><trkpt lat="46.33704" lon="7.00166" /><trkpt lat="46.33701" lon="7.00162" /><trkpt lat="46.33698" lon="7.00158" /><trkpt lat="46.33695" lon="7.00155" /><trkpt lat="46.33692" lon="7.00152" /><trkpt lat="46.3369" lon="7.00149" /><trkpt lat="46.33687" lon="7.00147" /><trkpt lat="46.33684" lon="7.00145" /><trkpt lat="46.3368" lon="7.00142" /><trkpt lat="46.33676" lon="7.0014" /><trkpt lat="46.3367" lon="7.00138" /><trkpt lat="46.33665" lon="7.00136" /><trkpt lat="46.33653" lon="7.00132" /><trkpt lat="46.33635" lon="7.00126" /><trkpt lat="46.33629" lon="7.00123" /><trkpt lat="46.33624" lon="7.00121" /><trkpt lat="46.3362" lon="7.00119" /><trkpt lat="46.33617" lon="7.00118" /><trkpt lat="46.33613" lon="7.00115" /><trkpt lat="46.33611" lon="7.00113" /><trkpt lat="46.33608" lon="7.00111" /><trkpt lat="46.33604" lon="7.00107" /><trkpt lat="46.33589" lon="7.0009" /><trkpt lat="46.33583" lon="7.00084" /><trkpt lat="46.33581" lon="7.00081" /><trkpt lat="46.33577" lon="7.00078" /><trkpt lat="46.33575" lon="7.00076" /><trkpt lat="46.33572" lon="7.00074" /><trkpt lat="46.3357" lon="7.00072" /><trkpt lat="46.33567" lon="7.00071" /><trkpt lat="46.33565" lon="7.00069" /><trkpt lat="46.33562" lon="7.00068" /><trkpt lat="46.3356" lon="7.00067" /><trkpt lat="46.33557" lon="7.00066" /><trkpt lat="46.33554" lon="7.00065" /><trkpt lat="46.33552" lon="7.00065" /><trkpt lat="46.33549" lon="7.00064" /><trkpt lat="46.33546" lon="7.00064" /><trkpt lat="46.33543" lon="7.00064" /><trkpt lat="46.3354" lon="7.00064" /><trkpt lat="46.33537" lon="7.00064" /><trkpt lat="46.33534" lon="7.00064" /><trkpt lat="46.3353" lon="7.00065" /><trkpt lat="46.33528" lon="7.00066" /><trkpt lat="46.33524" lon="7.00067" /><trkpt lat="46.33521" lon="7.00068" /><trkpt lat="46.33517" lon="7.0007" /><trkpt lat="46.33514" lon="7.00072" /><trkpt lat="46.33509" lon="7.00075" /><trkpt lat="46.33506" lon="7.00077" /><trkpt lat="46.33502" lon="7.0008" /><trkpt lat="46.33499" lon="7.00083" /><trkpt lat="46.33495" lon="7.00088" /><trkpt lat="46.33491" lon="7.00092" /><trkpt lat="46.33485" lon="7.00098" /><trkpt lat="46.33482" lon="7.00102" /><trkpt lat="46.33478" lon="7.00105" /><trkpt lat="46.33476" lon="7.00108" /><trkpt lat="46.33473" lon="7.0011" /><trkpt lat="46.33468" lon="7.00113" /><trkpt lat="46.33464" lon="7.00116" /><trkpt lat="46.3346" lon="7.00118" /><trkpt lat="46.33456" lon="7.0012" /><trkpt lat="46.33452" lon="7.00121" /><trkpt lat="46.33449" lon="7.00122" /><trkpt lat="46.33445" lon="7.00122" /><trkpt lat="46.3344" lon="7.00123" /><trkpt lat="46.33421" lon="7.00124" /><trkpt lat="46.33401" lon="7.00125" /><trkpt lat="46.33394" lon="7.00125" /><trkpt lat="46.33389" lon="7.00126" /><trkpt lat="46.33386" lon="7.00127" /><trkpt lat="46.33382" lon="7.00128" /><trkpt lat="46.33378" lon="7.00129" /><trkpt lat="46.33371" lon="7.00131" /><trkpt lat="46.33351" lon="7.00139" /><trkpt lat="46.33347" lon="7.00141" /><trkpt lat="46.33344" lon="7.00141" /><trkpt lat="46.33341" lon="7.00142" /><trkpt lat="46.33339" lon="7.00143" /><trkpt lat="46.33335" lon="7.00143" /><trkpt lat="46.33333" lon="7.00144" /><trkpt lat="46.3333" lon="7.00144" /><trkpt lat="46.33327" lon="7.00144" /><trkpt lat="46.33322" lon="7.00143" /><trkpt lat="46.33319" lon="7.00143" /><trkpt lat="46.33316" lon="7.00142" /><trkpt lat="46.33313" lon="7.00141" /><trkpt lat="46.33308" lon="7.00139" /><trkpt lat="46.33295" lon="7.00132" /><trkpt lat="46.33285" lon="7.00127" /><trkpt lat="46.3328" lon="7.00125" /><trkpt lat="46.33277" lon="7.00124" /><trkpt lat="46.33273" lon="7.00123" /><trkpt lat="46.3327" lon="7.00122" /><trkpt lat="46.33267" lon="7.00122" /><trkpt lat="46.33264" lon="7.00121" /><trkpt lat="46.3326" lon="7.00121" /><trkpt lat="46.33256" lon="7.00122" /><trkpt lat="46.33252" lon="7.00122" /><trkpt lat="46.33248" lon="7.00123" /><trkpt lat="46.33243" lon="7.00124" /><trkpt lat="46.33229" lon="7.00129" /><trkpt lat="46.33225" lon="7.00131" /><trkpt lat="46.3322" lon="7.00132" /><trkpt lat="46.33214" lon="7.00133" /><trkpt lat="46.33199" lon="7.00135" /><trkpt lat="46.33193" lon="7.00136" /><trkpt lat="46.33188" lon="7.00136" /><trkpt lat="46.33181" lon="7.00138" /><trkpt lat="46.33174" lon="7.00139" /><trkpt lat="46.33147" lon="7.00145" /><trkpt lat="46.33138" lon="7.00147" /><trkpt lat="46.33131" lon="7.00149" /><trkpt lat="46.33126" lon="7.0015" /><trkpt lat="46.33121" lon="7.0015" /><trkpt lat="46.33118" lon="7.00151" /><trkpt lat="46.33114" lon="7.00151" /><trkpt lat="46.33111" lon="7.0015" /><trkpt lat="46.33106" lon="7.0015" /><trkpt lat="46.33102" lon="7.00149" /><trkpt lat="46.33098" lon="7.00147" /><trkpt lat="46.33094" lon="7.00146" /><trkpt lat="46.3309" lon="7.00144" /><trkpt lat="46.33086" lon="7.00142" /><trkpt lat="46.33083" lon="7.00139" /><trkpt lat="46.33079" lon="7.00137" /><trkpt lat="46.33076" lon="7.00134" /><trkpt lat="46.33073" lon="7.00131" /><trkpt lat="46.3307" lon="7.00128" /><trkpt lat="46.33067" lon="7.00124" /><trkpt lat="46.33064" lon="7.00119" /><trkpt lat="46.33061" lon="7.00115" /><trkpt lat="46.33059" lon="7.00111" /><trkpt lat="46.33056" lon="7.00106" /><trkpt lat="46.33054" lon="7.00101" /><trkpt lat="46.33052" lon="7.00095" /><trkpt lat="46.3305" lon="7.0009" /><trkpt lat="46.33048" lon="7.00083" /><trkpt lat="46.33039" lon="7.00047" /><trkpt lat="46.33037" lon="7.00041" /><trkpt lat="46.33035" lon="7.00036" /><trkpt lat="46.33034" lon="7.00032" /><trkpt lat="46.33032" lon="7.00027" /><trkpt lat="46.3303" lon="7.00022" /><trkpt lat="46.33028" lon="7.00019" /><trkpt lat="46.33026" lon="7.00015" /><trkpt lat="46.33024" lon="7.00011" /><trkpt lat="46.33022" lon="7.00008" /><trkpt lat="46.3302" lon="7.00005" /><trkpt lat="46.33017" lon="7.00002" /><trkpt lat="46.33015" lon="6.99999" /><trkpt lat="46.33012" lon="6.99995" /><trkpt lat="46.33008" lon="6.99992" /><trkpt lat="46.33004" lon="6.99989" /><trkpt lat="46.32999" lon="6.99985" /><trkpt lat="46.32994" lon="6.99982" /><trkpt lat="46.32988" lon="6.9998" /><trkpt lat="46.32981" lon="6.99979" /><trkpt lat="46.32976" lon="6.99978" /><trkpt lat="46.32969" lon="6.99979" /><trkpt lat="46.32964" lon="6.99979" /><trkpt lat="46.32956" lon="6.99981" /><trkpt lat="46.3295" lon="6.99984" /><trkpt lat="46.32944" lon="6.99988" /><trkpt lat="46.32939" lon="6.99992" /><trkpt lat="46.32932" lon="6.99999" /><trkpt lat="46.329" lon="7.00035" /><trkpt lat="46.32884" lon="7.00056" /><trkpt lat="46.32869" lon="7.00076" /><trkpt lat="46.32864" lon="7.00081" /><trkpt lat="46.3286" lon="7.00085" /><trkpt lat="46.32857" lon="7.00088" /><trkpt lat="46.32854" lon="7.00091" /><trkpt lat="46.3285" lon="7.00094" /><trkpt lat="46.32846" lon="7.00097" /><trkpt lat="46.32842" lon="7.001" /><trkpt lat="46.32838" lon="7.00102" /><trkpt lat="46.32834" lon="7.00104" /><trkpt lat="46.32829" lon="7.00105" /><trkpt lat="46.32824" lon="7.00106" /><trkpt lat="46.32818" lon="7.00108" /><trkpt lat="46.32815" lon="7.00108" /><trkpt lat="46.32811" lon="7.00109" /><trkpt lat="46.32808" lon="7.00109" /><trkpt lat="46.32804" lon="7.00109" /><trkpt lat="46.32802" lon="7.00108" /><trkpt lat="46.32799" lon="7.00108" /><trkpt lat="46.32795" lon="7.00107" /><trkpt lat="46.32791" lon="7.00107" /><trkpt lat="46.32785" lon="7.00105" /><trkpt lat="46.3278" lon="7.00103" /><trkpt lat="46.32775" lon="7.00101" /><trkpt lat="46.32771" lon="7.00099" /><trkpt lat="46.32766" lon="7.00096" /><trkpt lat="46.32759" lon="7.00092" /><trkpt lat="46.32754" lon="7.0009" /><trkpt lat="46.32749" lon="7.00087" /><trkpt lat="46.32738" lon="7.00084" /><trkpt lat="46.32719" lon="7.00077" /><trkpt lat="46.32714" lon="7.00075" /><trkpt lat="46.32709" lon="7.00074" /><trkpt lat="46.32703" lon="7.00073" /><trkpt lat="46.32689" lon="7.00071" /><trkpt lat="46.3268" lon="7.00068" /><trkpt lat="46.32635" lon="7.00052" /><trkpt lat="46.32629" lon="7.0005" /><trkpt lat="46.32626" lon="7.00048" /><trkpt lat="46.32622" lon="7.00046" /><trkpt lat="46.32618" lon="7.00044" /><trkpt lat="46.32616" lon="7.00042" /><trkpt lat="46.32613" lon="7.00039" /><trkpt lat="46.32609" lon="7.00036" /><trkpt lat="46.32606" lon="7.00033" /><trkpt lat="46.32603" lon="7.0003" /><trkpt lat="46.32601" lon="7.00027" /><trkpt lat="46.32597" lon="7.00021" /><trkpt lat="46.32593" lon="7.00016" /><trkpt lat="46.32586" lon="7.00004" /><trkpt lat="46.32581" lon="6.99995" /><trkpt lat="46.32577" lon="6.99989" /><trkpt lat="46.32573" lon="6.99983" /><trkpt lat="46.3257" lon="6.99979" /><trkpt lat="46.32566" lon="6.99974" /><trkpt lat="46.3256" lon="6.99967" /><trkpt lat="46.32546" lon="6.99951" /><trkpt lat="46.32538" lon="6.99941" /><trkpt lat="46.32536" lon="6.99938" /><trkpt lat="46.32533" lon="6.99934" /><trkpt lat="46.32531" lon="6.9993" /><trkpt lat="46.3253" lon="6.99926" /><trkpt lat="46.32527" lon="6.99922" /><trkpt lat="46.32526" lon="6.99918" /><trkpt lat="46.32524" lon="6.99914" /><trkpt lat="46.32523" lon="6.99909" /><trkpt lat="46.3252" lon="6.99898" /><trkpt lat="46.32514" lon="6.9988" /><trkpt lat="46.32512" lon="6.99874" /><trkpt lat="46.3251" lon="6.99868" /><trkpt lat="46.32507" lon="6.99862" /><trkpt lat="46.32504" lon="6.99855" /><trkpt lat="46.325" lon="6.99849" /><trkpt lat="46.32489" lon="6.99828" /><trkpt lat="46.32485" lon="6.99822" /><trkpt lat="46.32482" lon="6.99816" /><trkpt lat="46.32479" lon="6.99812" /><trkpt lat="46.32475" lon="6.99803" /><trkpt lat="46.32455" lon="6.99754" /><trkpt lat="46.32452" lon="6.99747" /><trkpt lat="46.32451" lon="6.99742" /><trkpt lat="46.32449" lon="6.99737" /><trkpt lat="46.32448" lon="6.99733" /><trkpt lat="46.32447" lon="6.99728" /><trkpt lat="46.32446" lon="6.99721" /><trkpt lat="46.3244" lon="6.99682" /><trkpt lat="46.32436" lon="6.99662" /><trkpt lat="46.32435" lon="6.99655" /><trkpt lat="46.32434" lon="6.99648" /><trkpt lat="46.32432" lon="6.9964" /><trkpt lat="46.3243" lon="6.99631" /><trkpt lat="46.32428" lon="6.99626" /><trkpt lat="46.32424" lon="6.99616" /><trkpt lat="46.32416" lon="6.99598" /><trkpt lat="46.32406" lon="6.99572" /><trkpt lat="46.324" lon="6.99559" /><trkpt lat="46.32367" lon="6.99477" /><trkpt lat="46.32364" lon="6.99469" /><trkpt lat="46.32362" lon="6.99465" /><trkpt lat="46.32359" lon="6.9946" /><trkpt lat="46.32357" lon="6.99455" /><trkpt lat="46.32353" lon="6.99449" /><trkpt lat="46.32325" lon="6.99408" /><trkpt lat="46.32322" lon="6.99403" /><trkpt lat="46.32319" lon="6.99398" /><trkpt lat="46.32316" lon="6.99393" /><trkpt lat="46.32312" lon="6.99388" /><trkpt lat="46.32308" lon="6.9938" /><trkpt lat="46.32304" lon="6.99373" /><trkpt lat="46.323" lon="6.99363" /><trkpt lat="46.32275" lon="6.99306" /><trkpt lat="46.32271" lon="6.99299" /><trkpt lat="46.32267" lon="6.99289" /><trkpt lat="46.32264" lon="6.99284" /><trkpt lat="46.32261" lon="6.99278" /><trkpt lat="46.32258" lon="6.99273" /><trkpt lat="46.32254" lon="6.99268" /><trkpt lat="46.3225" lon="6.99263" /><trkpt lat="46.32152" lon="6.99139" /><trkpt lat="46.32148" lon="6.99133" /><trkpt lat="46.32145" lon="6.99129" /><trkpt lat="46.32142" lon="6.99124" /><trkpt lat="46.3214" lon="6.99121" /><trkpt lat="46.32138" lon="6.99117" /><trkpt lat="46.32135" lon="6.99112" /><trkpt lat="46.32133" lon="6.99108" /><trkpt lat="46.32131" lon="6.99102" /><trkpt lat="46.32129" lon="6.99098" /><trkpt lat="46.32128" lon="6.99093" /><trkpt lat="46.32124" lon="6.99081" /><trkpt lat="46.32077" lon="6.98918" /><trkpt lat="46.32056" lon="6.98847" /><trkpt lat="46.32011" lon="6.98707" /><trkpt lat="46.32008" lon="6.98699" /><trkpt lat="46.32006" lon="6.98693" /><trkpt lat="46.32005" lon="6.9869" /><trkpt lat="46.32003" lon="6.98686" /><trkpt lat="46.32002" lon="6.98683" /><trkpt lat="46.32" lon="6.98679" /><trkpt lat="46.31991" lon="6.98661" /><trkpt lat="46.31988" lon="6.98655" /><trkpt lat="46.31985" lon="6.9865" /><trkpt lat="46.31976" lon="6.98632" /><trkpt lat="46.31972" lon="6.98624" /><trkpt lat="46.31964" lon="6.98608" /><trkpt lat="46.31962" lon="6.98604" /><trkpt lat="46.3196" lon="6.98601" /><trkpt lat="46.31959" lon="6.98598" /><trkpt lat="46.31957" lon="6.98594" /><trkpt lat="46.31956" lon="6.98591" /><trkpt lat="46.31954" lon="6.98587" /><trkpt lat="46.31953" lon="6.98582" /><trkpt lat="46.31952" lon="6.98578" /><trkpt lat="46.31951" lon="6.98576" /><trkpt lat="46.3195" lon="6.98573" /><trkpt lat="46.3195" lon="6.9857" /><trkpt lat="46.31949" lon="6.98568" /><trkpt lat="46.31948" lon="6.98564" /><trkpt lat="46.31947" lon="6.98559" /><trkpt lat="46.31947" lon="6.98557" /><trkpt lat="46.31946" lon="6.98553" /><trkpt lat="46.31946" lon="6.98549" /><trkpt lat="46.31946" lon="6.98546" /><trkpt lat="46.31946" lon="6.98543" /><trkpt lat="46.31946" lon="6.98539" /><trkpt lat="46.31946" lon="6.98533" /><trkpt lat="46.31946" lon="6.9853" /><trkpt lat="46.31946" lon="6.98527" /><trkpt lat="46.31946" lon="6.98524" /><trkpt lat="46.31946" lon="6.98521" /><trkpt lat="46.31946" lon="6.98517" /><trkpt lat="46.31945" lon="6.98512" /><trkpt lat="46.31945" lon="6.98509" /><trkpt lat="46.31944" lon="6.98506" /><trkpt lat="46.31944" lon="6.98502" /><trkpt lat="46.31943" lon="6.985" /><trkpt lat="46.31942" lon="6.98497" /><trkpt lat="46.31942" lon="6.98494" /><trkpt lat="46.3194" lon="6.98489" /><trkpt lat="46.31939" lon="6.98485" /><trkpt lat="46.31938" lon="6.98482" /><trkpt lat="46.31937" lon="6.98478" /><trkpt lat="46.31935" lon="6.98473" /><trkpt lat="46.31932" lon="6.98469" /><trkpt lat="46.31931" lon="6.98466" /><trkpt lat="46.31929" lon="6.98463" /><trkpt lat="46.31927" lon="6.9846" /><trkpt lat="46.31922" lon="6.98452" /><trkpt lat="46.31908" lon="6.98433" /><trkpt lat="46.31905" lon="6.98429" /><trkpt lat="46.31903" lon="6.98425" /><trkpt lat="46.31901" lon="6.98422" /><trkpt lat="46.31899" lon="6.98419" /><trkpt lat="46.31898" lon="6.98415" /><trkpt lat="46.31896" lon="6.98412" /><trkpt lat="46.31895" lon="6.98408" /><trkpt lat="46.31894" lon="6.98405" /><trkpt lat="46.31892" lon="6.98399" /><trkpt lat="46.3189" lon="6.98394" /><trkpt lat="46.31882" lon="6.98363" /><trkpt lat="46.3188" lon="6.98358" /><trkpt lat="46.31879" lon="6.98354" /><trkpt lat="46.31878" lon="6.98351" /><trkpt lat="46.31877" lon="6.98349" /><trkpt lat="46.31875" lon="6.98344" /><trkpt lat="46.31873" lon="6.9834" /><trkpt lat="46.31868" lon="6.98331" /><trkpt lat="46.31862" lon="6.98321" /><trkpt lat="46.31858" lon="6.98312" /><trkpt lat="46.31855" lon="6.98306" /><trkpt lat="46.31852" lon="6.98301" /><trkpt lat="46.3185" lon="6.98295" /><trkpt lat="46.31847" lon="6.98287" /><trkpt lat="46.31845" lon="6.98282" /><trkpt lat="46.31842" lon="6.98274" /><trkpt lat="46.31834" lon="6.9825" /><trkpt lat="46.31829" lon="6.98235" /><trkpt lat="46.31827" lon="6.98229" /><trkpt lat="46.31826" lon="6.98226" /><trkpt lat="46.31825" lon="6.98223" /><trkpt lat="46.31823" lon="6.98218" /><trkpt lat="46.31822" lon="6.98212" /><trkpt lat="46.31821" lon="6.98207" /><trkpt lat="46.3182" lon="6.98202" /><trkpt lat="46.31819" lon="6.98197" /><trkpt lat="46.31818" lon="6.98194" /><trkpt lat="46.31818" lon="6.9819" /><trkpt lat="46.31817" lon="6.98186" /><trkpt lat="46.31817" lon="6.98183" /><trkpt lat="46.31817" lon="6.98179" /><trkpt lat="46.31817" lon="6.98175" /><trkpt lat="46.31817" lon="6.98171" /><trkpt lat="46.31817" lon="6.98168" /><trkpt lat="46.31817" lon="6.98164" /><trkpt lat="46.31817" lon="6.9816" /><trkpt lat="46.31817" lon="6.98155" /><trkpt lat="46.31817" lon="6.98151" /><trkpt lat="46.31818" lon="6.98148" /><trkpt lat="46.31818" lon="6.98145" /><trkpt lat="46.31818" lon="6.98141" /><trkpt lat="46.31819" lon="6.98137" /><trkpt lat="46.3182" lon="6.98133" /><trkpt lat="46.31821" lon="6.98128" /><trkpt lat="46.31837" lon="6.98067" /><trkpt lat="46.31838" lon="6.98062" /><trkpt lat="46.31839" lon="6.98058" /><trkpt lat="46.3184" lon="6.98056" /><trkpt lat="46.31841" lon="6.98053" /><trkpt lat="46.31842" lon="6.9805" /><trkpt lat="46.31844" lon="6.98045" /><trkpt lat="46.31854" lon="6.98023" /><trkpt lat="46.31858" lon="6.98016" /><trkpt lat="46.3186" lon="6.9801" /><trkpt lat="46.31862" lon="6.98005" /><trkpt lat="46.31864" lon="6.98001" /><trkpt lat="46.31865" lon="6.97997" /><trkpt lat="46.31866" lon="6.97994" /><trkpt lat="46.31866" lon="6.97991" /><trkpt lat="46.31867" lon="6.97987" /><trkpt lat="46.31868" lon="6.97984" /><trkpt lat="46.31868" lon="6.97981" /><trkpt lat="46.31869" lon="6.97976" /><trkpt lat="46.31869" lon="6.97972" /><trkpt lat="46.3187" lon="6.97965" /><trkpt lat="46.31872" lon="6.97933" /><trkpt lat="46.31873" lon="6.97928" /><trkpt lat="46.31873" lon="6.97923" /><trkpt lat="46.31874" lon="6.97916" /><trkpt lat="46.31875" lon="6.97913" /><trkpt lat="46.31875" lon="6.97909" /><trkpt lat="46.31876" lon="6.97904" /><trkpt lat="46.31877" lon="6.979" /><trkpt lat="46.31879" lon="6.97896" /><trkpt lat="46.3188" lon="6.97892" /><trkpt lat="46.31881" lon="6.97889" /><trkpt lat="46.31883" lon="6.97885" /><trkpt lat="46.31884" lon="6.97882" /><trkpt lat="46.31886" lon="6.97879" /><trkpt lat="46.31889" lon="6.97873" /><trkpt lat="46.31907" lon="6.97838" /><trkpt lat="46.31911" lon="6.97831" /><trkpt lat="46.31913" lon="6.97826" /><trkpt lat="46.31914" lon="6.97823" /><trkpt lat="46.31915" lon="6.97821" /><trkpt lat="46.31916" lon="6.97818" /><trkpt lat="46.31918" lon="6.97813" /><trkpt lat="46.31919" lon="6.97808" /><trkpt lat="46.3192" lon="6.97803" /><trkpt lat="46.31921" lon="6.97797" /><trkpt lat="46.31923" lon="6.9779" /><trkpt lat="46.3193" lon="6.97731" /><trkpt lat="46.31931" lon="6.97723" /><trkpt lat="46.31931" lon="6.97716" /><trkpt lat="46.31932" lon="6.97711" /><trkpt lat="46.31932" lon="6.97706" /><trkpt lat="46.31932" lon="6.97702" /><trkpt lat="46.31932" lon="6.97697" /><trkpt lat="46.31931" lon="6.97692" /><trkpt lat="46.31931" lon="6.97687" /><trkpt lat="46.3193" lon="6.97683" /><trkpt lat="46.31929" lon="6.97679" /><trkpt lat="46.31928" lon="6.97674" /><trkpt lat="46.31927" lon="6.97671" /><trkpt lat="46.31926" lon="6.97666" /><trkpt lat="46.31925" lon="6.97663" /><trkpt lat="46.31924" lon="6.97658" /><trkpt lat="46.31922" lon="6.97655" /><trkpt lat="46.31921" lon="6.97652" /><trkpt lat="46.3192" lon="6.97649" /><trkpt lat="46.31918" lon="6.97645" /><trkpt lat="46.31916" lon="6.97642" /><trkpt lat="46.31914" lon="6.97639" /><trkpt lat="46.31911" lon="6.97634" /><trkpt lat="46.31908" lon="6.97629" /><trkpt lat="46.31906" lon="6.97627" /><trkpt lat="46.31904" lon="6.97624" /><trkpt lat="46.31901" lon="6.97621" /><trkpt lat="46.31899" lon="6.9762" /><trkpt lat="46.31898" lon="6.97618" /><trkpt lat="46.31896" lon="6.97616" /><trkpt lat="46.31894" lon="6.97615" /><trkpt lat="46.31892" lon="6.97613" /><trkpt lat="46.31889" lon="6.97612" /><trkpt lat="46.31886" lon="6.9761" /><trkpt lat="46.31878" lon="6.97605" /><trkpt lat="46.31867" lon="6.97599" /><trkpt lat="46.31864" lon="6.97598" /><trkpt lat="46.31862" lon="6.97596" /><trkpt lat="46.3186" lon="6.97595" /><trkpt lat="46.31858" lon="6.97593" /><trkpt lat="46.31857" lon="6.97591" /><trkpt lat="46.31855" lon="6.9759" /><trkpt lat="46.31853" lon="6.97588" /><trkpt lat="46.31851" lon="6.97586" /><trkpt lat="46.3185" lon="6.97583" /><trkpt lat="46.31849" lon="6.97582" /><trkpt lat="46.31847" lon="6.9758" /><trkpt lat="46.31846" lon="6.97578" /><trkpt lat="46.31845" lon="6.97575" /><trkpt lat="46.31843" lon="6.97573" /><trkpt lat="46.31842" lon="6.9757" /><trkpt lat="46.31841" lon="6.97568" /><trkpt lat="46.3184" lon="6.97565" /><trkpt lat="46.31839" lon="6.97563" /><trkpt lat="46.31838" lon="6.9756" /><trkpt lat="46.31837" lon="6.97557" /><trkpt lat="46.31836" lon="6.97555" /><trkpt lat="46.31835" lon="6.9755" /><trkpt lat="46.31834" lon="6.97546" /><trkpt lat="46.31834" lon="6.97543" /><trkpt lat="46.31834" lon="6.9754" /><trkpt lat="46.31833" lon="6.97537" /><trkpt lat="46.31833" lon="6.97534" /><trkpt lat="46.31833" lon="6.9753" /><trkpt lat="46.31833" lon="6.97512" /><trkpt lat="46.31831" lon="6.97518" /><trkpt lat="46.31829" lon="6.97524" /><trkpt lat="46.31827" lon="6.97529" /><trkpt lat="46.31824" lon="6.97533" /><trkpt lat="46.31822" lon="6.97537" /><trkpt lat="46.3182" lon="6.97539" /><trkpt lat="46.31818" lon="6.97541" /><trkpt lat="46.31816" lon="6.97543" /><trkpt lat="46.31813" lon="6.97545" /><trkpt lat="46.31811" lon="6.97546" /><trkpt lat="46.31809" lon="6.97546" /><trkpt lat="46.31806" lon="6.97547" /><trkpt lat="46.31804" lon="6.97547" /><trkpt lat="46.31801" lon="6.97547" /><trkpt lat="46.31799" lon="6.97546" /><trkpt lat="46.31796" lon="6.97545" /><trkpt lat="46.31794" lon="6.97544" /><trkpt lat="46.31791" lon="6.97542" /><trkpt lat="46.31789" lon="6.9754" /><trkpt lat="46.31787" lon="6.97538" /><trkpt lat="46.31781" lon="6.97532" /><trkpt lat="46.31776" lon="6.97525" /><trkpt lat="46.31772" lon="6.97519" /><trkpt lat="46.31766" lon="6.97509" /><trkpt lat="46.31763" lon="6.97501" /><trkpt lat="46.31761" lon="6.97493" /><trkpt lat="46.31759" lon="6.97485" /><trkpt lat="46.31758" lon="6.97474" /><trkpt lat="46.31757" lon="6.97467" /><trkpt lat="46.31757" lon="6.9746" /><trkpt lat="46.31757" lon="6.9745" /><trkpt lat="46.31758" lon="6.97441" /><trkpt lat="46.31758" lon="6.97431" /><trkpt lat="46.3176" lon="6.97412" /><trkpt lat="46.3176" lon="6.97402" /><trkpt lat="46.31761" lon="6.97375" /><trkpt lat="46.31762" lon="6.97358" /><trkpt lat="46.31763" lon="6.97348" /><trkpt lat="46.31767" lon="6.97271" /><trkpt lat="46.3177" lon="6.97214" /><trkpt lat="46.31771" lon="6.97199" /><trkpt lat="46.31775" lon="6.97138" /><trkpt lat="46.31778" lon="6.97076" /><trkpt lat="46.3178" lon="6.97039" /><trkpt lat="46.31781" lon="6.97033" /><trkpt lat="46.31782" lon="6.97027" /><trkpt lat="46.31782" lon="6.97026" /><trkpt lat="46.31783" lon="6.97021" /><trkpt lat="46.31785" lon="6.97017" /><trkpt lat="46.31787" lon="6.9701" /><trkpt lat="46.31791" lon="6.97001" /><trkpt lat="46.31797" lon="6.96988" /><trkpt lat="46.318" lon="6.96982" /><trkpt lat="46.31805" lon="6.9697" /><trkpt lat="46.31808" lon="6.96962" /><trkpt lat="46.31811" lon="6.96955" /><trkpt lat="46.31816" lon="6.9694" /><trkpt lat="46.31819" lon="6.96931" /><trkpt lat="46.3182" lon="6.96923" /><trkpt lat="46.31821" lon="6.96916" /><trkpt lat="46.31822" lon="6.96911" /><trkpt lat="46.31822" lon="6.96901" /><trkpt lat="46.31821" lon="6.96893" /><trkpt lat="46.31821" lon="6.96886" /><trkpt lat="46.31821" lon="6.96884" /><trkpt lat="46.3182" lon="6.9687" /><trkpt lat="46.31818" lon="6.96854" /><trkpt lat="46.31816" lon="6.96838" /><trkpt lat="46.31814" lon="6.96829" /><trkpt lat="46.31812" lon="6.96821" /><trkpt lat="46.31808" lon="6.96806" /><trkpt lat="46.318" lon="6.96777" /><trkpt lat="46.3179" lon="6.96744" /><trkpt lat="46.31775" lon="6.96688" /><trkpt lat="46.31772" lon="6.96678" /><trkpt lat="46.31769" lon="6.96667" /><trkpt lat="46.31759" lon="6.96632" /><trkpt lat="46.3175" lon="6.966" /><trkpt lat="46.31732" lon="6.96534" /><trkpt lat="46.31726" lon="6.96513" /><trkpt lat="46.31706" lon="6.96443" /><trkpt lat="46.31706" lon="6.96441" /><trkpt lat="46.31702" lon="6.96429" /><trkpt lat="46.31701" lon="6.96425" /><trkpt lat="46.317" lon="6.96421" /><trkpt lat="46.31698" lon="6.96419" /><trkpt lat="46.31697" lon="6.96417" /><trkpt lat="46.31697" lon="6.96417" /><trkpt lat="46.31695" lon="6.96414" /><trkpt lat="46.31694" lon="6.96413" /><trkpt lat="46.31693" lon="6.96412" /><trkpt lat="46.31691" lon="6.9641" /><trkpt lat="46.31689" lon="6.96409" /><trkpt lat="46.31688" lon="6.96408" /><trkpt lat="46.31685" lon="6.96407" /><trkpt lat="46.31683" lon="6.96406" /><trkpt lat="46.31681" lon="6.96405" /><trkpt lat="46.31679" lon="6.96405" /><trkpt lat="46.31677" lon="6.96405" /><trkpt lat="46.31674" lon="6.96405" /><trkpt lat="46.31673" lon="6.96405" /><trkpt lat="46.31672" lon="6.96406" /><trkpt lat="46.31668" lon="6.96407" /><trkpt lat="46.31664" lon="6.96409" /><trkpt lat="46.31659" lon="6.96412" /><trkpt lat="46.31654" lon="6.96414" /><trkpt lat="46.31652" lon="6.96415" /><trkpt lat="46.31638" lon="6.96423" /><trkpt lat="46.31566" lon="6.9646" /><trkpt lat="46.31561" lon="6.96463" /><trkpt lat="46.31558" lon="6.96465" /><trkpt lat="46.31555" lon="6.96468" /><trkpt lat="46.31551" lon="6.96472" /><trkpt lat="46.31548" lon="6.96477" /><trkpt lat="46.31545" lon="6.96482" /><trkpt lat="46.31543" lon="6.96486" /><trkpt lat="46.31541" lon="6.9649" /><trkpt lat="46.31537" lon="6.96498" /><trkpt lat="46.31536" lon="6.96502" /><trkpt lat="46.31534" lon="6.9651" /><trkpt lat="46.31536" lon="6.96498" /><trkpt lat="46.31538" lon="6.96493" /><trkpt lat="46.31539" lon="6.96489" /><trkpt lat="46.3154" lon="6.96486" /><trkpt lat="46.31542" lon="6.96482" /><trkpt lat="46.31543" lon="6.9648" /><trkpt lat="46.31546" lon="6.96474" /><trkpt lat="46.31548" lon="6.9647" /><trkpt lat="46.3155" lon="6.96468" /><trkpt lat="46.31552" lon="6.96465" /><trkpt lat="46.31554" lon="6.96463" /><trkpt lat="46.3156" lon="6.96457" /><trkpt lat="46.31573" lon="6.96443" /><trkpt lat="46.31577" lon="6.96441" /><trkpt lat="46.31582" lon="6.96437" /><trkpt lat="46.31563" lon="6.96447" /><trkpt lat="46.31557" lon="6.9645" /><trkpt lat="46.31551" lon="6.96453" /><trkpt lat="46.31547" lon="6.96454" /><trkpt lat="46.31522" lon="6.96461" /><trkpt lat="46.31517" lon="6.96463" /><trkpt lat="46.31511" lon="6.96466" /><trkpt lat="46.31485" lon="6.96479" /><trkpt lat="46.31476" lon="6.96483" /><trkpt lat="46.31458" lon="6.9649" /><trkpt lat="46.31449" lon="6.96492" /><trkpt lat="46.31436" lon="6.96498" /><trkpt lat="46.31404" lon="6.96513" /><trkpt lat="46.31424" lon="6.96499" /><trkpt lat="46.31432" lon="6.96493" /><trkpt lat="46.31442" lon="6.96488" /><trkpt lat="46.31456" lon="6.96482" /><trkpt lat="46.31482" lon="6.96468" /><trkpt lat="46.31508" lon="6.96455" /><trkpt lat="46.31519" lon="6.96448" /><trkpt lat="46.31526" lon="6.96444" /><trkpt lat="46.31539" lon="6.96434" /><trkpt lat="46.31546" lon="6.9643" /><trkpt lat="46.31553" lon="6.96426" /><trkpt lat="46.3156" lon="6.96421" /><trkpt lat="46.3164" lon="6.9638" /><trkpt lat="46.31661" lon="6.96369" /><trkpt lat="46.3168" lon="6.9636" /><trkpt lat="46.3168" lon="6.9636" /></trkseg></trk></gpx>