<gpx version="1.1" creator="Trainlog.me"><trk><name>Trip Path</name><trkseg><trkpt lat="47.0515" lon="8.3101" /><trkpt lat="47.05156" lon="8.31015" /><trkpt lat="47.05175" lon="8.31178" /><trkpt lat="47.05191" lon="8.31291" /><trkpt lat="47.05203" lon="8.31362" /><trkpt lat="47.05214" lon="8.31432" /><trkpt lat="47.05223" lon="8.31511" /><trkpt lat="47.05231" lon="8.31601" /><trkpt lat="47.05233" lon="8.31644" /><trkpt lat="47.05235" lon="8.31696" /><trkpt lat="47.05233" lon="8.31762" /><trkpt lat="47.05222" lon="8.31826" /><trkpt lat="47.05207" lon="8.31888" /><trkpt lat="47.05151" lon="8.32032" /><trkpt lat="47.05129" lon="8.32083" /><trkpt lat="47.05119" lon="8.32108" /><trkpt lat="47.05108" lon="8.3214" /><trkpt lat="47.0507" lon="8.32281" /><trkpt lat="47.05028" lon="8.32477" /><trkpt lat="47.05004" lon="8.32654" /><trkpt lat="47.05" lon="8.32769" /><trkpt lat="47.04999" lon="8.32802" /><trkpt lat="47.05011" lon="8.3294" /><trkpt lat="47.05076" lon="8.3338" /><trkpt lat="47.04982" lon="8.33405" /><trkpt lat="47.04855" lon="8.33466" /><trkpt lat="47.04736" lon="8.33556" /><trkpt lat="47.04401" lon="8.33886" /><trkpt lat="47.03465" lon="8.34873" /><trkpt lat="47.03163" lon="8.3527" /><trkpt lat="47.0314" lon="8.35304" /><trkpt lat="47.03122" lon="8.35344" /><trkpt lat="47.03095" lon="8.35409" /><trkpt lat="47.03066" lon="8.35493" /><trkpt lat="47.0302" lon="8.35747" /><trkpt lat="47.02645" lon="8.38257" /><trkpt lat="47.02456" lon="8.39543" /><trkpt lat="47.02429" lon="8.39746" /><trkpt lat="47.02443" lon="8.39952" /><trkpt lat="47.02484" lon="8.40092" /><trkpt lat="47.02559" lon="8.4025" /><trkpt lat="47.02662" lon="8.40364" /><trkpt lat="47.02672" lon="8.40451" /><trkpt lat="47.02681" lon="8.4066" /><trkpt lat="47.0268" lon="8.4088" /><trkpt lat="47.02654" lon="8.41518" /><trkpt lat="47.02661" lon="8.41865" /><trkpt lat="47.02699" lon="8.42072" /><trkpt lat="47.02817" lon="8.424" /><trkpt lat="47.03117" lon="8.4319" /><trkpt lat="47.03134" lon="8.43251" /><trkpt lat="47.03139" lon="8.43323" /><trkpt lat="47.03141" lon="8.43326" /><trkpt lat="47.03141" lon="8.43326" /></trkseg></trk></gpx>