<gpx version="1.1" creator="Trainlog.me"><trk><name>Trip Path</name><trkseg><trkpt lat="45.48622" lon="9.20454" /><trkpt lat="45.48624" lon="9.20456" /><trkpt lat="45.48863" lon="9.20698" /><trkpt lat="45.48909" lon="9.20748" /><trkpt lat="45.48922" lon="9.20762" /><trkpt lat="45.48931" lon="9.20773" /><trkpt lat="45.48961" lon="9.20814" /><trkpt lat="45.48968" lon="9.20824" /><trkpt lat="45.48974" lon="9.20831" /><trkpt lat="45.48984" lon="9.20842" /><trkpt lat="45.48987" lon="9.20846" /><trkpt lat="45.48991" lon="9.2085" /><trkpt lat="45.49012" lon="9.20871" /><trkpt lat="45.49048" lon="9.20908" /><trkpt lat="45.49069" lon="9.20929" /><trkpt lat="45.49079" lon="9.2094" /><trkpt lat="45.49091" lon="9.20952" /><trkpt lat="45.49101" lon="9.20962" /><trkpt lat="45.4912" lon="9.20981" /><trkpt lat="45.49159" lon="9.2102" /><trkpt lat="45.49186" lon="9.21047" /><trkpt lat="45.49233" lon="9.21083" /><trkpt lat="45.4926" lon="9.21103" /><trkpt lat="45.4927" lon="9.21117" /><trkpt lat="45.49285" lon="9.21127" /><trkpt lat="45.49292" lon="9.21133" /><trkpt lat="45.49316" lon="9.21152" /><trkpt lat="45.49343" lon="9.21173" /><trkpt lat="45.49371" lon="9.21194" /><trkpt lat="45.49396" lon="9.21214" /><trkpt lat="45.49431" lon="9.2124" /><trkpt lat="45.49464" lon="9.21273" /><trkpt lat="45.49517" lon="9.21325" /><trkpt lat="45.49535" lon="9.21342" /><trkpt lat="45.49552" lon="9.21356" /><trkpt lat="45.49565" lon="9.21367" /><trkpt lat="45.49579" lon="9.21378" /><trkpt lat="45.49592" lon="9.21387" /><trkpt lat="45.49607" lon="9.21397" /><trkpt lat="45.49618" lon="9.21404" /><trkpt lat="45.4963" lon="9.21412" /><trkpt lat="45.49653" lon="9.21425" /><trkpt lat="45.4969" lon="9.21445" /><trkpt lat="45.49705" lon="9.21453" /><trkpt lat="45.49719" lon="9.21461" /><trkpt lat="45.4981" lon="9.2151" /><trkpt lat="45.49827" lon="9.21518" /><trkpt lat="45.49842" lon="9.21525" /><trkpt lat="45.49858" lon="9.21531" /><trkpt lat="45.49875" lon="9.21537" /><trkpt lat="45.49891" lon="9.21542" /><trkpt lat="45.49912" lon="9.21547" /><trkpt lat="45.49922" lon="9.21548" /><trkpt lat="45.49939" lon="9.2155" /><trkpt lat="45.49953" lon="9.21552" /><trkpt lat="45.49967" lon="9.21552" /><trkpt lat="45.49985" lon="9.21553" /><trkpt lat="45.50004" lon="9.21552" /><trkpt lat="45.50021" lon="9.2155" /><trkpt lat="45.50037" lon="9.21547" /><trkpt lat="45.50053" lon="9.21544" /><trkpt lat="45.50066" lon="9.21541" /><trkpt lat="45.50078" lon="9.21538" /><trkpt lat="45.50091" lon="9.21533" /><trkpt lat="45.50107" lon="9.21527" /><trkpt lat="45.50121" lon="9.2152" /><trkpt lat="45.5014" lon="9.2151" /><trkpt lat="45.50157" lon="9.21501" /><trkpt lat="45.50174" lon="9.2149" /><trkpt lat="45.5019" lon="9.21479" /><trkpt lat="45.50206" lon="9.21467" /><trkpt lat="45.50221" lon="9.21454" /><trkpt lat="45.50235" lon="9.21441" /><trkpt lat="45.50248" lon="9.21427" /><trkpt lat="45.50263" lon="9.21411" /><trkpt lat="45.50277" lon="9.21393" /><trkpt lat="45.5029" lon="9.21377" /><trkpt lat="45.50302" lon="9.2136" /><trkpt lat="45.50313" lon="9.21342" /><trkpt lat="45.50318" lon="9.21335" /><trkpt lat="45.50323" lon="9.21327" /><trkpt lat="45.50326" lon="9.21321" /><trkpt lat="45.50338" lon="9.213" /><trkpt lat="45.50348" lon="9.21279" /><trkpt lat="45.50359" lon="9.21255" /><trkpt lat="45.50368" lon="9.21234" /><trkpt lat="45.50376" lon="9.21212" /><trkpt lat="45.50387" lon="9.21182" /><trkpt lat="45.50391" lon="9.21165" /><trkpt lat="45.50398" lon="9.21142" /><trkpt lat="45.50403" lon="9.21121" /><trkpt lat="45.50408" lon="9.21099" /><trkpt lat="45.50412" lon="9.21077" /><trkpt lat="45.50416" lon="9.21054" /><trkpt lat="45.50418" lon="9.21032" /><trkpt lat="45.50421" lon="9.2101" /><trkpt lat="45.50423" lon="9.20989" /><trkpt lat="45.50423" lon="9.20969" /><trkpt lat="45.50424" lon="9.20948" /><trkpt lat="45.50424" lon="9.20937" /><trkpt lat="45.50424" lon="9.20925" /><trkpt lat="45.50424" lon="9.20915" /><trkpt lat="45.50424" lon="9.20903" /><trkpt lat="45.50423" lon="9.20873" /><trkpt lat="45.50421" lon="9.20844" /><trkpt lat="45.50419" lon="9.20813" /><trkpt lat="45.50417" lon="9.20781" /><trkpt lat="45.50411" lon="9.20676" /><trkpt lat="45.5041" lon="9.20659" /><trkpt lat="45.50405" lon="9.20579" /><trkpt lat="45.50398" lon="9.20463" /><trkpt lat="45.5039" lon="9.2034" /><trkpt lat="45.50376" lon="9.20124" /><trkpt lat="45.50374" lon="9.20087" /><trkpt lat="45.5037" lon="9.20028" /><trkpt lat="45.50369" lon="9.19997" /><trkpt lat="45.50368" lon="9.19968" /><trkpt lat="45.50367" lon="9.19951" /><trkpt lat="45.50367" lon="9.1991" /><trkpt lat="45.50367" lon="9.19868" /><trkpt lat="45.50367" lon="9.19847" /><trkpt lat="45.50368" lon="9.19817" /><trkpt lat="45.50369" lon="9.19789" /><trkpt lat="45.50371" lon="9.19762" /><trkpt lat="45.50373" lon="9.19738" /><trkpt lat="45.50375" lon="9.19712" /><trkpt lat="45.50378" lon="9.19684" /><trkpt lat="45.50381" lon="9.19661" /><trkpt lat="45.50386" lon="9.1963" /><trkpt lat="45.50401" lon="9.19523" /><trkpt lat="45.50406" lon="9.19493" /><trkpt lat="45.50411" lon="9.19441" /><trkpt lat="45.50468" lon="9.19072" /><trkpt lat="45.50475" lon="9.19026" /><trkpt lat="45.50495" lon="9.18904" /><trkpt lat="45.505" lon="9.18873" /><trkpt lat="45.50505" lon="9.18837" /><trkpt lat="45.50554" lon="9.1852" /><trkpt lat="45.50561" lon="9.18476" /><trkpt lat="45.50572" lon="9.18405" /><trkpt lat="45.50587" lon="9.18305" /><trkpt lat="45.50647" lon="9.17905" /><trkpt lat="45.50652" lon="9.17871" /><trkpt lat="45.50726" lon="9.17401" /><trkpt lat="45.50728" lon="9.17388" /><trkpt lat="45.50811" lon="9.16849" /><trkpt lat="45.50818" lon="9.16802" /><trkpt lat="45.50825" lon="9.16756" /><trkpt lat="45.50947" lon="9.15959" /><trkpt lat="45.50949" lon="9.15942" /><trkpt lat="45.5096" lon="9.15874" /><trkpt lat="45.50966" lon="9.15831" /><trkpt lat="45.5101" lon="9.15555" /><trkpt lat="45.51015" lon="9.15507" /><trkpt lat="45.51018" lon="9.15476" /><trkpt lat="45.5102" lon="9.15448" /><trkpt lat="45.5102" lon="9.15419" /><trkpt lat="45.5102" lon="9.15391" /><trkpt lat="45.51019" lon="9.1536" /><trkpt lat="45.51017" lon="9.15345" /><trkpt lat="45.51016" lon="9.15328" /><trkpt lat="45.51015" lon="9.15315" /><trkpt lat="45.51012" lon="9.15292" /><trkpt lat="45.51008" lon="9.15262" /><trkpt lat="45.51003" lon="9.15234" /><trkpt lat="45.50996" lon="9.15205" /><trkpt lat="45.5099" lon="9.15179" /><trkpt lat="45.50982" lon="9.15153" /><trkpt lat="45.50975" lon="9.1513" /><trkpt lat="45.50967" lon="9.15108" /><trkpt lat="45.50958" lon="9.15087" /><trkpt lat="45.50949" lon="9.15065" /><trkpt lat="45.50938" lon="9.15041" /><trkpt lat="45.50925" lon="9.15016" /><trkpt lat="45.50912" lon="9.14992" /><trkpt lat="45.50898" lon="9.14967" /><trkpt lat="45.5088" lon="9.14939" /><trkpt lat="45.50865" lon="9.14915" /><trkpt lat="45.5085" lon="9.14892" /><trkpt lat="45.50842" lon="9.14882" /><trkpt lat="45.50715" lon="9.14699" /><trkpt lat="45.50694" lon="9.14668" /><trkpt lat="45.50675" lon="9.1464" /><trkpt lat="45.5066" lon="9.14612" /><trkpt lat="45.50646" lon="9.14585" /><trkpt lat="45.50633" lon="9.14556" /><trkpt lat="45.50619" lon="9.14523" /><trkpt lat="45.50608" lon="9.14494" /><trkpt lat="45.50598" lon="9.14462" /><trkpt lat="45.50589" lon="9.14428" /><trkpt lat="45.5058" lon="9.1439" /><trkpt lat="45.50572" lon="9.14349" /><trkpt lat="45.50567" lon="9.14315" /><trkpt lat="45.50564" lon="9.14282" /><trkpt lat="45.50562" lon="9.14248" /><trkpt lat="45.5056" lon="9.14216" /><trkpt lat="45.5056" lon="9.1418" /><trkpt lat="45.50562" lon="9.14148" /><trkpt lat="45.50564" lon="9.14112" /><trkpt lat="45.50567" lon="9.14088" /><trkpt lat="45.50571" lon="9.14062" /><trkpt lat="45.50576" lon="9.14036" /><trkpt lat="45.50592" lon="9.1395" /><trkpt lat="45.50604" lon="9.13888" /><trkpt lat="45.50611" lon="9.13847" /><trkpt lat="45.50623" lon="9.1379" /><trkpt lat="45.5063" lon="9.1375" /><trkpt lat="45.50645" lon="9.13675" /><trkpt lat="45.50674" lon="9.13534" /><trkpt lat="45.50703" lon="9.13391" /><trkpt lat="45.50715" lon="9.13338" /><trkpt lat="45.50754" lon="9.13167" /><trkpt lat="45.50762" lon="9.13128" /><trkpt lat="45.5078" lon="9.13046" /><trkpt lat="45.50795" lon="9.12984" /><trkpt lat="45.50799" lon="9.12967" /><trkpt lat="45.50818" lon="9.12881" /><trkpt lat="45.50845" lon="9.12762" /><trkpt lat="45.50867" lon="9.12663" /><trkpt lat="45.50885" lon="9.12587" /><trkpt lat="45.50905" lon="9.12507" /><trkpt lat="45.50921" lon="9.12449" /><trkpt lat="45.5094" lon="9.12381" /><trkpt lat="45.50964" lon="9.123" /><trkpt lat="45.50988" lon="9.12223" /><trkpt lat="45.51025" lon="9.12113" /><trkpt lat="45.51058" lon="9.12013" /><trkpt lat="45.51071" lon="9.11974" /><trkpt lat="45.51087" lon="9.11924" /><trkpt lat="45.511" lon="9.11885" /><trkpt lat="45.51119" lon="9.11823" /><trkpt lat="45.5118" lon="9.1162" /><trkpt lat="45.51203" lon="9.11548" /><trkpt lat="45.51226" lon="9.11477" /><trkpt lat="45.51237" lon="9.11444" /><trkpt lat="45.51253" lon="9.11391" /><trkpt lat="45.51261" lon="9.11366" /><trkpt lat="45.51276" lon="9.11317" /><trkpt lat="45.51316" lon="9.11197" /><trkpt lat="45.51327" lon="9.11166" /><trkpt lat="45.51341" lon="9.11127" /><trkpt lat="45.51402" lon="9.1097" /><trkpt lat="45.5142" lon="9.10922" /><trkpt lat="45.51442" lon="9.10861" /><trkpt lat="45.51525" lon="9.10612" /><trkpt lat="45.51566" lon="9.1049" /><trkpt lat="45.51603" lon="9.10377" /><trkpt lat="45.5162" lon="9.10329" /><trkpt lat="45.51637" lon="9.1028" /><trkpt lat="45.51678" lon="9.10158" /><trkpt lat="45.5172" lon="9.10029" /><trkpt lat="45.51756" lon="9.09922" /><trkpt lat="45.51812" lon="9.09753" /><trkpt lat="45.51851" lon="9.09637" /><trkpt lat="45.51893" lon="9.0951" /><trkpt lat="45.5194" lon="9.09375" /><trkpt lat="45.51975" lon="9.09276" /><trkpt lat="45.52002" lon="9.09201" /><trkpt lat="45.52021" lon="9.09148" /><trkpt lat="45.52042" lon="9.09084" /><trkpt lat="45.52062" lon="9.09023" /><trkpt lat="45.5208" lon="9.08964" /><trkpt lat="45.5212" lon="9.08831" /><trkpt lat="45.52207" lon="9.08539" /><trkpt lat="45.52309" lon="9.08195" /><trkpt lat="45.52332" lon="9.08122" /><trkpt lat="45.52359" lon="9.08042" /><trkpt lat="45.52429" lon="9.07832" /><trkpt lat="45.52441" lon="9.07796" /><trkpt lat="45.5249" lon="9.07645" /><trkpt lat="45.52527" lon="9.07538" /><trkpt lat="45.52545" lon="9.07488" /><trkpt lat="45.52566" lon="9.07431" /><trkpt lat="45.52628" lon="9.07261" /><trkpt lat="45.52652" lon="9.07198" /><trkpt lat="45.52671" lon="9.07144" /><trkpt lat="45.52682" lon="9.07112" /><trkpt lat="45.52694" lon="9.07073" /><trkpt lat="45.52702" lon="9.07045" /><trkpt lat="45.52711" lon="9.07013" /><trkpt lat="45.5272" lon="9.06978" /><trkpt lat="45.52728" lon="9.06948" /><trkpt lat="45.52735" lon="9.06914" /><trkpt lat="45.52743" lon="9.06875" /><trkpt lat="45.52751" lon="9.06835" /><trkpt lat="45.52761" lon="9.06782" /><trkpt lat="45.52771" lon="9.0672" /><trkpt lat="45.52776" lon="9.06685" /><trkpt lat="45.52783" lon="9.06638" /><trkpt lat="45.52789" lon="9.06586" /><trkpt lat="45.52795" lon="9.06535" /><trkpt lat="45.52799" lon="9.06493" /><trkpt lat="45.52803" lon="9.0645" /><trkpt lat="45.52806" lon="9.06406" /><trkpt lat="45.52808" lon="9.06359" /><trkpt lat="45.5281" lon="9.06311" /><trkpt lat="45.52812" lon="9.06264" /><trkpt lat="45.52813" lon="9.06216" /><trkpt lat="45.52813" lon="9.06172" /><trkpt lat="45.52813" lon="9.06127" /><trkpt lat="45.52812" lon="9.06081" /><trkpt lat="45.52811" lon="9.06028" /><trkpt lat="45.52808" lon="9.0598" /><trkpt lat="45.52806" lon="9.05935" /><trkpt lat="45.52803" lon="9.05891" /><trkpt lat="45.52799" lon="9.05845" /><trkpt lat="45.52795" lon="9.05808" /><trkpt lat="45.5279" lon="9.05763" /><trkpt lat="45.52785" lon="9.05719" /><trkpt lat="45.52779" lon="9.05675" /><trkpt lat="45.52773" lon="9.05639" /><trkpt lat="45.52767" lon="9.05598" /><trkpt lat="45.52761" lon="9.05563" /><trkpt lat="45.52752" lon="9.05518" /><trkpt lat="45.52743" lon="9.05469" /><trkpt lat="45.52734" lon="9.05428" /><trkpt lat="45.52726" lon="9.05393" /><trkpt lat="45.5271" lon="9.05333" /><trkpt lat="45.52701" lon="9.05297" /><trkpt lat="45.52691" lon="9.05261" /><trkpt lat="45.5268" lon="9.05224" /><trkpt lat="45.5267" lon="9.05191" /><trkpt lat="45.52656" lon="9.05145" /><trkpt lat="45.5264" lon="9.05097" /><trkpt lat="45.52624" lon="9.05048" /><trkpt lat="45.52603" lon="9.04988" /><trkpt lat="45.52593" lon="9.0495" /><trkpt lat="45.52515" lon="9.04722" /><trkpt lat="45.52509" lon="9.04703" /><trkpt lat="45.52495" lon="9.04665" /><trkpt lat="45.52477" lon="9.04617" /><trkpt lat="45.52466" lon="9.04587" /><trkpt lat="45.5244" lon="9.04518" /><trkpt lat="45.5243" lon="9.04492" /><trkpt lat="45.52421" lon="9.04465" /><trkpt lat="45.52391" lon="9.04378" /><trkpt lat="45.52365" lon="9.04303" /><trkpt lat="45.52337" lon="9.04221" /><trkpt lat="45.52325" lon="9.04182" /><trkpt lat="45.52315" lon="9.04149" /><trkpt lat="45.52304" lon="9.04112" /><trkpt lat="45.5229" lon="9.04064" /><trkpt lat="45.52281" lon="9.04028" /><trkpt lat="45.52269" lon="9.03986" /><trkpt lat="45.52257" lon="9.03945" /><trkpt lat="45.52249" lon="9.03919" /><trkpt lat="45.52234" lon="9.0387" /><trkpt lat="45.52167" lon="9.03674" /><trkpt lat="45.52151" lon="9.03625" /><trkpt lat="45.52095" lon="9.03462" /><trkpt lat="45.51972" lon="9.03098" /><trkpt lat="45.51931" lon="9.02978" /><trkpt lat="45.51923" lon="9.0295" /><trkpt lat="45.51912" lon="9.02905" /><trkpt lat="45.519" lon="9.02852" /><trkpt lat="45.51889" lon="9.02807" /><trkpt lat="45.51869" lon="9.02725" /><trkpt lat="45.51857" lon="9.02672" /><trkpt lat="45.51845" lon="9.02617" /><trkpt lat="45.51837" lon="9.02579" /><trkpt lat="45.51829" lon="9.02541" /><trkpt lat="45.51822" lon="9.025" /><trkpt lat="45.51813" lon="9.02454" /><trkpt lat="45.51807" lon="9.02416" /><trkpt lat="45.51799" lon="9.02365" /><trkpt lat="45.51794" lon="9.0233" /><trkpt lat="45.5179" lon="9.02293" /><trkpt lat="45.51786" lon="9.02267" /><trkpt lat="45.51783" lon="9.02239" /><trkpt lat="45.5178" lon="9.0221" /><trkpt lat="45.51776" lon="9.02169" /><trkpt lat="45.51773" lon="9.02122" /><trkpt lat="45.51769" lon="9.02075" /><trkpt lat="45.51767" lon="9.0204" /><trkpt lat="45.51767" lon="9.02031" /><trkpt lat="45.51766" lon="9.02007" /><trkpt lat="45.51766" lon="9.02005" /><trkpt lat="45.51764" lon="9.01971" /><trkpt lat="45.51764" lon="9.0196" /><trkpt lat="45.51763" lon="9.01925" /><trkpt lat="45.51763" lon="9.01869" /><trkpt lat="45.51763" lon="9.01818" /><trkpt lat="45.51763" lon="9.01768" /><trkpt lat="45.51764" lon="9.01722" /><trkpt lat="45.51765" lon="9.01693" /><trkpt lat="45.51766" lon="9.01676" /><trkpt lat="45.51766" lon="9.01661" /><trkpt lat="45.51768" lon="9.0163" /><trkpt lat="45.5177" lon="9.01598" /><trkpt lat="45.51773" lon="9.01566" /><trkpt lat="45.51776" lon="9.01528" /><trkpt lat="45.51779" lon="9.01489" /><trkpt lat="45.51784" lon="9.0144" /><trkpt lat="45.51787" lon="9.01409" /><trkpt lat="45.51792" lon="9.01378" /><trkpt lat="45.51797" lon="9.0134" /><trkpt lat="45.51803" lon="9.013" /><trkpt lat="45.51809" lon="9.01261" /><trkpt lat="45.51815" lon="9.01226" /><trkpt lat="45.51821" lon="9.01192" /><trkpt lat="45.51827" lon="9.01157" /><trkpt lat="45.51834" lon="9.01124" /><trkpt lat="45.51841" lon="9.01091" /><trkpt lat="45.51848" lon="9.01056" /><trkpt lat="45.51857" lon="9.01016" /><trkpt lat="45.51865" lon="9.00983" /><trkpt lat="45.51875" lon="9.00947" /><trkpt lat="45.51885" lon="9.00908" /><trkpt lat="45.51895" lon="9.00873" /><trkpt lat="45.51904" lon="9.00842" /><trkpt lat="45.51914" lon="9.00807" /><trkpt lat="45.51927" lon="9.00768" /><trkpt lat="45.51937" lon="9.00739" /><trkpt lat="45.51947" lon="9.0071" /><trkpt lat="45.51956" lon="9.00682" /><trkpt lat="45.51969" lon="9.00647" /><trkpt lat="45.51979" lon="9.00623" /><trkpt lat="45.51992" lon="9.00589" /><trkpt lat="45.52003" lon="9.00561" /><trkpt lat="45.52013" lon="9.00537" /><trkpt lat="45.52023" lon="9.00513" /><trkpt lat="45.52037" lon="9.00481" /><trkpt lat="45.52047" lon="9.00459" /><trkpt lat="45.52057" lon="9.00435" /><trkpt lat="45.5207" lon="9.00408" /><trkpt lat="45.52085" lon="9.00376" /><trkpt lat="45.52103" lon="9.00341" /><trkpt lat="45.52133" lon="9.00284" /><trkpt lat="45.52153" lon="9.00246" /><trkpt lat="45.52186" lon="9.00186" /><trkpt lat="45.52274" lon="9.00027" /><trkpt lat="45.5236" lon="8.99872" /><trkpt lat="45.52412" lon="8.99778" /><trkpt lat="45.52444" lon="8.9972" /><trkpt lat="45.5253" lon="8.99566" /><trkpt lat="45.52597" lon="8.99445" /><trkpt lat="45.52622" lon="8.99399" /><trkpt lat="45.52646" lon="8.99356" /><trkpt lat="45.52664" lon="8.99321" /><trkpt lat="45.52698" lon="8.99261" /><trkpt lat="45.52746" lon="8.99175" /><trkpt lat="45.52763" lon="8.99143" /><trkpt lat="45.52999" lon="8.98714" /><trkpt lat="45.53057" lon="8.9861" /><trkpt lat="45.5309" lon="8.98551" /><trkpt lat="45.5333" lon="8.98121" /><trkpt lat="45.5382" lon="8.97236" /><trkpt lat="45.54274" lon="8.96414" /><trkpt lat="45.54902" lon="8.95277" /><trkpt lat="45.54916" lon="8.95251" /><trkpt lat="45.54991" lon="8.95117" /><trkpt lat="45.55054" lon="8.95001" /><trkpt lat="45.55076" lon="8.94961" /><trkpt lat="45.55099" lon="8.94921" /><trkpt lat="45.55104" lon="8.94911" /><trkpt lat="45.55115" lon="8.94891" /><trkpt lat="45.55133" lon="8.94859" /><trkpt lat="45.55142" lon="8.94842" /><trkpt lat="45.55167" lon="8.94798" /><trkpt lat="45.552" lon="8.94739" /><trkpt lat="45.55255" lon="8.94639" /><trkpt lat="45.55307" lon="8.94545" /><trkpt lat="45.55312" lon="8.94537" /><trkpt lat="45.55348" lon="8.94475" /><trkpt lat="45.55373" lon="8.94433" /><trkpt lat="45.55401" lon="8.94389" /><trkpt lat="45.55439" lon="8.94335" /><trkpt lat="45.55453" lon="8.94314" /><trkpt lat="45.55486" lon="8.9427" /><trkpt lat="45.55529" lon="8.94217" /><trkpt lat="45.55561" lon="8.94178" /><trkpt lat="45.55588" lon="8.94146" /><trkpt lat="45.55602" lon="8.94131" /><trkpt lat="45.55605" lon="8.94127" /><trkpt lat="45.55666" lon="8.9406" /><trkpt lat="45.55732" lon="8.93987" /><trkpt lat="45.55795" lon="8.93917" /><trkpt lat="45.5586" lon="8.93844" /><trkpt lat="45.55918" lon="8.93781" /><trkpt lat="45.55968" lon="8.93726" /><trkpt lat="45.56015" lon="8.93673" /><trkpt lat="45.56065" lon="8.93618" /><trkpt lat="45.56114" lon="8.93563" /><trkpt lat="45.56156" lon="8.93518" /><trkpt lat="45.56879" lon="8.92718" /><trkpt lat="45.56928" lon="8.92664" /><trkpt lat="45.57037" lon="8.92543" /><trkpt lat="45.57177" lon="8.92387" /><trkpt lat="45.57281" lon="8.9227" /><trkpt lat="45.57308" lon="8.92242" /><trkpt lat="45.57334" lon="8.92215" /><trkpt lat="45.57361" lon="8.92189" /><trkpt lat="45.57388" lon="8.92163" /><trkpt lat="45.57415" lon="8.92139" /><trkpt lat="45.57443" lon="8.92114" /><trkpt lat="45.5747" lon="8.92091" /><trkpt lat="45.57499" lon="8.92068" /><trkpt lat="45.57527" lon="8.92046" /><trkpt lat="45.57556" lon="8.92025" /><trkpt lat="45.57585" lon="8.92004" /><trkpt lat="45.57614" lon="8.91984" /><trkpt lat="45.57644" lon="8.91965" /><trkpt lat="45.57673" lon="8.91947" /><trkpt lat="45.57703" lon="8.91929" /><trkpt lat="45.57733" lon="8.91912" /><trkpt lat="45.58413" lon="8.91564" /><trkpt lat="45.58744" lon="8.91395" /><trkpt lat="45.58794" lon="8.9137" /><trkpt lat="45.58894" lon="8.91317" /><trkpt lat="45.58907" lon="8.9131" /><trkpt lat="45.59204" lon="8.91158" /><trkpt lat="45.59362" lon="8.91077" /><trkpt lat="45.59411" lon="8.91052" /><trkpt lat="45.5947" lon="8.91024" /><trkpt lat="45.59577" lon="8.90972" /><trkpt lat="45.59654" lon="8.90926" /><trkpt lat="45.59692" lon="8.90904" /><trkpt lat="45.59729" lon="8.90877" /><trkpt lat="45.59774" lon="8.90838" /><trkpt lat="45.59794" lon="8.9082" /><trkpt lat="45.59813" lon="8.90801" /><trkpt lat="45.5985" lon="8.90761" /><trkpt lat="45.59879" lon="8.90726" /><trkpt lat="45.59936" lon="8.90646" /><trkpt lat="45.59965" lon="8.90594" /><trkpt lat="45.59994" lon="8.90533" /><trkpt lat="45.60054" lon="8.90398" /><trkpt lat="45.60093" lon="8.90266" /><trkpt lat="45.60097" lon="8.90247" /><trkpt lat="45.60129" lon="8.90096" /><trkpt lat="45.6019" lon="8.89647" /><trkpt lat="45.6024" lon="8.89289" /><trkpt lat="45.60255" lon="8.8918" /><trkpt lat="45.6026" lon="8.89143" /><trkpt lat="45.60288" lon="8.8893" /><trkpt lat="45.603" lon="8.88859" /><trkpt lat="45.60313" lon="8.88784" /><trkpt lat="45.60322" lon="8.88742" /><trkpt lat="45.60331" lon="8.887" /><trkpt lat="45.60352" lon="8.88625" /><trkpt lat="45.60379" lon="8.88546" /><trkpt lat="45.60406" lon="8.88471" /><trkpt lat="45.6043" lon="8.88415" /><trkpt lat="45.60443" lon="8.88387" /><trkpt lat="45.60454" lon="8.88363" /><trkpt lat="45.60479" lon="8.88317" /><trkpt lat="45.60502" lon="8.88274" /><trkpt lat="45.60513" lon="8.88254" /><trkpt lat="45.60754" lon="8.87867" /><trkpt lat="45.60967" lon="8.87535" /><trkpt lat="45.61017" lon="8.87455" /><trkpt lat="45.61048" lon="8.87408" /><trkpt lat="45.61203" lon="8.87168" /><trkpt lat="45.61291" lon="8.87025" /><trkpt lat="45.6134" lon="8.86947" /><trkpt lat="45.61356" lon="8.86919" /><trkpt lat="45.61368" lon="8.86902" /><trkpt lat="45.61386" lon="8.86873" /><trkpt lat="45.61416" lon="8.86825" /><trkpt lat="45.61441" lon="8.8679" /><trkpt lat="45.61451" lon="8.86776" /><trkpt lat="45.6146" lon="8.86762" /><trkpt lat="45.61478" lon="8.86734" /><trkpt lat="45.61513" lon="8.86677" /><trkpt lat="45.61534" lon="8.86644" /><trkpt lat="45.61591" lon="8.86554" /><trkpt lat="45.61625" lon="8.865" /><trkpt lat="45.61673" lon="8.86424" /><trkpt lat="45.61711" lon="8.86365" /><trkpt lat="45.61737" lon="8.86325" /><trkpt lat="45.61762" lon="8.86283" /><trkpt lat="45.61785" lon="8.86244" /><trkpt lat="45.61797" lon="8.86224" /><trkpt lat="45.61819" lon="8.86192" /><trkpt lat="45.61856" lon="8.86134" /><trkpt lat="45.61911" lon="8.86049" /><trkpt lat="45.61953" lon="8.85981" /><trkpt lat="45.62002" lon="8.85905" /><trkpt lat="45.6205" lon="8.85829" /><trkpt lat="45.62105" lon="8.85742" /><trkpt lat="45.62146" lon="8.85676" /><trkpt lat="45.62199" lon="8.85593" /><trkpt lat="45.62252" lon="8.85511" /><trkpt lat="45.62312" lon="8.85415" /><trkpt lat="45.62353" lon="8.8535" /><trkpt lat="45.62366" lon="8.8533" /><trkpt lat="45.6237" lon="8.85325" /><trkpt lat="45.62375" lon="8.85318" /><trkpt lat="45.62395" lon="8.85285" /><trkpt lat="45.62429" lon="8.8523" /><trkpt lat="45.62489" lon="8.85136" /><trkpt lat="45.62548" lon="8.85044" /><trkpt lat="45.6257" lon="8.8501" /><trkpt lat="45.62593" lon="8.84975" /><trkpt lat="45.62627" lon="8.84924" /><trkpt lat="45.62723" lon="8.8478" /><trkpt lat="45.62813" lon="8.84639" /><trkpt lat="45.62927" lon="8.84469" /><trkpt lat="45.62983" lon="8.84384" /><trkpt lat="45.63037" lon="8.84303" /><trkpt lat="45.63107" lon="8.84194" /><trkpt lat="45.63143" lon="8.8414" /><trkpt lat="45.63176" lon="8.8409" /><trkpt lat="45.63186" lon="8.84073" /><trkpt lat="45.63384" lon="8.83775" /><trkpt lat="45.63414" lon="8.83729" /><trkpt lat="45.63658" lon="8.83356" /><trkpt lat="45.63898" lon="8.82995" /><trkpt lat="45.64138" lon="8.82628" /><trkpt lat="45.64262" lon="8.82439" /><trkpt lat="45.6438" lon="8.82262" /><trkpt lat="45.64468" lon="8.82128" /><trkpt lat="45.64555" lon="8.81996" /><trkpt lat="45.64586" lon="8.81948" /><trkpt lat="45.64606" lon="8.81919" /><trkpt lat="45.64699" lon="8.81777" /><trkpt lat="45.64842" lon="8.81561" /><trkpt lat="45.64984" lon="8.81344" /><trkpt lat="45.65056" lon="8.81236" /><trkpt lat="45.65091" lon="8.81182" /><trkpt lat="45.65127" lon="8.81128" /><trkpt lat="45.65192" lon="8.81029" /><trkpt lat="45.65258" lon="8.80935" /><trkpt lat="45.65323" lon="8.80844" /><trkpt lat="45.65356" lon="8.80799" /><trkpt lat="45.65389" lon="8.80755" /><trkpt lat="45.65468" lon="8.80646" /><trkpt lat="45.65506" lon="8.80593" /><trkpt lat="45.65536" lon="8.80548" /><trkpt lat="45.6558" lon="8.8048" /><trkpt lat="45.65595" lon="8.80457" /><trkpt lat="45.65616" lon="8.80425" /><trkpt lat="45.65636" lon="8.80391" /><trkpt lat="45.65662" lon="8.80348" /><trkpt lat="45.65667" lon="8.80339" /><trkpt lat="45.65684" lon="8.80312" /><trkpt lat="45.65718" lon="8.80255" /><trkpt lat="45.65733" lon="8.80229" /><trkpt lat="45.6577" lon="8.80178" /><trkpt lat="45.6579" lon="8.80144" /><trkpt lat="45.65838" lon="8.80065" /><trkpt lat="45.65871" lon="8.80011" /><trkpt lat="45.65894" lon="8.79973" /><trkpt lat="45.65923" lon="8.79924" /><trkpt lat="45.65958" lon="8.7987" /><trkpt lat="45.6598" lon="8.79837" /><trkpt lat="45.65997" lon="8.79811" /><trkpt lat="45.66033" lon="8.79757" /><trkpt lat="45.66069" lon="8.79705" /><trkpt lat="45.66087" lon="8.79681" /><trkpt lat="45.66097" lon="8.79667" /><trkpt lat="45.66133" lon="8.79624" /><trkpt lat="45.66167" lon="8.79587" /><trkpt lat="45.66208" lon="8.79545" /><trkpt lat="45.6625" lon="8.79509" /><trkpt lat="45.66273" lon="8.79489" /><trkpt lat="45.66298" lon="8.79453" /><trkpt lat="45.6632" lon="8.7942" /><trkpt lat="45.66348" lon="8.7939" /><trkpt lat="45.66357" lon="8.79374" /><trkpt lat="45.66368" lon="8.79357" /><trkpt lat="45.66373" lon="8.79348" /><trkpt lat="45.66381" lon="8.79337" /><trkpt lat="45.66397" lon="8.79315" /><trkpt lat="45.66426" lon="8.7927" /><trkpt lat="45.66441" lon="8.79243" /><trkpt lat="45.66454" lon="8.79217" /><trkpt lat="45.66462" lon="8.79197" /><trkpt lat="45.66472" lon="8.79173" /><trkpt lat="45.6648" lon="8.79151" /><trkpt lat="45.66488" lon="8.7913" /><trkpt lat="45.66499" lon="8.79098" /><trkpt lat="45.66514" lon="8.79043" /><trkpt lat="45.66522" lon="8.79013" /><trkpt lat="45.66533" lon="8.78951" /><trkpt lat="45.6654" lon="8.78904" /><trkpt lat="45.66543" lon="8.7888" /><trkpt lat="45.66546" lon="8.78839" /><trkpt lat="45.66547" lon="8.78825" /><trkpt lat="45.66547" lon="8.78809" /><trkpt lat="45.66548" lon="8.78785" /><trkpt lat="45.66548" lon="8.78759" /><trkpt lat="45.66546" lon="8.78699" /><trkpt lat="45.66528" lon="8.78261" /><trkpt lat="45.66526" lon="8.78231" /><trkpt lat="45.66515" lon="8.78031" /><trkpt lat="45.66512" lon="8.77961" /><trkpt lat="45.6651" lon="8.77906" /><trkpt lat="45.66507" lon="8.77833" /><trkpt lat="45.66506" lon="8.77779" /><trkpt lat="45.66506" lon="8.77734" /><trkpt lat="45.66506" lon="8.77706" /><trkpt lat="45.66507" lon="8.77678" /><trkpt lat="45.66509" lon="8.77644" /><trkpt lat="45.66511" lon="8.77612" /><trkpt lat="45.66518" lon="8.77553" /><trkpt lat="45.66523" lon="8.77525" /><trkpt lat="45.66528" lon="8.77497" /><trkpt lat="45.66552" lon="8.77384" /><trkpt lat="45.66577" lon="8.77281" /><trkpt lat="45.66584" lon="8.77251" /><trkpt lat="45.66617" lon="8.7712" /><trkpt lat="45.66635" lon="8.77047" /><trkpt lat="45.66653" lon="8.76975" /><trkpt lat="45.66672" lon="8.76884" /><trkpt lat="45.66705" lon="8.76742" /><trkpt lat="45.66724" lon="8.76659" /><trkpt lat="45.66746" lon="8.76569" /><trkpt lat="45.66769" lon="8.76488" /><trkpt lat="45.66801" lon="8.76378" /><trkpt lat="45.66844" lon="8.76211" /><trkpt lat="45.6689" lon="8.76025" /><trkpt lat="45.6692" lon="8.75905" /><trkpt lat="45.66961" lon="8.7574" /><trkpt lat="45.67007" lon="8.75554" /><trkpt lat="45.67052" lon="8.75368" /><trkpt lat="45.67069" lon="8.75302" /><trkpt lat="45.67088" lon="8.75235" /><trkpt lat="45.67106" lon="8.75181" /><trkpt lat="45.67141" lon="8.75093" /><trkpt lat="45.67178" lon="8.75018" /><trkpt lat="45.67256" lon="8.74872" /><trkpt lat="45.67421" lon="8.7457" /><trkpt lat="45.67442" lon="8.74533" /><trkpt lat="45.67459" lon="8.74499" /><trkpt lat="45.67474" lon="8.74469" /><trkpt lat="45.67488" lon="8.74441" /><trkpt lat="45.67507" lon="8.74399" /><trkpt lat="45.67533" lon="8.74338" /><trkpt lat="45.67541" lon="8.74315" /><trkpt lat="45.67577" lon="8.74214" /><trkpt lat="45.676" lon="8.74139" /><trkpt lat="45.67621" lon="8.74057" /><trkpt lat="45.67726" lon="8.7367" /><trkpt lat="45.67762" lon="8.7354" /><trkpt lat="45.67811" lon="8.73361" /><trkpt lat="45.67836" lon="8.73264" /><trkpt lat="45.67859" lon="8.73182" /><trkpt lat="45.67895" lon="8.73076" /><trkpt lat="45.67915" lon="8.73022" /><trkpt lat="45.68175" lon="8.72404" /><trkpt lat="45.683" lon="8.72106" /><trkpt lat="45.68371" lon="8.71949" /><trkpt lat="45.684" lon="8.7188" /><trkpt lat="45.68417" lon="8.71842" /><trkpt lat="45.68434" lon="8.7181" /><trkpt lat="45.68451" lon="8.71768" /><trkpt lat="45.68572" lon="8.71483" /><trkpt lat="45.6861" lon="8.71394" /><trkpt lat="45.68691" lon="8.71198" /><trkpt lat="45.68732" lon="8.71098" /><trkpt lat="45.68753" lon="8.71053" /><trkpt lat="45.68758" lon="8.71041" /><trkpt lat="45.68768" lon="8.71012" /><trkpt lat="45.68779" lon="8.70985" /><trkpt lat="45.68801" lon="8.70931" /><trkpt lat="45.68844" lon="8.70824" /><trkpt lat="45.68863" lon="8.70783" /><trkpt lat="45.68879" lon="8.70747" /><trkpt lat="45.68903" lon="8.70701" /><trkpt lat="45.68925" lon="8.7066" /><trkpt lat="45.68935" lon="8.70643" /><trkpt lat="45.68953" lon="8.70615" /><trkpt lat="45.68977" lon="8.7058" /><trkpt lat="45.69016" lon="8.70531" /><trkpt lat="45.69039" lon="8.70504" /><trkpt lat="45.69052" lon="8.70491" /><trkpt lat="45.69066" lon="8.70476" /><trkpt lat="45.69105" lon="8.7044" /><trkpt lat="45.69155" lon="8.70401" /><trkpt lat="45.69198" lon="8.70374" /><trkpt lat="45.69224" lon="8.70359" /><trkpt lat="45.69253" lon="8.70344" /><trkpt lat="45.69285" lon="8.70331" /><trkpt lat="45.69334" lon="8.70314" /><trkpt lat="45.69362" lon="8.70307" /><trkpt lat="45.69389" lon="8.70302" /><trkpt lat="45.69439" lon="8.70295" /><trkpt lat="45.69469" lon="8.70294" /><trkpt lat="45.69545" lon="8.70292" /><trkpt lat="45.69607" lon="8.70291" /><trkpt lat="45.697" lon="8.70292" /><trkpt lat="45.69778" lon="8.7029" /><trkpt lat="45.69865" lon="8.70289" /><trkpt lat="45.69896" lon="8.70288" /><trkpt lat="45.69952" lon="8.70286" /><trkpt lat="45.6998" lon="8.70284" /><trkpt lat="45.70008" lon="8.70284" /><trkpt lat="45.70107" lon="8.70281" /><trkpt lat="45.70152" lon="8.70276" /><trkpt lat="45.70197" lon="8.70268" /><trkpt lat="45.70265" lon="8.70251" /><trkpt lat="45.70326" lon="8.70226" /><trkpt lat="45.70366" lon="8.70205" /><trkpt lat="45.70391" lon="8.70192" /><trkpt lat="45.70416" lon="8.70178" /><trkpt lat="45.70446" lon="8.7016" /><trkpt lat="45.70488" lon="8.70133" /><trkpt lat="45.70512" lon="8.70117" /><trkpt lat="45.70591" lon="8.70066" /><trkpt lat="45.7064" lon="8.70034" /><trkpt lat="45.70717" lon="8.69985" /><trkpt lat="45.70789" lon="8.69938" /><trkpt lat="45.7083" lon="8.69912" /><trkpt lat="45.70934" lon="8.69844" /><trkpt lat="45.71009" lon="8.69796" /><trkpt lat="45.7111" lon="8.69731" /><trkpt lat="45.71156" lon="8.69701" /><trkpt lat="45.71232" lon="8.6965" /><trkpt lat="45.71254" lon="8.69637" /><trkpt lat="45.71313" lon="8.69598" /><trkpt lat="45.71392" lon="8.69548" /><trkpt lat="45.7145" lon="8.69511" /><trkpt lat="45.71516" lon="8.69467" /><trkpt lat="45.71592" lon="8.69419" /><trkpt lat="45.71652" lon="8.69378" /><trkpt lat="45.71718" lon="8.69338" /><trkpt lat="45.71785" lon="8.69294" /><trkpt lat="45.71859" lon="8.69249" /><trkpt lat="45.71921" lon="8.69213" /><trkpt lat="45.72002" lon="8.69163" /><trkpt lat="45.72032" lon="8.69142" /><trkpt lat="45.72056" lon="8.69126" /><trkpt lat="45.72079" lon="8.69109" /><trkpt lat="45.72117" lon="8.69075" /><trkpt lat="45.72155" lon="8.69035" /><trkpt lat="45.72174" lon="8.69013" /><trkpt lat="45.72202" lon="8.68978" /><trkpt lat="45.72237" lon="8.68925" /><trkpt lat="45.7226" lon="8.68885" /><trkpt lat="45.72298" lon="8.68813" /><trkpt lat="45.72328" lon="8.68738" /><trkpt lat="45.72356" lon="8.68651" /><trkpt lat="45.72385" lon="8.68542" /><trkpt lat="45.72406" lon="8.68415" /><trkpt lat="45.72426" lon="8.68262" /><trkpt lat="45.7244" lon="8.68111" /><trkpt lat="45.7245" lon="8.67964" /><trkpt lat="45.72452" lon="8.67829" /><trkpt lat="45.72453" lon="8.67544" /><trkpt lat="45.7245" lon="8.67346" /><trkpt lat="45.72449" lon="8.67147" /><trkpt lat="45.72451" lon="8.67042" /><trkpt lat="45.72456" lon="8.66942" /><trkpt lat="45.72466" lon="8.66794" /><trkpt lat="45.72477" lon="8.66629" /><trkpt lat="45.72501" lon="8.66271" /><trkpt lat="45.72515" lon="8.66063" /><trkpt lat="45.72523" lon="8.65951" /><trkpt lat="45.72532" lon="8.65793" /><trkpt lat="45.72552" lon="8.65521" /><trkpt lat="45.72565" lon="8.65327" /><trkpt lat="45.72589" lon="8.64945" /><trkpt lat="45.72601" lon="8.64773" /><trkpt lat="45.7261" lon="8.64686" /><trkpt lat="45.72622" lon="8.64619" /><trkpt lat="45.72683" lon="8.64326" /><trkpt lat="45.72727" lon="8.64112" /><trkpt lat="45.72761" lon="8.63946" /><trkpt lat="45.72769" lon="8.63909" /><trkpt lat="45.7278" lon="8.63837" /><trkpt lat="45.72789" lon="8.63795" /><trkpt lat="45.72816" lon="8.63667" /><trkpt lat="45.72836" lon="8.63573" /><trkpt lat="45.72842" lon="8.63535" /><trkpt lat="45.72846" lon="8.63496" /><trkpt lat="45.72848" lon="8.63458" /><trkpt lat="45.72848" lon="8.6342" /><trkpt lat="45.72847" lon="8.63387" /><trkpt lat="45.72846" lon="8.63372" /><trkpt lat="45.72844" lon="8.63351" /><trkpt lat="45.72835" lon="8.63305" /><trkpt lat="45.72815" lon="8.6322" /><trkpt lat="45.72807" lon="8.63189" /><trkpt lat="45.72799" lon="8.63164" /><trkpt lat="45.72773" lon="8.63076" /><trkpt lat="45.72756" lon="8.63029" /><trkpt lat="45.72735" lon="8.62983" /><trkpt lat="45.72702" lon="8.62935" /><trkpt lat="45.7267" lon="8.62895" /><trkpt lat="45.72663" lon="8.62888" /><trkpt lat="45.72639" lon="8.62865" /><trkpt lat="45.72627" lon="8.62856" /><trkpt lat="45.7261" lon="8.62844" /><trkpt lat="45.72608" lon="8.62843" /><trkpt lat="45.72603" lon="8.62839" /><trkpt lat="45.72573" lon="8.62823" /><trkpt lat="45.72554" lon="8.62813" /><trkpt lat="45.72537" lon="8.62808" /><trkpt lat="45.72503" lon="8.62796" /><trkpt lat="45.7248" lon="8.62789" /><trkpt lat="45.72435" lon="8.62777" /><trkpt lat="45.72401" lon="8.62766" /><trkpt lat="45.7238" lon="8.6276" /><trkpt lat="45.72138" lon="8.62696" /><trkpt lat="45.72117" lon="8.6269" /><trkpt lat="45.72108" lon="8.62688" /><trkpt lat="45.72089" lon="8.62683" /><trkpt lat="45.72004" lon="8.62654" /><trkpt lat="45.71955" lon="8.62624" /><trkpt lat="45.71913" lon="8.62588" /><trkpt lat="45.71889" lon="8.62562" /><trkpt lat="45.71858" lon="8.62527" /><trkpt lat="45.7182" lon="8.62464" /><trkpt lat="45.71794" lon="8.62407" /><trkpt lat="45.71778" lon="8.62356" /><trkpt lat="45.71766" lon="8.62303" /><trkpt lat="45.71755" lon="8.62248" /><trkpt lat="45.7175" lon="8.62212" /><trkpt lat="45.71747" lon="8.62178" /><trkpt lat="45.71747" lon="8.62108" /><trkpt lat="45.71752" lon="8.62047" /><trkpt lat="45.71759" lon="8.62" /><trkpt lat="45.71771" lon="8.61949" /><trkpt lat="45.71808" lon="8.61809" /><trkpt lat="45.7183" lon="8.61724" /><trkpt lat="45.71837" lon="8.61695" /><trkpt lat="45.71847" lon="8.61648" /><trkpt lat="45.71861" lon="8.61565" /><trkpt lat="45.71876" lon="8.61434" /><trkpt lat="45.7189" lon="8.61239" /><trkpt lat="45.71898" lon="8.61108" /><trkpt lat="45.71899" lon="8.61034" /><trkpt lat="45.71896" lon="8.6096" /><trkpt lat="45.71879" lon="8.60689" /><trkpt lat="45.71851" lon="8.60254" /><trkpt lat="45.71836" lon="8.60004" /><trkpt lat="45.71828" lon="8.5988" /><trkpt lat="45.7182" lon="8.59755" /><trkpt lat="45.71804" lon="8.59504" /><trkpt lat="45.71796" lon="8.59376" /><trkpt lat="45.71787" lon="8.59254" /><trkpt lat="45.71783" lon="8.59159" /><trkpt lat="45.71783" lon="8.59112" /><trkpt lat="45.71785" lon="8.59064" /><trkpt lat="45.71788" lon="8.59018" /><trkpt lat="45.71793" lon="8.58971" /><trkpt lat="45.71798" lon="8.58931" /><trkpt lat="45.71805" lon="8.58891" /><trkpt lat="45.71824" lon="8.58809" /><trkpt lat="45.7185" lon="8.5873" /><trkpt lat="45.71867" lon="8.58688" /><trkpt lat="45.71894" lon="8.58632" /><trkpt lat="45.71915" lon="8.58592" /><trkpt lat="45.71937" lon="8.58553" /><trkpt lat="45.71959" lon="8.58519" /><trkpt lat="45.71983" lon="8.58488" /><trkpt lat="45.72034" lon="8.58431" /><trkpt lat="45.7208" lon="8.58391" /><trkpt lat="45.72123" lon="8.58356" /><trkpt lat="45.72198" lon="8.583" /><trkpt lat="45.72242" lon="8.58261" /><trkpt lat="45.72284" lon="8.58228" /><trkpt lat="45.72327" lon="8.58196" /><trkpt lat="45.72463" lon="8.58095" /><trkpt lat="45.72499" lon="8.58067" /><trkpt lat="45.72533" lon="8.58036" /><trkpt lat="45.72617" lon="8.57956" /><trkpt lat="45.72709" lon="8.57866" /><trkpt lat="45.72799" lon="8.57777" /><trkpt lat="45.72878" lon="8.57703" /><trkpt lat="45.72957" lon="8.57631" /><trkpt lat="45.73" lon="8.57595" /><trkpt lat="45.73044" lon="8.57564" /><trkpt lat="45.73089" lon="8.57538" /><trkpt lat="45.73133" lon="8.57514" /><trkpt lat="45.73362" lon="8.57402" /><trkpt lat="45.73412" lon="8.57373" /><trkpt lat="45.73461" lon="8.57338" /><trkpt lat="45.73544" lon="8.57268" /><trkpt lat="45.73644" lon="8.5718" /><trkpt lat="45.73744" lon="8.57092" /><trkpt lat="45.73898" lon="8.56959" /><trkpt lat="45.74052" lon="8.56826" /><trkpt lat="45.74156" lon="8.56735" /><trkpt lat="45.74259" lon="8.56646" /><trkpt lat="45.7432" lon="8.56592" /><trkpt lat="45.74381" lon="8.56542" /><trkpt lat="45.74417" lon="8.56516" /><trkpt lat="45.74453" lon="8.56494" /><trkpt lat="45.74484" lon="8.56478" /><trkpt lat="45.74515" lon="8.56463" /><trkpt lat="45.74577" lon="8.56441" /><trkpt lat="45.74617" lon="8.5643" /><trkpt lat="45.74656" lon="8.56423" /><trkpt lat="45.7471" lon="8.56419" /><trkpt lat="45.74726" lon="8.56418" /><trkpt lat="45.7474" lon="8.56417" /><trkpt lat="45.74807" lon="8.56412" /><trkpt lat="45.74873" lon="8.56397" /><trkpt lat="45.74921" lon="8.56379" /><trkpt lat="45.74951" lon="8.56366" /><trkpt lat="45.7498" lon="8.5635" /><trkpt lat="45.75042" lon="8.56309" /><trkpt lat="45.75049" lon="8.56303" /><trkpt lat="45.75052" lon="8.56302" /><trkpt lat="45.75068" lon="8.56291" /><trkpt lat="45.751" lon="8.56269" /><trkpt lat="45.75131" lon="8.56247" /><trkpt lat="45.75162" lon="8.56226" /><trkpt lat="45.75217" lon="8.5619" /><trkpt lat="45.7529" lon="8.56139" /><trkpt lat="45.75341" lon="8.56102" /><trkpt lat="45.75404" lon="8.56048" /><trkpt lat="45.75435" lon="8.56018" /><trkpt lat="45.75462" lon="8.55991" /><trkpt lat="45.75542" lon="8.55909" /><trkpt lat="45.75617" lon="8.55831" /><trkpt lat="45.75677" lon="8.55777" /><trkpt lat="45.75685" lon="8.55768" /><trkpt lat="45.75694" lon="8.5576" /><trkpt lat="45.75717" lon="8.55735" /><trkpt lat="45.75761" lon="8.5569" /><trkpt lat="45.75767" lon="8.55684" /><trkpt lat="45.75803" lon="8.55644" /><trkpt lat="45.7581" lon="8.55635" /><trkpt lat="45.75859" lon="8.55586" /><trkpt lat="45.75898" lon="8.55546" /><trkpt lat="45.75938" lon="8.5551" /><trkpt lat="45.7599" lon="8.55472" /><trkpt lat="45.76024" lon="8.55449" /><trkpt lat="45.76094" lon="8.55417" /><trkpt lat="45.76129" lon="8.55405" /><trkpt lat="45.76151" lon="8.554" /><trkpt lat="45.76339" lon="8.55363" /><trkpt lat="45.7649" lon="8.55333" /><trkpt lat="45.76533" lon="8.55322" /><trkpt lat="45.76573" lon="8.55302" /><trkpt lat="45.76609" lon="8.55278" /><trkpt lat="45.76643" lon="8.55246" /><trkpt lat="45.76674" lon="8.55208" /><trkpt lat="45.76705" lon="8.55164" /><trkpt lat="45.76752" lon="8.55089" /><trkpt lat="45.76799" lon="8.55013" /><trkpt lat="45.76897" lon="8.54863" /><trkpt lat="45.77003" lon="8.54694" /><trkpt lat="45.77073" lon="8.546" /><trkpt lat="45.77133" lon="8.54531" /><trkpt lat="45.77182" lon="8.54481" /><trkpt lat="45.77217" lon="8.54449" /><trkpt lat="45.77251" lon="8.54426" /><trkpt lat="45.77279" lon="8.54408" /><trkpt lat="45.77417" lon="8.54336" /><trkpt lat="45.77524" lon="8.5428" /><trkpt lat="45.77567" lon="8.54257" /><trkpt lat="45.77603" lon="8.54233" /><trkpt lat="45.77681" lon="8.54176" /><trkpt lat="45.77726" lon="8.54142" /><trkpt lat="45.77762" lon="8.54115" /><trkpt lat="45.77801" lon="8.54093" /><trkpt lat="45.77843" lon="8.54075" /><trkpt lat="45.77887" lon="8.54061" /><trkpt lat="45.78722" lon="8.53822" /><trkpt lat="45.78755" lon="8.53811" /><trkpt lat="45.78786" lon="8.53796" /><trkpt lat="45.78817" lon="8.53779" /><trkpt lat="45.7899" lon="8.53647" /><trkpt lat="45.79033" lon="8.53613" /><trkpt lat="45.79043" lon="8.53607" /><trkpt lat="45.79076" lon="8.53587" /><trkpt lat="45.79112" lon="8.53569" /><trkpt lat="45.7912" lon="8.53565" /><trkpt lat="45.79164" lon="8.53548" /><trkpt lat="45.79194" lon="8.53539" /><trkpt lat="45.79224" lon="8.53533" /><trkpt lat="45.79252" lon="8.53529" /><trkpt lat="45.7928" lon="8.53527" /><trkpt lat="45.79327" lon="8.53531" /><trkpt lat="45.79373" lon="8.53537" /><trkpt lat="45.79446" lon="8.5355" /><trkpt lat="45.79571" lon="8.53574" /><trkpt lat="45.79662" lon="8.53593" /><trkpt lat="45.79749" lon="8.53597" /><trkpt lat="45.79838" lon="8.53596" /><trkpt lat="45.79889" lon="8.53594" /><trkpt lat="45.7993" lon="8.53596" /><trkpt lat="45.79982" lon="8.536" /><trkpt lat="45.80033" lon="8.53609" /><trkpt lat="45.8008" lon="8.53621" /><trkpt lat="45.80125" lon="8.53636" /><trkpt lat="45.80222" lon="8.53671" /><trkpt lat="45.80264" lon="8.53688" /><trkpt lat="45.80315" lon="8.53714" /><trkpt lat="45.80357" lon="8.5374" /><trkpt lat="45.80391" lon="8.53766" /><trkpt lat="45.80507" lon="8.53852" /><trkpt lat="45.80636" lon="8.53949" /><trkpt lat="45.80675" lon="8.53974" /><trkpt lat="45.80714" lon="8.53997" /><trkpt lat="45.80791" lon="8.54036" /><trkpt lat="45.80935" lon="8.54107" /><trkpt lat="45.8108" lon="8.54179" /><trkpt lat="45.81203" lon="8.5424" /><trkpt lat="45.81255" lon="8.54269" /><trkpt lat="45.81306" lon="8.54302" /><trkpt lat="45.8137" lon="8.5435" /><trkpt lat="45.81418" lon="8.54393" /><trkpt lat="45.81508" lon="8.54483" /><trkpt lat="45.81553" lon="8.54526" /><trkpt lat="45.81612" lon="8.54583" /><trkpt lat="45.81718" lon="8.54685" /><trkpt lat="45.81936" lon="8.54907" /><trkpt lat="45.82085" lon="8.55062" /><trkpt lat="45.8216" lon="8.55141" /><trkpt lat="45.82234" lon="8.55221" /><trkpt lat="45.82262" lon="8.55255" /><trkpt lat="45.8229" lon="8.55292" /><trkpt lat="45.82311" lon="8.55326" /><trkpt lat="45.82333" lon="8.55364" /><trkpt lat="45.82366" lon="8.55431" /><trkpt lat="45.82407" lon="8.55538" /><trkpt lat="45.82417" lon="8.55566" /><trkpt lat="45.82485" lon="8.55729" /><trkpt lat="45.82507" lon="8.55773" /><trkpt lat="45.82531" lon="8.55815" /><trkpt lat="45.82552" lon="8.55847" /><trkpt lat="45.82574" lon="8.55878" /><trkpt lat="45.82602" lon="8.55915" /><trkpt lat="45.82619" lon="8.55935" /><trkpt lat="45.82651" lon="8.55968" /><trkpt lat="45.82678" lon="8.55993" /><trkpt lat="45.82724" lon="8.56028" /><trkpt lat="45.82776" lon="8.56064" /><trkpt lat="45.82838" lon="8.56103" /><trkpt lat="45.82899" lon="8.56146" /><trkpt lat="45.82925" lon="8.56167" /><trkpt lat="45.82952" lon="8.56192" /><trkpt lat="45.8298" lon="8.56222" /><trkpt lat="45.83006" lon="8.56253" /><trkpt lat="45.83051" lon="8.56313" /><trkpt lat="45.83104" lon="8.56388" /><trkpt lat="45.83167" lon="8.56476" /><trkpt lat="45.8323" lon="8.56563" /><trkpt lat="45.83271" lon="8.56611" /><trkpt lat="45.83313" lon="8.56657" /><trkpt lat="45.83337" lon="8.5668" /><trkpt lat="45.83362" lon="8.56702" /><trkpt lat="45.83412" lon="8.56743" /><trkpt lat="45.8347" lon="8.56785" /><trkpt lat="45.83585" lon="8.56867" /><trkpt lat="45.83674" lon="8.56925" /><trkpt lat="45.83788" lon="8.5699" /><trkpt lat="45.83846" lon="8.57022" /><trkpt lat="45.8392" lon="8.57064" /><trkpt lat="45.83965" lon="8.57084" /><trkpt lat="45.83995" lon="8.57094" /><trkpt lat="45.84023" lon="8.57101" /><trkpt lat="45.84067" lon="8.57107" /><trkpt lat="45.84106" lon="8.57109" /><trkpt lat="45.84137" lon="8.57107" /><trkpt lat="45.842" lon="8.57102" /><trkpt lat="45.84285" lon="8.57092" /><trkpt lat="45.84334" lon="8.57088" /><trkpt lat="45.84493" lon="8.57068" /><trkpt lat="45.84523" lon="8.57063" /><trkpt lat="45.84607" lon="8.57046" /><trkpt lat="45.84679" lon="8.57029" /><trkpt lat="45.84729" lon="8.57015" /><trkpt lat="45.84789" lon="8.56994" /><trkpt lat="45.84851" lon="8.56969" /><trkpt lat="45.84912" lon="8.56947" /><trkpt lat="45.85022" lon="8.56912" /><trkpt lat="45.85025" lon="8.5691" /><trkpt lat="45.85136" lon="8.56878" /><trkpt lat="45.85281" lon="8.56837" /><trkpt lat="45.85465" lon="8.56778" /><trkpt lat="45.85624" lon="8.56726" /><trkpt lat="45.85656" lon="8.56716" /><trkpt lat="45.85689" lon="8.56707" /><trkpt lat="45.8572" lon="8.56701" /><trkpt lat="45.85752" lon="8.56698" /><trkpt lat="45.85899" lon="8.5669" /><trkpt lat="45.86032" lon="8.56682" /><trkpt lat="45.86085" lon="8.56674" /><trkpt lat="45.86136" lon="8.56659" /><trkpt lat="45.86263" lon="8.56613" /><trkpt lat="45.86336" lon="8.56587" /><trkpt lat="45.86632" lon="8.56513" /><trkpt lat="45.86738" lon="8.56487" /><trkpt lat="45.86788" lon="8.56472" /><trkpt lat="45.86813" lon="8.56461" /><trkpt lat="45.86847" lon="8.56442" /><trkpt lat="45.86878" lon="8.56424" /><trkpt lat="45.86951" lon="8.56368" /><trkpt lat="45.86999" lon="8.56326" /><trkpt lat="45.87062" lon="8.56273" /><trkpt lat="45.87124" lon="8.56228" /><trkpt lat="45.87285" lon="8.56125" /><trkpt lat="45.87337" lon="8.56078" /><trkpt lat="45.8743" lon="8.55966" /><trkpt lat="45.87524" lon="8.55858" /><trkpt lat="45.87594" lon="8.55789" /><trkpt lat="45.87696" lon="8.557" /><trkpt lat="45.87736" lon="8.55659" /><trkpt lat="45.87763" lon="8.55628" /><trkpt lat="45.8779" lon="8.55593" /><trkpt lat="45.87814" lon="8.5556" /><trkpt lat="45.8784" lon="8.55518" /><trkpt lat="45.87862" lon="8.55476" /><trkpt lat="45.87887" lon="8.55419" /><trkpt lat="45.87903" lon="8.55379" /><trkpt lat="45.87927" lon="8.55314" /><trkpt lat="45.87943" lon="8.55264" /><trkpt lat="45.87956" lon="8.55219" /><trkpt lat="45.87968" lon="8.5517" /><trkpt lat="45.87978" lon="8.55121" /><trkpt lat="45.87989" lon="8.55052" /><trkpt lat="45.87996" lon="8.54983" /><trkpt lat="45.88" lon="8.54915" /><trkpt lat="45.88002" lon="8.5484" /><trkpt lat="45.88002" lon="8.54767" /><trkpt lat="45.88009" lon="8.54364" /><trkpt lat="45.88012" lon="8.54294" /><trkpt lat="45.88016" lon="8.54238" /><trkpt lat="45.88022" lon="8.54187" /><trkpt lat="45.88028" lon="8.54137" /><trkpt lat="45.88037" lon="8.54085" /><trkpt lat="45.88046" lon="8.54037" /><trkpt lat="45.88056" lon="8.53993" /><trkpt lat="45.88058" lon="8.53988" /><trkpt lat="45.88066" lon="8.53953" /><trkpt lat="45.88083" lon="8.53897" /><trkpt lat="45.88102" lon="8.53844" /><trkpt lat="45.88168" lon="8.53691" /><trkpt lat="45.88229" lon="8.53561" /><trkpt lat="45.88294" lon="8.53427" /><trkpt lat="45.88347" lon="8.53328" /><trkpt lat="45.88349" lon="8.53325" /><trkpt lat="45.88368" lon="8.5329" /><trkpt lat="45.88382" lon="8.53266" /><trkpt lat="45.8844" lon="8.53164" /><trkpt lat="45.88531" lon="8.53004" /><trkpt lat="45.8861" lon="8.52861" /><trkpt lat="45.88626" lon="8.52832" /><trkpt lat="45.88644" lon="8.52796" /><trkpt lat="45.88665" lon="8.52746" /><trkpt lat="45.88679" lon="8.52709" /><trkpt lat="45.88708" lon="8.52621" /><trkpt lat="45.88714" lon="8.52599" /><trkpt lat="45.88719" lon="8.52581" /><trkpt lat="45.88726" lon="8.52558" /><trkpt lat="45.88733" lon="8.52528" /><trkpt lat="45.88737" lon="8.52514" /><trkpt lat="45.88753" lon="8.52473" /><trkpt lat="45.88869" lon="8.5205" /><trkpt lat="45.88895" lon="8.51972" /><trkpt lat="45.88925" lon="8.51899" /><trkpt lat="45.88955" lon="8.51841" /><trkpt lat="45.88987" lon="8.51784" /><trkpt lat="45.89006" lon="8.51754" /><trkpt lat="45.89025" lon="8.51728" /><trkpt lat="45.89045" lon="8.51706" /><trkpt lat="45.89067" lon="8.51683" /><trkpt lat="45.89088" lon="8.51664" /><trkpt lat="45.89105" lon="8.51652" /><trkpt lat="45.89109" lon="8.51649" /><trkpt lat="45.89129" lon="8.51635" /><trkpt lat="45.8915" lon="8.51625" /><trkpt lat="45.89195" lon="8.51607" /><trkpt lat="45.89244" lon="8.51592" /><trkpt lat="45.89328" lon="8.51569" /><trkpt lat="45.89384" lon="8.5155" /><trkpt lat="45.89429" lon="8.51532" /><trkpt lat="45.89463" lon="8.51514" /><trkpt lat="45.89491" lon="8.51495" /><trkpt lat="45.89525" lon="8.5147" /><trkpt lat="45.89553" lon="8.51446" /><trkpt lat="45.89681" lon="8.51328" /><trkpt lat="45.8976" lon="8.51256" /><trkpt lat="45.89847" lon="8.51173" /><trkpt lat="45.89911" lon="8.51096" /><trkpt lat="45.89932" lon="8.51063" /><trkpt lat="45.89952" lon="8.5103" /><trkpt lat="45.89984" lon="8.50964" /><trkpt lat="45.9001" lon="8.50909" /><trkpt lat="45.9014" lon="8.50604" /><trkpt lat="45.90156" lon="8.50569" /><trkpt lat="45.9018" lon="8.50526" /><trkpt lat="45.90206" lon="8.50485" /><trkpt lat="45.90231" lon="8.50453" /><trkpt lat="45.90259" lon="8.5042" /><trkpt lat="45.90289" lon="8.50392" /><trkpt lat="45.90317" lon="8.50371" /><trkpt lat="45.90344" lon="8.50354" /><trkpt lat="45.9038" lon="8.50337" /><trkpt lat="45.90411" lon="8.50326" /><trkpt lat="45.90441" lon="8.50317" /><trkpt lat="45.90463" lon="8.50313" /><trkpt lat="45.90615" lon="8.50287" /><trkpt lat="45.90684" lon="8.50276" /><trkpt lat="45.90748" lon="8.5026" /><trkpt lat="45.90857" lon="8.50235" /><trkpt lat="45.90884" lon="8.50228" /><trkpt lat="45.9092" lon="8.50218" /><trkpt lat="45.90972" lon="8.50202" /><trkpt lat="45.91007" lon="8.50189" /><trkpt lat="45.91044" lon="8.50172" /><trkpt lat="45.91079" lon="8.50156" /><trkpt lat="45.91111" lon="8.50137" /><trkpt lat="45.91178" lon="8.50095" /><trkpt lat="45.91206" lon="8.50076" /><trkpt lat="45.91252" lon="8.50039" /><trkpt lat="45.91267" lon="8.50025" /><trkpt lat="45.91298" lon="8.49996" /><trkpt lat="45.91309" lon="8.49983" /><trkpt lat="45.9135" lon="8.49941" /><trkpt lat="45.91394" lon="8.49893" /><trkpt lat="45.9148" lon="8.49807" /><trkpt lat="45.91533" lon="8.49759" /><trkpt lat="45.91617" lon="8.49687" /><trkpt lat="45.91765" lon="8.49567" /><trkpt lat="45.91877" lon="8.49477" /><trkpt lat="45.91933" lon="8.49433" /><trkpt lat="45.9199" lon="8.49384" /><trkpt lat="45.92036" lon="8.49339" /><trkpt lat="45.92082" lon="8.49289" /><trkpt lat="45.92158" lon="8.4919" /><trkpt lat="45.92233" lon="8.49089" /><trkpt lat="45.92286" lon="8.49018" /><trkpt lat="45.92328" lon="8.48957" /><trkpt lat="45.9236" lon="8.48908" /><trkpt lat="45.92381" lon="8.48871" /><trkpt lat="45.92402" lon="8.4883" /><trkpt lat="45.92426" lon="8.48781" /><trkpt lat="45.92444" lon="8.48739" /><trkpt lat="45.92462" lon="8.48691" /><trkpt lat="45.92477" lon="8.48646" /><trkpt lat="45.9249" lon="8.48603" /><trkpt lat="45.92503" lon="8.48559" /><trkpt lat="45.92515" lon="8.48505" /><trkpt lat="45.92525" lon="8.48457" /><trkpt lat="45.92533" lon="8.48409" /><trkpt lat="45.92539" lon="8.48371" /><trkpt lat="45.92545" lon="8.48324" /><trkpt lat="45.92549" lon="8.48288" /><trkpt lat="45.92554" lon="8.48233" /><trkpt lat="45.92565" lon="8.48097" /><trkpt lat="45.92569" lon="8.48045" /><trkpt lat="45.92575" lon="8.47998" /><trkpt lat="45.92582" lon="8.47956" /><trkpt lat="45.92593" lon="8.47903" /><trkpt lat="45.92605" lon="8.47853" /><trkpt lat="45.92621" lon="8.478" /><trkpt lat="45.92637" lon="8.47757" /><trkpt lat="45.92655" lon="8.47714" /><trkpt lat="45.92675" lon="8.4767" /><trkpt lat="45.92693" lon="8.47637" /><trkpt lat="45.92713" lon="8.47604" /><trkpt lat="45.92736" lon="8.47574" /><trkpt lat="45.9276" lon="8.47542" /><trkpt lat="45.92794" lon="8.47505" /><trkpt lat="45.92824" lon="8.47476" /><trkpt lat="45.92873" lon="8.47439" /><trkpt lat="45.92937" lon="8.47402" /><trkpt lat="45.92963" lon="8.47391" /><trkpt lat="45.93005" lon="8.47376" /><trkpt lat="45.93054" lon="8.47366" /><trkpt lat="45.93155" lon="8.47354" /><trkpt lat="45.93294" lon="8.47341" /><trkpt lat="45.93432" lon="8.47328" /><trkpt lat="45.93492" lon="8.47322" /><trkpt lat="45.93551" lon="8.47316" /><trkpt lat="45.93688" lon="8.47303" /><trkpt lat="45.93819" lon="8.47291" /><trkpt lat="45.93912" lon="8.47281" /><trkpt lat="45.94006" lon="8.47273" /><trkpt lat="45.94141" lon="8.47259" /><trkpt lat="45.94165" lon="8.47257" /><trkpt lat="45.9421" lon="8.47245" /><trkpt lat="45.94256" lon="8.47242" /><trkpt lat="45.94286" lon="8.4724" /><trkpt lat="45.94313" lon="8.47238" /><trkpt lat="45.94348" lon="8.47234" /><trkpt lat="45.94382" lon="8.47228" /><trkpt lat="45.94397" lon="8.47225" /><trkpt lat="45.94427" lon="8.47216" /><trkpt lat="45.94451" lon="8.47208" /><trkpt lat="45.94482" lon="8.47193" /><trkpt lat="45.94492" lon="8.47187" /><trkpt lat="45.94552" lon="8.47148" /><trkpt lat="45.94581" lon="8.47123" /><trkpt lat="45.94611" lon="8.47091" /><trkpt lat="45.94616" lon="8.47086" /><trkpt lat="45.94624" lon="8.47076" /><trkpt lat="45.94662" lon="8.47033" /><trkpt lat="45.94711" lon="8.46966" /><trkpt lat="45.94746" lon="8.46895" /><trkpt lat="45.94751" lon="8.46887" /><trkpt lat="45.94775" lon="8.46832" /><trkpt lat="45.94794" lon="8.46779" /><trkpt lat="45.94812" lon="8.46727" /><trkpt lat="45.94827" lon="8.46672" /><trkpt lat="45.94847" lon="8.4659" /><trkpt lat="45.94864" lon="8.46538" /><trkpt lat="45.94884" lon="8.46478" /><trkpt lat="45.94911" lon="8.46415" /><trkpt lat="45.94941" lon="8.46359" /><trkpt lat="45.94972" lon="8.46315" /><trkpt lat="45.95019" lon="8.46255" /><trkpt lat="45.9514" lon="8.46103" /><trkpt lat="45.95206" lon="8.4603" /><trkpt lat="45.95259" lon="8.45967" /><trkpt lat="45.95336" lon="8.4589" /><trkpt lat="45.95452" lon="8.45747" /><trkpt lat="45.95548" lon="8.45597" /><trkpt lat="45.95632" lon="8.4545" /><trkpt lat="45.95729" lon="8.4527" /><trkpt lat="45.95755" lon="8.45221" /><trkpt lat="45.95785" lon="8.45165" /><trkpt lat="45.95806" lon="8.45112" /><trkpt lat="45.95822" lon="8.45069" /><trkpt lat="45.95852" lon="8.44956" /><trkpt lat="45.95901" lon="8.44673" /><trkpt lat="45.95911" lon="8.44634" /><trkpt lat="45.95924" lon="8.44589" /><trkpt lat="45.95948" lon="8.44521" /><trkpt lat="45.9596" lon="8.44494" /><trkpt lat="45.95967" lon="8.44477" /><trkpt lat="45.95982" lon="8.44444" /><trkpt lat="45.96017" lon="8.44374" /><trkpt lat="45.96029" lon="8.44346" /><trkpt lat="45.96035" lon="8.44331" /><trkpt lat="45.96083" lon="8.4423" /><trkpt lat="45.96089" lon="8.44217" /><trkpt lat="45.96139" lon="8.44103" /><trkpt lat="45.96154" lon="8.44071" /><trkpt lat="45.96225" lon="8.4391" /><trkpt lat="45.96295" lon="8.43752" /><trkpt lat="45.96353" lon="8.43623" /><trkpt lat="45.96377" lon="8.43573" /><trkpt lat="45.96424" lon="8.43492" /><trkpt lat="45.9644" lon="8.43464" /><trkpt lat="45.96502" lon="8.43379" /><trkpt lat="45.96535" lon="8.43338" /><trkpt lat="45.96587" lon="8.4328" /><trkpt lat="45.96616" lon="8.43252" /><trkpt lat="45.96671" lon="8.43203" /><trkpt lat="45.96754" lon="8.43134" /><trkpt lat="45.96842" lon="8.43064" /><trkpt lat="45.96932" lon="8.4299" /><trkpt lat="45.97016" lon="8.42922" /><trkpt lat="45.97162" lon="8.42801" /><trkpt lat="45.97247" lon="8.42726" /><trkpt lat="45.97271" lon="8.42702" /><trkpt lat="45.97335" lon="8.4263" /><trkpt lat="45.97348" lon="8.42617" /><trkpt lat="45.97383" lon="8.4257" /><trkpt lat="45.97414" lon="8.42522" /><trkpt lat="45.97461" lon="8.42445" /><trkpt lat="45.97465" lon="8.42436" /><trkpt lat="45.97468" lon="8.42429" /><trkpt lat="45.97492" lon="8.42385" /><trkpt lat="45.97549" lon="8.42283" /><trkpt lat="45.97555" lon="8.42271" /><trkpt lat="45.97558" lon="8.42266" /><trkpt lat="45.97579" lon="8.42228" /><trkpt lat="45.97592" lon="8.42201" /><trkpt lat="45.97624" lon="8.42149" /><trkpt lat="45.97646" lon="8.42115" /><trkpt lat="45.97685" lon="8.4206" /><trkpt lat="45.97705" lon="8.42036" /><trkpt lat="45.97839" lon="8.41878" /><trkpt lat="45.97972" lon="8.41721" /><trkpt lat="45.98108" lon="8.41563" /><trkpt lat="45.98142" lon="8.41524" /><trkpt lat="45.98208" lon="8.41467" /><trkpt lat="45.98248" lon="8.41439" /><trkpt lat="45.98297" lon="8.41408" /><trkpt lat="45.9836" lon="8.41381" /><trkpt lat="45.98427" lon="8.41359" /><trkpt lat="45.98499" lon="8.41341" /><trkpt lat="45.98512" lon="8.41338" /><trkpt lat="45.98562" lon="8.41325" /><trkpt lat="45.98608" lon="8.41309" /><trkpt lat="45.98652" lon="8.41292" /><trkpt lat="45.98679" lon="8.41277" /><trkpt lat="45.98725" lon="8.41249" /><trkpt lat="45.9875" lon="8.41231" /><trkpt lat="45.98766" lon="8.41217" /><trkpt lat="45.98817" lon="8.41163" /><trkpt lat="45.98836" lon="8.4114" /><trkpt lat="45.9886" lon="8.41105" /><trkpt lat="45.98884" lon="8.41064" /><trkpt lat="45.98922" lon="8.40993" /><trkpt lat="45.98946" lon="8.40939" /><trkpt lat="45.98991" lon="8.40816" /><trkpt lat="45.99003" lon="8.40786" /><trkpt lat="45.99049" lon="8.40659" /><trkpt lat="45.9916" lon="8.40353" /><trkpt lat="45.99199" lon="8.40246" /><trkpt lat="45.99273" lon="8.40044" /><trkpt lat="45.99376" lon="8.39758" /><trkpt lat="45.99401" lon="8.39688" /><trkpt lat="45.99415" lon="8.39641" /><trkpt lat="45.9943" lon="8.39591" /><trkpt lat="45.99442" lon="8.39532" /><trkpt lat="45.99456" lon="8.39463" /><trkpt lat="45.99466" lon="8.39386" /><trkpt lat="45.99471" lon="8.39278" /><trkpt lat="45.99472" lon="8.39229" /><trkpt lat="45.99466" lon="8.39105" /><trkpt lat="45.99443" lon="8.38778" /><trkpt lat="45.9944" lon="8.38737" /><trkpt lat="45.99432" lon="8.38619" /><trkpt lat="45.99415" lon="8.38408" /><trkpt lat="45.99398" lon="8.38166" /><trkpt lat="45.99385" lon="8.37967" /><trkpt lat="45.9938" lon="8.3787" /><trkpt lat="45.99378" lon="8.37814" /><trkpt lat="45.99376" lon="8.37745" /><trkpt lat="45.99375" lon="8.37691" /><trkpt lat="45.99375" lon="8.37674" /><trkpt lat="45.99375" lon="8.37606" /><trkpt lat="45.99375" lon="8.37474" /><trkpt lat="45.99374" lon="8.37394" /><trkpt lat="45.99373" lon="8.37171" /><trkpt lat="45.99372" lon="8.36966" /><trkpt lat="45.99375" lon="8.36851" /><trkpt lat="45.99378" lon="8.36792" /><trkpt lat="45.9938" lon="8.36751" /><trkpt lat="45.99385" lon="8.36698" /><trkpt lat="45.99393" lon="8.36638" /><trkpt lat="45.99443" lon="8.3637" /><trkpt lat="45.99462" lon="8.36258" /><trkpt lat="45.99488" lon="8.36138" /><trkpt lat="45.99511" lon="8.36048" /><trkpt lat="45.99604" lon="8.35683" /><trkpt lat="45.99677" lon="8.35395" /><trkpt lat="45.9972" lon="8.35222" /><trkpt lat="45.99731" lon="8.35178" /><trkpt lat="45.99739" lon="8.35145" /><trkpt lat="45.99766" lon="8.35032" /><trkpt lat="45.9982" lon="8.34824" /><trkpt lat="45.99869" lon="8.34628" /><trkpt lat="45.99932" lon="8.3438" /><trkpt lat="45.99986" lon="8.34166" /><trkpt lat="46.00011" lon="8.34065" /><trkpt lat="46.00039" lon="8.33954" /><trkpt lat="46.00069" lon="8.33828" /><trkpt lat="46.00083" lon="8.33763" /><trkpt lat="46.00098" lon="8.33683" /><trkpt lat="46.00118" lon="8.33545" /><trkpt lat="46.00145" lon="8.3336" /><trkpt lat="46.00147" lon="8.33349" /><trkpt lat="46.00158" lon="8.33238" /><trkpt lat="46.0018" lon="8.3309" /><trkpt lat="46.0019" lon="8.33015" /><trkpt lat="46.00194" lon="8.32985" /><trkpt lat="46.00201" lon="8.32938" /><trkpt lat="46.00233" lon="8.32708" /><trkpt lat="46.00275" lon="8.32401" /><trkpt lat="46.0031" lon="8.32165" /><trkpt lat="46.00322" lon="8.32073" /><trkpt lat="46.0033" lon="8.32025" /><trkpt lat="46.00352" lon="8.31854" /><trkpt lat="46.00358" lon="8.31759" /><trkpt lat="46.00361" lon="8.31649" /><trkpt lat="46.00362" lon="8.31447" /><trkpt lat="46.00364" lon="8.31221" /><trkpt lat="46.00365" lon="8.30967" /><trkpt lat="46.00366" lon="8.30667" /><trkpt lat="46.00367" lon="8.30403" /><trkpt lat="46.00369" lon="8.30163" /><trkpt lat="46.00374" lon="8.30051" /><trkpt lat="46.00378" lon="8.30018" /><trkpt lat="46.00382" lon="8.29987" /><trkpt lat="46.0039" lon="8.29939" /><trkpt lat="46.00402" lon="8.29892" /><trkpt lat="46.00411" lon="8.29858" /><trkpt lat="46.00427" lon="8.29804" /><trkpt lat="46.00437" lon="8.29771" /><trkpt lat="46.0045" lon="8.29741" /><trkpt lat="46.00489" lon="8.2966" /><trkpt lat="46.00553" lon="8.29536" /><trkpt lat="46.0059" lon="8.29468" /><trkpt lat="46.00648" lon="8.29355" /><trkpt lat="46.00661" lon="8.2933" /><trkpt lat="46.00697" lon="8.29262" /><trkpt lat="46.00728" lon="8.2921" /><trkpt lat="46.00749" lon="8.29178" /><trkpt lat="46.0077" lon="8.29152" /><trkpt lat="46.00787" lon="8.29132" /><trkpt lat="46.00812" lon="8.29102" /><trkpt lat="46.00922" lon="8.28984" /><trkpt lat="46.01032" lon="8.28866" /><trkpt lat="46.0115" lon="8.28736" /><trkpt lat="46.01241" lon="8.2864" /><trkpt lat="46.01301" lon="8.28586" /><trkpt lat="46.01361" lon="8.28542" /><trkpt lat="46.01397" lon="8.28524" /><trkpt lat="46.01432" lon="8.2851" /><trkpt lat="46.01468" lon="8.28498" /><trkpt lat="46.01503" lon="8.2849" /><trkpt lat="46.01537" lon="8.28485" /><trkpt lat="46.01571" lon="8.28483" /><trkpt lat="46.01598" lon="8.28482" /><trkpt lat="46.01626" lon="8.28483" /><trkpt lat="46.01728" lon="8.28485" /><trkpt lat="46.0183" lon="8.28484" /><trkpt lat="46.01885" lon="8.28477" /><trkpt lat="46.01924" lon="8.28466" /><trkpt lat="46.02045" lon="8.28422" /><trkpt lat="46.02062" lon="8.28417" /><trkpt lat="46.02201" lon="8.28363" /><trkpt lat="46.02324" lon="8.28352" /><trkpt lat="46.02367" lon="8.28358" /><trkpt lat="46.02475" lon="8.28374" /><trkpt lat="46.02509" lon="8.28383" /><trkpt lat="46.0268" lon="8.2845" /><trkpt lat="46.02708" lon="8.28461" /><trkpt lat="46.02747" lon="8.28475" /><trkpt lat="46.02785" lon="8.28485" /><trkpt lat="46.02808" lon="8.2849" /><trkpt lat="46.02832" lon="8.28493" /><trkpt lat="46.02899" lon="8.28491" /><trkpt lat="46.02996" lon="8.28488" /><trkpt lat="46.03079" lon="8.28479" /><trkpt lat="46.03147" lon="8.28461" /><trkpt lat="46.03233" lon="8.28417" /><trkpt lat="46.03294" lon="8.28369" /><trkpt lat="46.03379" lon="8.28276" /><trkpt lat="46.0339" lon="8.28263" /><trkpt lat="46.03407" lon="8.28241" /><trkpt lat="46.03496" lon="8.28123" /><trkpt lat="46.03587" lon="8.28005" /><trkpt lat="46.03619" lon="8.27966" /><trkpt lat="46.03648" lon="8.27932" /><trkpt lat="46.03682" lon="8.27897" /><trkpt lat="46.03724" lon="8.27861" /><trkpt lat="46.03777" lon="8.2782" /><trkpt lat="46.03841" lon="8.27781" /><trkpt lat="46.03894" lon="8.27759" /><trkpt lat="46.0393" lon="8.27746" /><trkpt lat="46.03965" lon="8.27737" /><trkpt lat="46.03994" lon="8.27731" /><trkpt lat="46.04011" lon="8.27728" /><trkpt lat="46.04039" lon="8.27724" /><trkpt lat="46.04072" lon="8.27723" /><trkpt lat="46.04117" lon="8.27724" /><trkpt lat="46.04152" lon="8.27725" /><trkpt lat="46.04413" lon="8.27751" /><trkpt lat="46.04542" lon="8.27764" /><trkpt lat="46.0459" lon="8.27769" /><trkpt lat="46.04705" lon="8.27779" /><trkpt lat="46.04735" lon="8.27782" /><trkpt lat="46.04935" lon="8.27801" /><trkpt lat="46.05129" lon="8.27819" /><trkpt lat="46.05136" lon="8.27819" /><trkpt lat="46.0527" lon="8.27833" /><trkpt lat="46.05308" lon="8.27838" /><trkpt lat="46.05344" lon="8.27846" /><trkpt lat="46.05372" lon="8.27854" /><trkpt lat="46.05408" lon="8.27868" /><trkpt lat="46.05441" lon="8.27885" /><trkpt lat="46.05474" lon="8.27905" /><trkpt lat="46.05508" lon="8.2793" /><trkpt lat="46.05551" lon="8.27965" /><trkpt lat="46.05718" lon="8.28108" /><trkpt lat="46.05827" lon="8.28187" /><trkpt lat="46.0584" lon="8.28197" /><trkpt lat="46.05954" lon="8.28277" /><trkpt lat="46.06035" lon="8.2833" /><trkpt lat="46.06182" lon="8.28415" /><trkpt lat="46.06283" lon="8.28487" /><trkpt lat="46.06392" lon="8.28594" /><trkpt lat="46.06452" lon="8.28652" /><trkpt lat="46.0673" lon="8.28882" /><trkpt lat="46.06838" lon="8.28967" /><trkpt lat="46.0691" lon="8.29013" /><trkpt lat="46.07285" lon="8.29224" /><trkpt lat="46.07294" lon="8.29229" /><trkpt lat="46.07525" lon="8.2936" /><trkpt lat="46.07588" lon="8.2939" /><trkpt lat="46.07618" lon="8.29403" /><trkpt lat="46.07659" lon="8.29415" /><trkpt lat="46.07731" lon="8.29434" /><trkpt lat="46.07791" lon="8.29443" /><trkpt lat="46.07896" lon="8.29449" /><trkpt lat="46.07902" lon="8.2945" /><trkpt lat="46.08113" lon="8.29462" /><trkpt lat="46.08139" lon="8.29463" /><trkpt lat="46.0822" lon="8.29468" /><trkpt lat="46.08257" lon="8.2947" /><trkpt lat="46.0841" lon="8.29479" /><trkpt lat="46.0843" lon="8.2948" /><trkpt lat="46.08563" lon="8.29487" /><trkpt lat="46.08773" lon="8.29498" /><trkpt lat="46.08791" lon="8.29499" /><trkpt lat="46.08949" lon="8.29508" /><trkpt lat="46.09041" lon="8.29514" /><trkpt lat="46.09057" lon="8.29515" /><trkpt lat="46.09126" lon="8.29518" /><trkpt lat="46.10091" lon="8.29572" /><trkpt lat="46.10108" lon="8.29573" /><trkpt lat="46.10608" lon="8.29601" /><trkpt lat="46.10639" lon="8.29603" /><trkpt lat="46.10966" lon="8.29619" /><trkpt lat="46.11093" lon="8.29627" /><trkpt lat="46.11151" lon="8.29633" /><trkpt lat="46.11184" lon="8.29637" /><trkpt lat="46.11189" lon="8.29637" /><trkpt lat="46.11195" lon="8.29636" /><trkpt lat="46.11204" lon="8.29635" /><trkpt lat="46.11209" lon="8.29635" /><trkpt lat="46.11216" lon="8.29635" /><trkpt lat="46.1124" lon="8.29638" /><trkpt lat="46.11251" lon="8.29638" /><trkpt lat="46.11285" lon="8.29641" /><trkpt lat="46.11293" lon="8.29642" /><trkpt lat="46.11534" lon="8.29662" /><trkpt lat="46.11541" lon="8.29663" /><trkpt lat="46.11541" lon="8.29663" /></trkseg></trk></gpx>