<gpx version="1.1" creator="Trainlog.me"><trk><name>Trip Path</name><trkseg><trkpt lat="46.43593" lon="6.9106" /><trkpt lat="46.43602" lon="6.91055" /><trkpt lat="46.43688" lon="6.91004" /><trkpt lat="46.4372" lon="6.90986" /><trkpt lat="46.43733" lon="6.90977" /><trkpt lat="46.43746" lon="6.90969" /><trkpt lat="46.43759" lon="6.9096" /><trkpt lat="46.43772" lon="6.9095" /><trkpt lat="46.43782" lon="6.90942" /><trkpt lat="46.43792" lon="6.90934" /><trkpt lat="46.43802" lon="6.90925" /><trkpt lat="46.43811" lon="6.90915" /><trkpt lat="46.4382" lon="6.90906" /><trkpt lat="46.43829" lon="6.90897" /><trkpt lat="46.43838" lon="6.90887" /><trkpt lat="46.43847" lon="6.90876" /><trkpt lat="46.43856" lon="6.90864" /><trkpt lat="46.43866" lon="6.90851" /><trkpt lat="46.43874" lon="6.9084" /><trkpt lat="46.43882" lon="6.90827" /><trkpt lat="46.43891" lon="6.90813" /><trkpt lat="46.43899" lon="6.90799" /><trkpt lat="46.43907" lon="6.90785" /><trkpt lat="46.43914" lon="6.90771" /><trkpt lat="46.43923" lon="6.90753" /><trkpt lat="46.4393" lon="6.90739" /><trkpt lat="46.43938" lon="6.9072" /><trkpt lat="46.43946" lon="6.907" /><trkpt lat="46.43966" lon="6.90653" /><trkpt lat="46.44016" lon="6.90538" /><trkpt lat="46.44023" lon="6.90522" /><trkpt lat="46.44028" lon="6.9051" /><trkpt lat="46.44067" lon="6.90418" /><trkpt lat="46.44093" lon="6.90358" /><trkpt lat="46.44099" lon="6.90343" /><trkpt lat="46.44106" lon="6.90328" /><trkpt lat="46.44112" lon="6.90313" /><trkpt lat="46.44118" lon="6.90298" /><trkpt lat="46.44124" lon="6.90285" /><trkpt lat="46.44129" lon="6.90271" /><trkpt lat="46.44134" lon="6.90257" /><trkpt lat="46.4414" lon="6.90243" /><trkpt lat="46.44145" lon="6.9023" /><trkpt lat="46.4415" lon="6.90216" /><trkpt lat="46.44155" lon="6.90202" /><trkpt lat="46.44159" lon="6.90188" /><trkpt lat="46.44164" lon="6.90174" /><trkpt lat="46.44168" lon="6.9016" /><trkpt lat="46.44173" lon="6.90145" /><trkpt lat="46.44177" lon="6.90131" /><trkpt lat="46.44181" lon="6.90117" /><trkpt lat="46.44185" lon="6.90103" /><trkpt lat="46.44189" lon="6.90088" /><trkpt lat="46.44193" lon="6.90074" /><trkpt lat="46.44196" lon="6.90059" /><trkpt lat="46.442" lon="6.90044" /><trkpt lat="46.44203" lon="6.9003" /><trkpt lat="46.44207" lon="6.90015" /><trkpt lat="46.44209" lon="6.90003" /><trkpt lat="46.44212" lon="6.89991" /><trkpt lat="46.44214" lon="6.8998" /><trkpt lat="46.44216" lon="6.89967" /><trkpt lat="46.44218" lon="6.89959" /><trkpt lat="46.44219" lon="6.89954" /><trkpt lat="46.44222" lon="6.89938" /><trkpt lat="46.44225" lon="6.89921" /><trkpt lat="46.44228" lon="6.89905" /><trkpt lat="46.4423" lon="6.89888" /><trkpt lat="46.44243" lon="6.89814" /><trkpt lat="46.44271" lon="6.89653" /><trkpt lat="46.44276" lon="6.89624" /><trkpt lat="46.44289" lon="6.89544" /><trkpt lat="46.44317" lon="6.89385" /><trkpt lat="46.44327" lon="6.89324" /><trkpt lat="46.44332" lon="6.89293" /><trkpt lat="46.44336" lon="6.89263" /><trkpt lat="46.44341" lon="6.89227" /><trkpt lat="46.44345" lon="6.89191" /><trkpt lat="46.4435" lon="6.89155" /><trkpt lat="46.44356" lon="6.89107" /><trkpt lat="46.44362" lon="6.89055" /><trkpt lat="46.44366" lon="6.89024" /><trkpt lat="46.4438" lon="6.8891" /><trkpt lat="46.44386" lon="6.88863" /><trkpt lat="46.4439" lon="6.88837" /><trkpt lat="46.44393" lon="6.88814" /><trkpt lat="46.44395" lon="6.88801" /><trkpt lat="46.44397" lon="6.88792" /><trkpt lat="46.44401" lon="6.88772" /><trkpt lat="46.44404" lon="6.88759" /><trkpt lat="46.44406" lon="6.88747" /><trkpt lat="46.4441" lon="6.8873" /><trkpt lat="46.44414" lon="6.88714" /><trkpt lat="46.44417" lon="6.88703" /><trkpt lat="46.4442" lon="6.88692" /><trkpt lat="46.44424" lon="6.88682" /><trkpt lat="46.44427" lon="6.88671" /><trkpt lat="46.4443" lon="6.8866" /><trkpt lat="46.44434" lon="6.8865" /><trkpt lat="46.44437" lon="6.88641" /><trkpt lat="46.4444" lon="6.88631" /><trkpt lat="46.44444" lon="6.88621" /><trkpt lat="46.44448" lon="6.88611" /><trkpt lat="46.44452" lon="6.88602" /><trkpt lat="46.44456" lon="6.88592" /><trkpt lat="46.4446" lon="6.88583" /><trkpt lat="46.44464" lon="6.88573" /><trkpt lat="46.44468" lon="6.88564" /><trkpt lat="46.44472" lon="6.88555" /><trkpt lat="46.44477" lon="6.88546" /><trkpt lat="46.44481" lon="6.88537" /><trkpt lat="46.44486" lon="6.88527" /><trkpt lat="46.44496" lon="6.88508" /><trkpt lat="46.44514" lon="6.88472" /><trkpt lat="46.44528" lon="6.88447" /><trkpt lat="46.44676" lon="6.88162" /><trkpt lat="46.4469" lon="6.88131" /><trkpt lat="46.44695" lon="6.88121" /><trkpt lat="46.447" lon="6.8811" /><trkpt lat="46.44704" lon="6.88098" /><trkpt lat="46.44709" lon="6.88086" /><trkpt lat="46.44714" lon="6.88071" /><trkpt lat="46.44718" lon="6.88061" /><trkpt lat="46.44719" lon="6.88056" /><trkpt lat="46.44722" lon="6.88046" /><trkpt lat="46.44726" lon="6.88035" /><trkpt lat="46.44729" lon="6.88024" /><trkpt lat="46.44732" lon="6.88013" /><trkpt lat="46.44735" lon="6.88003" /><trkpt lat="46.44738" lon="6.87991" /><trkpt lat="46.4474" lon="6.8798" /><trkpt lat="46.44743" lon="6.87969" /><trkpt lat="46.44748" lon="6.87947" /><trkpt lat="46.44753" lon="6.87925" /><trkpt lat="46.44756" lon="6.87911" /><trkpt lat="46.44759" lon="6.87897" /><trkpt lat="46.44762" lon="6.87884" /><trkpt lat="46.44763" lon="6.8788" /><trkpt lat="46.44775" lon="6.87823" /><trkpt lat="46.44799" lon="6.87707" /><trkpt lat="46.44831" lon="6.87551" /><trkpt lat="46.44846" lon="6.87479" /><trkpt lat="46.44861" lon="6.87407" /><trkpt lat="46.44876" lon="6.87334" /><trkpt lat="46.4492" lon="6.87125" /><trkpt lat="46.44926" lon="6.87097" /><trkpt lat="46.44932" lon="6.87068" /><trkpt lat="46.44939" lon="6.8704" /><trkpt lat="46.44946" lon="6.87012" /><trkpt lat="46.44954" lon="6.86984" /><trkpt lat="46.44961" lon="6.86956" /><trkpt lat="46.4497" lon="6.86929" /><trkpt lat="46.44979" lon="6.86902" /><trkpt lat="46.44988" lon="6.86875" /><trkpt lat="46.44997" lon="6.86849" /><trkpt lat="46.45004" lon="6.8683" /><trkpt lat="46.45011" lon="6.86813" /><trkpt lat="46.45018" lon="6.86795" /><trkpt lat="46.45029" lon="6.8677" /><trkpt lat="46.45041" lon="6.86745" /><trkpt lat="46.45052" lon="6.8672" /><trkpt lat="46.45065" lon="6.86696" /><trkpt lat="46.45077" lon="6.86672" /><trkpt lat="46.45089" lon="6.8665" /><trkpt lat="46.45102" lon="6.86627" /><trkpt lat="46.45115" lon="6.86605" /><trkpt lat="46.45129" lon="6.86583" /><trkpt lat="46.45143" lon="6.86561" /><trkpt lat="46.45158" lon="6.86539" /><trkpt lat="46.45172" lon="6.86518" /><trkpt lat="46.4537" lon="6.86225" /><trkpt lat="46.45406" lon="6.86172" /><trkpt lat="46.45473" lon="6.86072" /><trkpt lat="46.4554" lon="6.85973" /><trkpt lat="46.4561" lon="6.8587" /><trkpt lat="46.45645" lon="6.85818" /><trkpt lat="46.4568" lon="6.85766" /><trkpt lat="46.45716" lon="6.85714" /><trkpt lat="46.45749" lon="6.85664" /><trkpt lat="46.45766" lon="6.85638" /><trkpt lat="46.45777" lon="6.85622" /><trkpt lat="46.45791" lon="6.856" /><trkpt lat="46.45805" lon="6.85578" /><trkpt lat="46.45819" lon="6.85555" /><trkpt lat="46.45832" lon="6.85532" /><trkpt lat="46.45844" lon="6.85508" /><trkpt lat="46.45857" lon="6.85484" /><trkpt lat="46.45869" lon="6.8546" /><trkpt lat="46.4588" lon="6.85435" /><trkpt lat="46.45891" lon="6.8541" /><trkpt lat="46.45902" lon="6.85384" /><trkpt lat="46.45912" lon="6.85359" /><trkpt lat="46.45922" lon="6.85333" /><trkpt lat="46.45932" lon="6.85306" /><trkpt lat="46.45942" lon="6.85279" /><trkpt lat="46.45954" lon="6.85246" /><trkpt lat="46.45965" lon="6.85214" /><trkpt lat="46.45977" lon="6.85181" /><trkpt lat="46.45989" lon="6.85147" /><trkpt lat="46.46018" lon="6.85069" /><trkpt lat="46.4604" lon="6.85007" /><trkpt lat="46.46061" lon="6.8495" /><trkpt lat="46.46077" lon="6.84906" /><trkpt lat="46.46104" lon="6.84831" /><trkpt lat="46.46113" lon="6.84805" /><trkpt lat="46.46121" lon="6.84783" /><trkpt lat="46.4614" lon="6.84732" /><trkpt lat="46.46149" lon="6.84707" /><trkpt lat="46.46158" lon="6.84682" /><trkpt lat="46.46184" lon="6.84611" /><trkpt lat="46.46191" lon="6.84592" /><trkpt lat="46.46199" lon="6.84574" /><trkpt lat="46.46206" lon="6.84555" /><trkpt lat="46.46222" lon="6.84518" /><trkpt lat="46.4623" lon="6.84499" /><trkpt lat="46.46238" lon="6.8448" /><trkpt lat="46.46249" lon="6.84457" /><trkpt lat="46.4626" lon="6.84434" /><trkpt lat="46.46271" lon="6.84414" /><trkpt lat="46.46283" lon="6.84391" /><trkpt lat="46.46309" lon="6.84344" /><trkpt lat="46.46317" lon="6.84331" /><trkpt lat="46.46347" lon="6.84278" /><trkpt lat="46.46362" lon="6.84252" /><trkpt lat="46.46377" lon="6.84225" /><trkpt lat="46.46443" lon="6.84121" /><trkpt lat="46.46465" lon="6.84086" /><trkpt lat="46.46516" lon="6.84004" /><trkpt lat="46.46538" lon="6.83969" /><trkpt lat="46.46559" lon="6.83935" /><trkpt lat="46.46702" lon="6.83703" /><trkpt lat="46.46717" lon="6.83677" /><trkpt lat="46.46724" lon="6.83665" /><trkpt lat="46.4673" lon="6.83653" /><trkpt lat="46.46743" lon="6.83628" /><trkpt lat="46.46756" lon="6.83602" /><trkpt lat="46.4676" lon="6.83594" /><trkpt lat="46.46768" lon="6.83577" /><trkpt lat="46.46776" lon="6.83558" /><trkpt lat="46.4679" lon="6.83523" /><trkpt lat="46.46802" lon="6.83493" /><trkpt lat="46.46816" lon="6.83458" /><trkpt lat="46.46829" lon="6.83423" /><trkpt lat="46.46838" lon="6.834" /><trkpt lat="46.46846" lon="6.83377" /><trkpt lat="46.46851" lon="6.83362" /><trkpt lat="46.46856" lon="6.83348" /><trkpt lat="46.4686" lon="6.83335" /><trkpt lat="46.46863" lon="6.83323" /><trkpt lat="46.46867" lon="6.83309" /><trkpt lat="46.46871" lon="6.83296" /><trkpt lat="46.46874" lon="6.83283" /><trkpt lat="46.46877" lon="6.83272" /><trkpt lat="46.46879" lon="6.83261" /><trkpt lat="46.46882" lon="6.83245" /><trkpt lat="46.46885" lon="6.8323" /><trkpt lat="46.46888" lon="6.83216" /><trkpt lat="46.4689" lon="6.83203" /><trkpt lat="46.46892" lon="6.8319" /><trkpt lat="46.46894" lon="6.83177" /><trkpt lat="46.46896" lon="6.83162" /><trkpt lat="46.46898" lon="6.83147" /><trkpt lat="46.46899" lon="6.83134" /><trkpt lat="46.469" lon="6.83119" /><trkpt lat="46.46902" lon="6.83097" /><trkpt lat="46.46903" lon="6.83077" /><trkpt lat="46.46904" lon="6.8305" /><trkpt lat="46.46904" lon="6.83029" /><trkpt lat="46.46904" lon="6.83006" /><trkpt lat="46.46904" lon="6.82995" /><trkpt lat="46.46904" lon="6.82983" /><trkpt lat="46.46903" lon="6.82971" /><trkpt lat="46.46902" lon="6.82958" /><trkpt lat="46.46901" lon="6.8294" /><trkpt lat="46.46899" lon="6.8292" /><trkpt lat="46.46897" lon="6.82901" /><trkpt lat="46.46893" lon="6.82868" /><trkpt lat="46.46874" lon="6.82712" /><trkpt lat="46.46871" lon="6.82685" /><trkpt lat="46.46868" lon="6.8266" /><trkpt lat="46.46867" lon="6.8264" /><trkpt lat="46.46865" lon="6.82624" /><trkpt lat="46.46865" lon="6.82612" /><trkpt lat="46.46864" lon="6.82598" /><trkpt lat="46.46864" lon="6.82586" /><trkpt lat="46.46864" lon="6.82572" /><trkpt lat="46.46864" lon="6.82555" /><trkpt lat="46.46865" lon="6.82538" /><trkpt lat="46.46866" lon="6.82521" /><trkpt lat="46.46867" lon="6.82504" /><trkpt lat="46.46868" lon="6.82487" /><trkpt lat="46.4687" lon="6.82472" /><trkpt lat="46.46871" lon="6.82459" /><trkpt lat="46.46873" lon="6.82447" /><trkpt lat="46.46874" lon="6.82436" /><trkpt lat="46.46876" lon="6.82425" /><trkpt lat="46.46878" lon="6.82415" /><trkpt lat="46.4688" lon="6.82404" /><trkpt lat="46.46883" lon="6.82389" /><trkpt lat="46.46886" lon="6.82374" /><trkpt lat="46.46889" lon="6.82362" /><trkpt lat="46.46892" lon="6.82349" /><trkpt lat="46.46897" lon="6.82331" /><trkpt lat="46.46901" lon="6.82314" /><trkpt lat="46.46908" lon="6.82295" /><trkpt lat="46.46918" lon="6.82265" /><trkpt lat="46.46932" lon="6.82229" /><trkpt lat="46.46961" lon="6.82154" /><trkpt lat="46.46968" lon="6.82137" /><trkpt lat="46.46975" lon="6.82119" /><trkpt lat="46.4698" lon="6.82106" /><trkpt lat="46.46984" lon="6.82093" /><trkpt lat="46.46989" lon="6.82078" /><trkpt lat="46.46992" lon="6.82066" /><trkpt lat="46.46996" lon="6.82054" /><trkpt lat="46.46998" lon="6.82044" /><trkpt lat="46.47001" lon="6.82034" /><trkpt lat="46.47003" lon="6.82024" /><trkpt lat="46.47006" lon="6.82015" /><trkpt lat="46.47008" lon="6.82004" /><trkpt lat="46.4701" lon="6.81994" /><trkpt lat="46.47012" lon="6.81984" /><trkpt lat="46.47014" lon="6.81974" /><trkpt lat="46.47015" lon="6.81964" /><trkpt lat="46.47017" lon="6.81953" /><trkpt lat="46.47019" lon="6.8194" /><trkpt lat="46.47021" lon="6.81922" /><trkpt lat="46.47023" lon="6.81905" /><trkpt lat="46.47024" lon="6.81889" /><trkpt lat="46.47026" lon="6.81872" /><trkpt lat="46.47027" lon="6.81852" /><trkpt lat="46.47028" lon="6.8183" /><trkpt lat="46.47029" lon="6.81808" /><trkpt lat="46.47068" lon="6.80974" /><trkpt lat="46.47072" lon="6.80899" /><trkpt lat="46.47075" lon="6.80836" /><trkpt lat="46.47075" lon="6.80823" /><trkpt lat="46.47076" lon="6.8081" /><trkpt lat="46.47077" lon="6.80798" /><trkpt lat="46.47078" lon="6.80785" /><trkpt lat="46.47079" lon="6.80774" /><trkpt lat="46.4708" lon="6.80763" /><trkpt lat="46.47081" lon="6.80752" /><trkpt lat="46.47083" lon="6.80741" /><trkpt lat="46.47084" lon="6.8073" /><trkpt lat="46.47086" lon="6.8072" /><trkpt lat="46.47088" lon="6.80709" /><trkpt lat="46.4709" lon="6.80698" /><trkpt lat="46.47092" lon="6.80687" /><trkpt lat="46.47094" lon="6.80677" /><trkpt lat="46.47096" lon="6.80666" /><trkpt lat="46.47099" lon="6.80656" /><trkpt lat="46.47105" lon="6.8063" /><trkpt lat="46.47111" lon="6.80604" /><trkpt lat="46.47127" lon="6.80539" /><trkpt lat="46.47131" lon="6.80524" /><trkpt lat="46.47135" lon="6.80506" /><trkpt lat="46.47139" lon="6.80487" /><trkpt lat="46.47142" lon="6.80474" /><trkpt lat="46.47145" lon="6.80461" /><trkpt lat="46.47148" lon="6.80445" /><trkpt lat="46.4715" lon="6.8043" /><trkpt lat="46.47153" lon="6.80417" /><trkpt lat="46.47155" lon="6.80401" /><trkpt lat="46.47157" lon="6.80385" /><trkpt lat="46.47158" lon="6.80368" /><trkpt lat="46.4716" lon="6.80351" /><trkpt lat="46.47162" lon="6.80327" /><trkpt lat="46.47164" lon="6.80302" /><trkpt lat="46.47167" lon="6.80258" /><trkpt lat="46.4717" lon="6.80213" /><trkpt lat="46.47171" lon="6.80197" /><trkpt lat="46.47173" lon="6.80177" /><trkpt lat="46.47175" lon="6.80164" /><trkpt lat="46.47176" lon="6.80152" /><trkpt lat="46.47179" lon="6.80129" /><trkpt lat="46.47181" lon="6.80107" /><trkpt lat="46.47191" lon="6.80044" /><trkpt lat="46.47228" lon="6.79801" /><trkpt lat="46.47231" lon="6.79785" /><trkpt lat="46.47238" lon="6.79742" /><trkpt lat="46.47246" lon="6.79698" /><trkpt lat="46.4725" lon="6.79677" /><trkpt lat="46.47254" lon="6.79655" /><trkpt lat="46.47258" lon="6.79636" /><trkpt lat="46.47261" lon="6.7962" /><trkpt lat="46.47265" lon="6.79603" /><trkpt lat="46.47268" lon="6.79592" /><trkpt lat="46.47271" lon="6.7958" /><trkpt lat="46.47276" lon="6.79562" /><trkpt lat="46.47281" lon="6.79545" /><trkpt lat="46.47287" lon="6.79528" /><trkpt lat="46.47295" lon="6.79504" /><trkpt lat="46.47304" lon="6.7948" /><trkpt lat="46.4733" lon="6.79413" /><trkpt lat="46.47338" lon="6.79393" /><trkpt lat="46.47345" lon="6.79372" /><trkpt lat="46.47352" lon="6.79352" /><trkpt lat="46.47355" lon="6.79342" /><trkpt lat="46.47359" lon="6.7933" /><trkpt lat="46.47363" lon="6.79314" /><trkpt lat="46.47366" lon="6.79305" /><trkpt lat="46.47368" lon="6.79295" /><trkpt lat="46.47374" lon="6.79272" /><trkpt lat="46.47378" lon="6.79251" /><trkpt lat="46.47407" lon="6.79117" /><trkpt lat="46.47421" lon="6.79049" /><trkpt lat="46.47428" lon="6.79016" /><trkpt lat="46.47434" lon="6.78983" /><trkpt lat="46.47437" lon="6.78968" /><trkpt lat="46.4744" lon="6.78949" /><trkpt lat="46.47443" lon="6.78934" /><trkpt lat="46.47445" lon="6.78916" /><trkpt lat="46.47447" lon="6.789" /><trkpt lat="46.47449" lon="6.78882" /><trkpt lat="46.47451" lon="6.78862" /><trkpt lat="46.47452" lon="6.78843" /><trkpt lat="46.47452" lon="6.7882" /><trkpt lat="46.47453" lon="6.78803" /><trkpt lat="46.47452" lon="6.7878" /><trkpt lat="46.47452" lon="6.78762" /><trkpt lat="46.47451" lon="6.78745" /><trkpt lat="46.4745" lon="6.78732" /><trkpt lat="46.47449" lon="6.78716" /><trkpt lat="46.47447" lon="6.78696" /><trkpt lat="46.47444" lon="6.78672" /><trkpt lat="46.4744" lon="6.78644" /><trkpt lat="46.47435" lon="6.78615" /><trkpt lat="46.47429" lon="6.7858" /><trkpt lat="46.47419" lon="6.7851" /><trkpt lat="46.47411" lon="6.78457" /><trkpt lat="46.47403" lon="6.78404" /><trkpt lat="46.474" lon="6.78384" /><trkpt lat="46.47398" lon="6.78369" /><trkpt lat="46.47396" lon="6.78347" /><trkpt lat="46.47394" lon="6.78329" /><trkpt lat="46.47392" lon="6.78309" /><trkpt lat="46.47391" lon="6.78292" /><trkpt lat="46.4739" lon="6.78276" /><trkpt lat="46.47389" lon="6.78258" /><trkpt lat="46.47389" lon="6.78241" /><trkpt lat="46.47388" lon="6.78222" /><trkpt lat="46.47388" lon="6.78204" /><trkpt lat="46.47389" lon="6.78184" /><trkpt lat="46.47389" lon="6.7817" /><trkpt lat="46.47389" lon="6.78159" /><trkpt lat="46.4739" lon="6.78148" /><trkpt lat="46.47391" lon="6.78126" /><trkpt lat="46.47392" lon="6.7811" /><trkpt lat="46.47394" lon="6.78095" /><trkpt lat="46.47395" lon="6.78081" /><trkpt lat="46.47397" lon="6.78067" /><trkpt lat="46.47399" lon="6.78052" /><trkpt lat="46.47401" lon="6.78039" /><trkpt lat="46.47403" lon="6.7802" /><trkpt lat="46.47406" lon="6.78001" /><trkpt lat="46.47412" lon="6.77969" /><trkpt lat="46.47431" lon="6.77872" /><trkpt lat="46.47434" lon="6.77856" /><trkpt lat="46.47452" lon="6.77759" /><trkpt lat="46.47454" lon="6.7775" /><trkpt lat="46.4746" lon="6.77719" /><trkpt lat="46.47465" lon="6.77694" /><trkpt lat="46.47468" lon="6.77679" /><trkpt lat="46.47471" lon="6.77667" /><trkpt lat="46.47475" lon="6.77649" /><trkpt lat="46.47481" lon="6.77627" /><trkpt lat="46.47486" lon="6.77609" /><trkpt lat="46.47488" lon="6.77601" /><trkpt lat="46.47491" lon="6.77591" /><trkpt lat="46.47495" lon="6.77579" /><trkpt lat="46.475" lon="6.77562" /><trkpt lat="46.47505" lon="6.77549" /><trkpt lat="46.47511" lon="6.77531" /><trkpt lat="46.47524" lon="6.77494" /><trkpt lat="46.47535" lon="6.77465" /><trkpt lat="46.47566" lon="6.77382" /><trkpt lat="46.47581" lon="6.77339" /><trkpt lat="46.47595" lon="6.77298" /><trkpt lat="46.47658" lon="6.77112" /><trkpt lat="46.47666" lon="6.77086" /><trkpt lat="46.47674" lon="6.77063" /><trkpt lat="46.4768" lon="6.77044" /><trkpt lat="46.47684" lon="6.77029" /><trkpt lat="46.47688" lon="6.77015" /><trkpt lat="46.47694" lon="6.76994" /><trkpt lat="46.47699" lon="6.76975" /><trkpt lat="46.47713" lon="6.76915" /><trkpt lat="46.47719" lon="6.76893" /><trkpt lat="46.47725" lon="6.76873" /><trkpt lat="46.47731" lon="6.7685" /><trkpt lat="46.47738" lon="6.76829" /><trkpt lat="46.47745" lon="6.76809" /><trkpt lat="46.47751" lon="6.76791" /><trkpt lat="46.4776" lon="6.7677" /><trkpt lat="46.47769" lon="6.76747" /><trkpt lat="46.47791" lon="6.76696" /><trkpt lat="46.47801" lon="6.76671" /><trkpt lat="46.47812" lon="6.76646" /><trkpt lat="46.47818" lon="6.7663" /><trkpt lat="46.47824" lon="6.76615" /><trkpt lat="46.47829" lon="6.766" /><trkpt lat="46.47834" lon="6.76586" /><trkpt lat="46.47839" lon="6.76572" /><trkpt lat="46.47843" lon="6.76558" /><trkpt lat="46.47853" lon="6.76528" /><trkpt lat="46.47868" lon="6.76479" /><trkpt lat="46.47875" lon="6.76455" /><trkpt lat="46.47883" lon="6.76429" /><trkpt lat="46.47891" lon="6.76406" /><trkpt lat="46.47896" lon="6.7639" /><trkpt lat="46.47902" lon="6.76376" /><trkpt lat="46.47906" lon="6.76363" /><trkpt lat="46.47912" lon="6.76349" /><trkpt lat="46.4792" lon="6.7633" /><trkpt lat="46.47984" lon="6.76175" /><trkpt lat="46.47992" lon="6.76157" /><trkpt lat="46.48001" lon="6.76137" /><trkpt lat="46.48011" lon="6.76114" /><trkpt lat="46.48021" lon="6.76093" /><trkpt lat="46.48055" lon="6.76023" /><trkpt lat="46.48064" lon="6.76006" /><trkpt lat="46.48074" lon="6.75987" /><trkpt lat="46.48081" lon="6.75972" /><trkpt lat="46.4809" lon="6.75957" /><trkpt lat="46.48096" lon="6.75947" /><trkpt lat="46.48102" lon="6.75936" /><trkpt lat="46.48111" lon="6.75922" /><trkpt lat="46.48121" lon="6.75908" /><trkpt lat="46.48131" lon="6.75895" /><trkpt lat="46.4814" lon="6.75884" /><trkpt lat="46.4815" lon="6.75872" /><trkpt lat="46.4816" lon="6.75859" /><trkpt lat="46.48172" lon="6.75846" /><trkpt lat="46.48183" lon="6.75834" /><trkpt lat="46.48222" lon="6.75792" /><trkpt lat="46.4823" lon="6.75784" /><trkpt lat="46.48238" lon="6.75775" /><trkpt lat="46.48252" lon="6.75759" /><trkpt lat="46.48263" lon="6.75745" /><trkpt lat="46.48271" lon="6.75734" /><trkpt lat="46.48281" lon="6.7572" /><trkpt lat="46.4829" lon="6.75705" /><trkpt lat="46.48301" lon="6.75689" /><trkpt lat="46.48309" lon="6.75675" /><trkpt lat="46.48318" lon="6.75659" /><trkpt lat="46.48324" lon="6.75646" /><trkpt lat="46.48331" lon="6.75632" /><trkpt lat="46.4834" lon="6.75613" /><trkpt lat="46.48348" lon="6.75595" /><trkpt lat="46.48365" lon="6.75556" /><trkpt lat="46.48379" lon="6.75522" /><trkpt lat="46.48392" lon="6.75496" /><trkpt lat="46.48399" lon="6.7548" /><trkpt lat="46.4841" lon="6.7546" /><trkpt lat="46.4842" lon="6.75442" /><trkpt lat="46.48428" lon="6.75428" /><trkpt lat="46.48439" lon="6.75412" /><trkpt lat="46.4845" lon="6.75396" /><trkpt lat="46.48464" lon="6.75377" /><trkpt lat="46.48472" lon="6.75367" /><trkpt lat="46.48485" lon="6.75351" /><trkpt lat="46.48498" lon="6.75337" /><trkpt lat="46.48523" lon="6.75309" /><trkpt lat="46.48542" lon="6.75289" /><trkpt lat="46.48559" lon="6.7527" /><trkpt lat="46.48575" lon="6.75252" /><trkpt lat="46.48588" lon="6.75237" /><trkpt lat="46.48599" lon="6.75222" /><trkpt lat="46.48606" lon="6.75213" /><trkpt lat="46.48613" lon="6.75203" /><trkpt lat="46.48625" lon="6.75186" /><trkpt lat="46.48633" lon="6.75172" /><trkpt lat="46.48645" lon="6.75151" /><trkpt lat="46.48652" lon="6.75138" /><trkpt lat="46.48661" lon="6.7512" /><trkpt lat="46.48669" lon="6.75103" /><trkpt lat="46.48677" lon="6.75086" /><trkpt lat="46.48684" lon="6.75069" /><trkpt lat="46.48692" lon="6.7505" /><trkpt lat="46.48699" lon="6.7503" /><trkpt lat="46.48761" lon="6.74866" /><trkpt lat="46.48773" lon="6.74835" /><trkpt lat="46.4878" lon="6.74819" /><trkpt lat="46.48786" lon="6.74804" /><trkpt lat="46.48793" lon="6.74789" /><trkpt lat="46.48799" lon="6.74775" /><trkpt lat="46.48814" lon="6.74746" /><trkpt lat="46.48828" lon="6.74719" /><trkpt lat="46.48844" lon="6.74691" /><trkpt lat="46.4886" lon="6.74662" /><trkpt lat="46.48868" lon="6.74648" /><trkpt lat="46.48875" lon="6.74634" /><trkpt lat="46.48883" lon="6.74618" /><trkpt lat="46.48891" lon="6.74603" /><trkpt lat="46.48895" lon="6.74594" /><trkpt lat="46.48899" lon="6.74584" /><trkpt lat="46.48907" lon="6.74567" /><trkpt lat="46.48913" lon="6.74552" /><trkpt lat="46.48918" lon="6.74537" /><trkpt lat="46.48922" lon="6.74527" /><trkpt lat="46.48927" lon="6.74513" /><trkpt lat="46.4893" lon="6.74501" /><trkpt lat="46.48934" lon="6.74489" /><trkpt lat="46.48937" lon="6.74477" /><trkpt lat="46.48941" lon="6.74464" /><trkpt lat="46.48944" lon="6.74451" /><trkpt lat="46.48947" lon="6.74437" /><trkpt lat="46.4895" lon="6.74424" /><trkpt lat="46.48953" lon="6.7441" /><trkpt lat="46.48957" lon="6.7439" /><trkpt lat="46.48958" lon="6.74381" /><trkpt lat="46.4896" lon="6.74369" /><trkpt lat="46.48962" lon="6.74357" /><trkpt lat="46.48963" lon="6.74346" /><trkpt lat="46.48964" lon="6.74334" /><trkpt lat="46.48965" lon="6.74322" /><trkpt lat="46.48966" lon="6.74312" /><trkpt lat="46.48967" lon="6.74302" /><trkpt lat="46.48967" lon="6.74293" /><trkpt lat="46.48968" lon="6.74283" /><trkpt lat="46.48968" lon="6.74273" /><trkpt lat="46.48969" lon="6.74261" /><trkpt lat="46.48969" lon="6.74256" /><trkpt lat="46.48969" lon="6.74252" /><trkpt lat="46.48969" lon="6.74241" /><trkpt lat="46.48969" lon="6.74218" /><trkpt lat="46.48969" lon="6.74196" /><trkpt lat="46.48967" lon="6.741" /><trkpt lat="46.48967" lon="6.74077" /><trkpt lat="46.48967" lon="6.74053" /><trkpt lat="46.48968" lon="6.74038" /><trkpt lat="46.48968" lon="6.74025" /><trkpt lat="46.48969" lon="6.74014" /><trkpt lat="46.48969" lon="6.74003" /><trkpt lat="46.48971" lon="6.73986" /><trkpt lat="46.48973" lon="6.73968" /><trkpt lat="46.48975" lon="6.73951" /><trkpt lat="46.48977" lon="6.73935" /><trkpt lat="46.4898" lon="6.73918" /><trkpt lat="46.48983" lon="6.73902" /><trkpt lat="46.48986" lon="6.73886" /><trkpt lat="46.48989" lon="6.73873" /><trkpt lat="46.48991" lon="6.73861" /><trkpt lat="46.48996" lon="6.7384" /><trkpt lat="46.49006" lon="6.738" /><trkpt lat="46.49014" lon="6.73772" /><trkpt lat="46.49028" lon="6.73714" /><trkpt lat="46.49035" lon="6.73685" /><trkpt lat="46.49039" lon="6.7367" /><trkpt lat="46.49042" lon="6.73656" /><trkpt lat="46.49046" lon="6.73635" /><trkpt lat="46.49049" lon="6.73623" /><trkpt lat="46.49051" lon="6.7361" /><trkpt lat="46.49053" lon="6.73594" /><trkpt lat="46.49055" lon="6.73583" /><trkpt lat="46.49057" lon="6.7357" /><trkpt lat="46.49058" lon="6.73554" /><trkpt lat="46.4906" lon="6.73542" /><trkpt lat="46.49061" lon="6.73525" /><trkpt lat="46.49062" lon="6.73509" /><trkpt lat="46.49063" lon="6.73495" /><trkpt lat="46.49063" lon="6.7348" /><trkpt lat="46.49063" lon="6.73464" /><trkpt lat="46.49063" lon="6.73451" /><trkpt lat="46.49063" lon="6.73435" /><trkpt lat="46.49063" lon="6.73418" /><trkpt lat="46.49062" lon="6.73404" /><trkpt lat="46.49061" lon="6.73397" /><trkpt lat="46.4906" lon="6.73381" /><trkpt lat="46.49059" lon="6.73368" /><trkpt lat="46.49057" lon="6.7335" /><trkpt lat="46.49055" lon="6.73331" /><trkpt lat="46.4905" lon="6.733" /><trkpt lat="46.49045" lon="6.73272" /><trkpt lat="46.49041" lon="6.73256" /><trkpt lat="46.49037" lon="6.73237" /><trkpt lat="46.49032" lon="6.73219" /><trkpt lat="46.49027" lon="6.73202" /><trkpt lat="46.49022" lon="6.73185" /><trkpt lat="46.49017" lon="6.73169" /><trkpt lat="46.49011" lon="6.73154" /><trkpt lat="46.49005" lon="6.73137" /><trkpt lat="46.48942" lon="6.72968" /><trkpt lat="46.48932" lon="6.72943" /><trkpt lat="46.48917" lon="6.72904" /><trkpt lat="46.48904" lon="6.72869" /><trkpt lat="46.48897" lon="6.72852" /><trkpt lat="46.48889" lon="6.7283" /><trkpt lat="46.48881" lon="6.72809" /><trkpt lat="46.4887" lon="6.72776" /><trkpt lat="46.48858" lon="6.72744" /><trkpt lat="46.48846" lon="6.72711" /><trkpt lat="46.48845" lon="6.72707" /><trkpt lat="46.48841" lon="6.72695" /><trkpt lat="46.48836" lon="6.72683" /><trkpt lat="46.48831" lon="6.72667" /><trkpt lat="46.48824" lon="6.72648" /><trkpt lat="46.4882" lon="6.72634" /><trkpt lat="46.48815" lon="6.72618" /><trkpt lat="46.4881" lon="6.72601" /><trkpt lat="46.48806" lon="6.72587" /><trkpt lat="46.48801" lon="6.7257" /><trkpt lat="46.48797" lon="6.72554" /><trkpt lat="46.48794" lon="6.72543" /><trkpt lat="46.48791" lon="6.72534" /><trkpt lat="46.48788" lon="6.72519" /><trkpt lat="46.48785" lon="6.72506" /><trkpt lat="46.48783" lon="6.72494" /><trkpt lat="46.48781" lon="6.72481" /><trkpt lat="46.48779" lon="6.7247" /><trkpt lat="46.48777" lon="6.72455" /><trkpt lat="46.48775" lon="6.72443" /><trkpt lat="46.48772" lon="6.72415" /><trkpt lat="46.4877" lon="6.72394" /><trkpt lat="46.48769" lon="6.7238" /><trkpt lat="46.48767" lon="6.72366" /><trkpt lat="46.48766" lon="6.72352" /><trkpt lat="46.48766" lon="6.7234" /><trkpt lat="46.48765" lon="6.72325" /><trkpt lat="46.48764" lon="6.72313" /><trkpt lat="46.48764" lon="6.723" /><trkpt lat="46.48764" lon="6.72288" /><trkpt lat="46.48764" lon="6.72276" /><trkpt lat="46.48764" lon="6.72264" /><trkpt lat="46.48765" lon="6.72249" /><trkpt lat="46.48766" lon="6.72234" /><trkpt lat="46.48767" lon="6.7222" /><trkpt lat="46.48769" lon="6.72201" /><trkpt lat="46.48771" lon="6.72191" /><trkpt lat="46.48773" lon="6.72176" /><trkpt lat="46.48776" lon="6.72158" /><trkpt lat="46.4878" lon="6.72138" /><trkpt lat="46.48784" lon="6.72121" /><trkpt lat="46.48788" lon="6.72102" /><trkpt lat="46.48792" lon="6.72088" /><trkpt lat="46.48796" lon="6.72075" /><trkpt lat="46.48801" lon="6.72058" /><trkpt lat="46.48806" lon="6.72041" /><trkpt lat="46.48812" lon="6.72024" /><trkpt lat="46.48819" lon="6.72005" /><trkpt lat="46.48828" lon="6.71983" /><trkpt lat="46.48835" lon="6.71967" /><trkpt lat="46.48842" lon="6.71951" /><trkpt lat="46.48847" lon="6.71942" /><trkpt lat="46.48852" lon="6.71932" /><trkpt lat="46.48861" lon="6.71915" /><trkpt lat="46.48872" lon="6.71895" /><trkpt lat="46.48881" lon="6.7188" /><trkpt lat="46.48896" lon="6.71856" /><trkpt lat="46.48967" lon="6.7174" /><trkpt lat="46.4898" lon="6.71719" /><trkpt lat="46.48994" lon="6.71697" /><trkpt lat="46.49005" lon="6.71678" /><trkpt lat="46.49015" lon="6.71659" /><trkpt lat="46.49021" lon="6.71648" /><trkpt lat="46.49026" lon="6.71637" /><trkpt lat="46.49037" lon="6.71615" /><trkpt lat="46.49047" lon="6.71594" /><trkpt lat="46.49056" lon="6.71574" /><trkpt lat="46.49065" lon="6.71554" /><trkpt lat="46.49083" lon="6.71513" /><trkpt lat="46.49118" lon="6.71433" /><trkpt lat="46.49128" lon="6.71408" /><trkpt lat="46.49139" lon="6.71384" /><trkpt lat="46.49147" lon="6.71365" /><trkpt lat="46.49156" lon="6.71346" /><trkpt lat="46.49165" lon="6.71328" /><trkpt lat="46.49174" lon="6.7131" /><trkpt lat="46.49182" lon="6.71296" /><trkpt lat="46.49189" lon="6.71283" /><trkpt lat="46.49197" lon="6.71269" /><trkpt lat="46.49203" lon="6.71259" /><trkpt lat="46.49214" lon="6.71241" /><trkpt lat="46.49223" lon="6.71227" /><trkpt lat="46.49232" lon="6.71212" /><trkpt lat="46.49253" lon="6.71182" /><trkpt lat="46.49349" lon="6.71043" /><trkpt lat="46.49417" lon="6.70947" /><trkpt lat="46.49459" lon="6.70885" /><trkpt lat="46.49467" lon="6.70874" /><trkpt lat="46.49476" lon="6.70861" /><trkpt lat="46.49483" lon="6.7085" /><trkpt lat="46.49488" lon="6.70842" /><trkpt lat="46.49493" lon="6.70833" /><trkpt lat="46.49504" lon="6.70816" /><trkpt lat="46.49511" lon="6.70804" /><trkpt lat="46.49519" lon="6.70789" /><trkpt lat="46.49524" lon="6.70781" /><trkpt lat="46.49532" lon="6.70764" /><trkpt lat="46.49542" lon="6.70745" /><trkpt lat="46.49551" lon="6.70726" /><trkpt lat="46.4956" lon="6.70707" /><trkpt lat="46.49601" lon="6.7062" /><trkpt lat="46.49646" lon="6.70526" /><trkpt lat="46.49655" lon="6.70508" /><trkpt lat="46.49667" lon="6.70483" /><trkpt lat="46.49681" lon="6.70454" /><trkpt lat="46.49696" lon="6.70425" /><trkpt lat="46.49709" lon="6.70401" /><trkpt lat="46.49722" lon="6.70377" /><trkpt lat="46.49749" lon="6.70328" /><trkpt lat="46.49758" lon="6.70311" /><trkpt lat="46.49764" lon="6.70299" /><trkpt lat="46.49771" lon="6.70288" /><trkpt lat="46.49777" lon="6.70277" /><trkpt lat="46.49783" lon="6.70266" /><trkpt lat="46.4979" lon="6.70256" /><trkpt lat="46.49803" lon="6.70236" /><trkpt lat="46.4981" lon="6.70225" /><trkpt lat="46.49817" lon="6.70215" /><trkpt lat="46.49826" lon="6.70204" /><trkpt lat="46.49833" lon="6.70195" /><trkpt lat="46.49838" lon="6.70188" /><trkpt lat="46.49845" lon="6.7018" /><trkpt lat="46.49857" lon="6.70166" /><trkpt lat="46.4987" lon="6.70152" /><trkpt lat="46.49881" lon="6.7014" /><trkpt lat="46.49908" lon="6.70113" /><trkpt lat="46.49918" lon="6.70103" /><trkpt lat="46.49928" lon="6.70093" /><trkpt lat="46.49936" lon="6.70084" /><trkpt lat="46.49944" lon="6.70075" /><trkpt lat="46.4995" lon="6.70068" /><trkpt lat="46.49955" lon="6.70062" /><trkpt lat="46.49964" lon="6.7005" /><trkpt lat="46.49974" lon="6.70037" /><trkpt lat="46.49983" lon="6.70025" /><trkpt lat="46.49992" lon="6.70012" /><trkpt lat="46.5" lon="6.7" /><trkpt lat="46.50008" lon="6.69988" /><trkpt lat="46.50016" lon="6.69975" /><trkpt lat="46.50024" lon="6.69962" /><trkpt lat="46.50031" lon="6.69949" /><trkpt lat="46.50039" lon="6.69935" /><trkpt lat="46.50046" lon="6.69922" /><trkpt lat="46.50139" lon="6.69742" /><trkpt lat="46.50166" lon="6.69688" /><trkpt lat="46.50173" lon="6.69674" /><trkpt lat="46.5018" lon="6.69661" /><trkpt lat="46.50186" lon="6.69647" /><trkpt lat="46.50192" lon="6.69634" /><trkpt lat="46.50199" lon="6.69619" /><trkpt lat="46.50203" lon="6.69608" /><trkpt lat="46.50208" lon="6.69596" /><trkpt lat="46.50213" lon="6.69584" /><trkpt lat="46.50218" lon="6.69572" /><trkpt lat="46.50224" lon="6.69556" /><trkpt lat="46.50229" lon="6.69542" /><trkpt lat="46.50235" lon="6.69526" /><trkpt lat="46.50238" lon="6.69515" /><trkpt lat="46.50247" lon="6.69487" /><trkpt lat="46.50252" lon="6.69472" /><trkpt lat="46.503" lon="6.6932" /><trkpt lat="46.50312" lon="6.69282" /><trkpt lat="46.50363" lon="6.69122" /><trkpt lat="46.50368" lon="6.69108" /><trkpt lat="46.50373" lon="6.69093" /><trkpt lat="46.5038" lon="6.69075" /><trkpt lat="46.50384" lon="6.69064" /><trkpt lat="46.50389" lon="6.69051" /><trkpt lat="46.50395" lon="6.69035" /><trkpt lat="46.50405" lon="6.69012" /><trkpt lat="46.50415" lon="6.6899" /><trkpt lat="46.50435" lon="6.68944" /><trkpt lat="46.50468" lon="6.68868" /><trkpt lat="46.50495" lon="6.68806" /><trkpt lat="46.50506" lon="6.68779" /><trkpt lat="46.50515" lon="6.68757" /><trkpt lat="46.50519" lon="6.68746" /><trkpt lat="46.50529" lon="6.68715" /><trkpt lat="46.50538" lon="6.68689" /><trkpt lat="46.50542" lon="6.68674" /><trkpt lat="46.50547" lon="6.68656" /><trkpt lat="46.50551" lon="6.68639" /><trkpt lat="46.50555" lon="6.68623" /><trkpt lat="46.50558" lon="6.68606" /><trkpt lat="46.50562" lon="6.68587" /><trkpt lat="46.50565" lon="6.68569" /><trkpt lat="46.50569" lon="6.68547" /><trkpt lat="46.50571" lon="6.6853" /><trkpt lat="46.50573" lon="6.68515" /><trkpt lat="46.50576" lon="6.6849" /><trkpt lat="46.50578" lon="6.68464" /><trkpt lat="46.50579" lon="6.68446" /><trkpt lat="46.5058" lon="6.68428" /><trkpt lat="46.5058" lon="6.68409" /><trkpt lat="46.50581" lon="6.6839" /><trkpt lat="46.50581" lon="6.68349" /><trkpt lat="46.50582" lon="6.6828" /><trkpt lat="46.50582" lon="6.68197" /><trkpt lat="46.50582" lon="6.68186" /><trkpt lat="46.50583" lon="6.68144" /><trkpt lat="46.50585" lon="6.68114" /><trkpt lat="46.50586" lon="6.68083" /><trkpt lat="46.50587" lon="6.68058" /><trkpt lat="46.50587" lon="6.68033" /><trkpt lat="46.50588" lon="6.68012" /><trkpt lat="46.50588" lon="6.67991" /><trkpt lat="46.50589" lon="6.67966" /><trkpt lat="46.50591" lon="6.67941" /><trkpt lat="46.50592" lon="6.67922" /><trkpt lat="46.50595" lon="6.679" /><trkpt lat="46.50598" lon="6.67875" /><trkpt lat="46.506" lon="6.67857" /><trkpt lat="46.50603" lon="6.6784" /><trkpt lat="46.50606" lon="6.67823" /><trkpt lat="46.50609" lon="6.67807" /><trkpt lat="46.50613" lon="6.6779" /><trkpt lat="46.50616" lon="6.67775" /><trkpt lat="46.5062" lon="6.67759" /><trkpt lat="46.50628" lon="6.67728" /><trkpt lat="46.50644" lon="6.6767" /><trkpt lat="46.50657" lon="6.67621" /><trkpt lat="46.50666" lon="6.67591" /><trkpt lat="46.50671" lon="6.67575" /><trkpt lat="46.50676" lon="6.6756" /><trkpt lat="46.50685" lon="6.67533" /><trkpt lat="46.50695" lon="6.67508" /><trkpt lat="46.50705" lon="6.67482" /><trkpt lat="46.50717" lon="6.67454" /><trkpt lat="46.5073" lon="6.67427" /><trkpt lat="46.50765" lon="6.67348" /><trkpt lat="46.50794" lon="6.67284" /><trkpt lat="46.50801" lon="6.67268" /><trkpt lat="46.50808" lon="6.67251" /><trkpt lat="46.50814" lon="6.67234" /><trkpt lat="46.50821" lon="6.67218" /><trkpt lat="46.50831" lon="6.67192" /><trkpt lat="46.50839" lon="6.67168" /><trkpt lat="46.50876" lon="6.67062" /><trkpt lat="46.50894" lon="6.67009" /><trkpt lat="46.50904" lon="6.66982" /><trkpt lat="46.50912" lon="6.66956" /><trkpt lat="46.50918" lon="6.66938" /><trkpt lat="46.50923" lon="6.66922" /><trkpt lat="46.50926" lon="6.66912" /><trkpt lat="46.50929" lon="6.66901" /><trkpt lat="46.50932" lon="6.6689" /><trkpt lat="46.50936" lon="6.66872" /><trkpt lat="46.50939" lon="6.66858" /><trkpt lat="46.50943" lon="6.66838" /><trkpt lat="46.50946" lon="6.66824" /><trkpt lat="46.50949" lon="6.66807" /><trkpt lat="46.50951" lon="6.66793" /><trkpt lat="46.50953" lon="6.66778" /><trkpt lat="46.50955" lon="6.66762" /><trkpt lat="46.50957" lon="6.66737" /><trkpt lat="46.50958" lon="6.66723" /><trkpt lat="46.5096" lon="6.66693" /><trkpt lat="46.50963" lon="6.66653" /><trkpt lat="46.50965" lon="6.66612" /><trkpt lat="46.50967" lon="6.66574" /><trkpt lat="46.50969" lon="6.66534" /><trkpt lat="46.5097" lon="6.66531" /><trkpt lat="46.50971" lon="6.66508" /><trkpt lat="46.50974" lon="6.66478" /><trkpt lat="46.50978" lon="6.66449" /><trkpt lat="46.50981" lon="6.66428" /><trkpt lat="46.50985" lon="6.66405" /><trkpt lat="46.50989" lon="6.66381" /><trkpt lat="46.50994" lon="6.66357" /><trkpt lat="46.51" lon="6.66331" /><trkpt lat="46.51006" lon="6.66303" /><trkpt lat="46.51017" lon="6.6626" /><trkpt lat="46.51028" lon="6.66219" /><trkpt lat="46.51067" lon="6.6606" /><trkpt lat="46.51076" lon="6.66022" /><trkpt lat="46.51082" lon="6.65996" /><trkpt lat="46.51089" lon="6.65966" /><trkpt lat="46.51098" lon="6.65916" /><trkpt lat="46.51108" lon="6.65859" /><trkpt lat="46.51111" lon="6.65832" /><trkpt lat="46.51114" lon="6.65805" /><trkpt lat="46.51117" lon="6.65778" /><trkpt lat="46.51119" lon="6.65754" /><trkpt lat="46.51121" lon="6.6573" /><trkpt lat="46.51123" lon="6.65704" /><trkpt lat="46.51124" lon="6.65689" /><trkpt lat="46.51124" lon="6.65674" /><trkpt lat="46.51125" lon="6.65647" /><trkpt lat="46.51126" lon="6.65625" /><trkpt lat="46.51126" lon="6.65605" /><trkpt lat="46.51126" lon="6.65567" /><trkpt lat="46.51125" lon="6.65546" /><trkpt lat="46.51124" lon="6.65511" /><trkpt lat="46.51121" lon="6.65421" /><trkpt lat="46.5112" lon="6.65378" /><trkpt lat="46.5112" lon="6.65376" /><trkpt lat="46.5112" lon="6.65373" /><trkpt lat="46.51116" lon="6.65269" /><trkpt lat="46.51115" lon="6.6523" /><trkpt lat="46.51115" lon="6.65205" /><trkpt lat="46.51115" lon="6.65176" /><trkpt lat="46.51116" lon="6.65147" /><trkpt lat="46.51117" lon="6.65123" /><trkpt lat="46.51118" lon="6.65107" /><trkpt lat="46.51119" lon="6.65092" /><trkpt lat="46.5112" lon="6.65076" /><trkpt lat="46.51122" lon="6.65052" /><trkpt lat="46.51125" lon="6.65019" /><trkpt lat="46.5113" lon="6.64986" /><trkpt lat="46.51133" lon="6.6496" /><trkpt lat="46.51138" lon="6.64934" /><trkpt lat="46.51143" lon="6.6491" /><trkpt lat="46.51147" lon="6.64888" /><trkpt lat="46.51153" lon="6.64864" /><trkpt lat="46.51157" lon="6.64844" /><trkpt lat="46.51171" lon="6.64793" /><trkpt lat="46.51206" lon="6.64668" /><trkpt lat="46.51211" lon="6.64648" /><trkpt lat="46.51217" lon="6.64626" /><trkpt lat="46.51222" lon="6.64605" /><trkpt lat="46.51226" lon="6.64586" /><trkpt lat="46.51232" lon="6.64561" /><trkpt lat="46.51236" lon="6.64538" /><trkpt lat="46.51241" lon="6.64514" /><trkpt lat="46.51245" lon="6.64491" /><trkpt lat="46.51246" lon="6.64483" /><trkpt lat="46.5125" lon="6.64456" /><trkpt lat="46.51254" lon="6.6443" /><trkpt lat="46.51257" lon="6.64404" /><trkpt lat="46.5126" lon="6.64381" /><trkpt lat="46.51262" lon="6.64361" /><trkpt lat="46.51264" lon="6.64341" /><trkpt lat="46.51266" lon="6.64313" /><trkpt lat="46.51267" lon="6.6429" /><trkpt lat="46.51269" lon="6.64267" /><trkpt lat="46.51276" lon="6.64128" /><trkpt lat="46.51281" lon="6.64032" /><trkpt lat="46.51284" lon="6.63969" /><trkpt lat="46.51286" lon="6.6394" /><trkpt lat="46.51287" lon="6.6393" /><trkpt lat="46.51288" lon="6.63901" /><trkpt lat="46.5129" lon="6.63886" /><trkpt lat="46.51291" lon="6.63871" /><trkpt lat="46.51293" lon="6.63853" /><trkpt lat="46.51295" lon="6.63835" /><trkpt lat="46.51298" lon="6.63813" /><trkpt lat="46.51299" lon="6.63801" /><trkpt lat="46.51301" lon="6.63788" /><trkpt lat="46.51305" lon="6.63769" /><trkpt lat="46.51307" lon="6.63758" /><trkpt lat="46.51309" lon="6.63746" /><trkpt lat="46.51314" lon="6.63726" /><trkpt lat="46.51318" lon="6.63709" /><trkpt lat="46.51323" lon="6.6369" /><trkpt lat="46.51328" lon="6.63671" /><trkpt lat="46.51332" lon="6.6366" /><trkpt lat="46.51335" lon="6.63648" /><trkpt lat="46.51342" lon="6.63627" /><trkpt lat="46.5135" lon="6.63606" /><trkpt lat="46.51358" lon="6.63584" /><trkpt lat="46.5137" lon="6.63555" /><trkpt lat="46.51375" lon="6.63542" /><trkpt lat="46.51381" lon="6.63528" /><trkpt lat="46.51387" lon="6.63514" /><trkpt lat="46.51391" lon="6.63504" /><trkpt lat="46.51397" lon="6.63492" /><trkpt lat="46.51401" lon="6.63483" /><trkpt lat="46.51407" lon="6.63472" /><trkpt lat="46.51418" lon="6.63452" /><trkpt lat="46.51425" lon="6.63442" /><trkpt lat="46.51432" lon="6.63431" /><trkpt lat="46.5144" lon="6.63419" /><trkpt lat="46.51449" lon="6.63405" /><trkpt lat="46.51523" lon="6.63305" /><trkpt lat="46.51533" lon="6.63295" /><trkpt lat="46.51543" lon="6.63284" /><trkpt lat="46.51555" lon="6.63271" /><trkpt lat="46.51568" lon="6.63257" /><trkpt lat="46.5158" lon="6.63244" /><trkpt lat="46.5159" lon="6.63233" /><trkpt lat="46.51599" lon="6.63222" /><trkpt lat="46.51613" lon="6.63202" /><trkpt lat="46.5162" lon="6.6319" /><trkpt lat="46.51628" lon="6.63177" /><trkpt lat="46.51633" lon="6.63166" /><trkpt lat="46.51637" lon="6.63154" /><trkpt lat="46.51642" lon="6.63142" /><trkpt lat="46.51645" lon="6.63131" /><trkpt lat="46.51649" lon="6.63118" /><trkpt lat="46.51651" lon="6.6311" /><trkpt lat="46.51656" lon="6.63091" /><trkpt lat="46.51659" lon="6.63072" /><trkpt lat="46.51664" lon="6.6304" /><trkpt lat="46.51681" lon="6.62922" /><trkpt lat="46.51683" lon="6.62912" /><trkpt lat="46.51683" lon="6.62912" /></trkseg></trk></gpx>