<gpx version="1.1" creator="Trainlog.me"><trk><name>Trip Path</name><trkseg><trkpt lat="46.48586" lon="7.04273" /><trkpt lat="46.48581" lon="7.04269" /><trkpt lat="46.48575" lon="7.04264" /><trkpt lat="46.4857" lon="7.04258" /><trkpt lat="46.48563" lon="7.0425" /><trkpt lat="46.48556" lon="7.04242" /><trkpt lat="46.48547" lon="7.0423" /><trkpt lat="46.48493" lon="7.04162" /><trkpt lat="46.48414" lon="7.04062" /><trkpt lat="46.48408" lon="7.04055" /><trkpt lat="46.48403" lon="7.04049" /><trkpt lat="46.48399" lon="7.04043" /><trkpt lat="46.48394" lon="7.04035" /><trkpt lat="46.48389" lon="7.04027" /><trkpt lat="46.48384" lon="7.04019" /><trkpt lat="46.48377" lon="7.04006" /><trkpt lat="46.4837" lon="7.03994" /><trkpt lat="46.48326" lon="7.03908" /><trkpt lat="46.48305" lon="7.03866" /><trkpt lat="46.48295" lon="7.03848" /><trkpt lat="46.4829" lon="7.03839" /><trkpt lat="46.48284" lon="7.0383" /><trkpt lat="46.4828" lon="7.03824" /><trkpt lat="46.48272" lon="7.03816" /><trkpt lat="46.48266" lon="7.03809" /><trkpt lat="46.48259" lon="7.03802" /><trkpt lat="46.48252" lon="7.03797" /><trkpt lat="46.48244" lon="7.03791" /><trkpt lat="46.48235" lon="7.03786" /><trkpt lat="46.48227" lon="7.03782" /><trkpt lat="46.48214" lon="7.03777" /><trkpt lat="46.48203" lon="7.03774" /><trkpt lat="46.48183" lon="7.03769" /><trkpt lat="46.48172" lon="7.03766" /><trkpt lat="46.48163" lon="7.03764" /><trkpt lat="46.48153" lon="7.0376" /><trkpt lat="46.48143" lon="7.03755" /><trkpt lat="46.48132" lon="7.03748" /><trkpt lat="46.48122" lon="7.03742" /><trkpt lat="46.48113" lon="7.03733" /><trkpt lat="46.48099" lon="7.03719" /><trkpt lat="46.4808" lon="7.03697" /><trkpt lat="46.47923" lon="7.0352" /><trkpt lat="46.47917" lon="7.03514" /><trkpt lat="46.47909" lon="7.03508" /><trkpt lat="46.47897" lon="7.03499" /><trkpt lat="46.47888" lon="7.03494" /><trkpt lat="46.47879" lon="7.03489" /><trkpt lat="46.47867" lon="7.03485" /><trkpt lat="46.47858" lon="7.03483" /><trkpt lat="46.47849" lon="7.03481" /><trkpt lat="46.4783" lon="7.03479" /><trkpt lat="46.47799" lon="7.03476" /><trkpt lat="46.47791" lon="7.03475" /><trkpt lat="46.47783" lon="7.03474" /><trkpt lat="46.47769" lon="7.03471" /><trkpt lat="46.47721" lon="7.03455" /><trkpt lat="46.47712" lon="7.03453" /><trkpt lat="46.47703" lon="7.03451" /><trkpt lat="46.47693" lon="7.0345" /><trkpt lat="46.47684" lon="7.03451" /><trkpt lat="46.47674" lon="7.03452" /><trkpt lat="46.47666" lon="7.03454" /><trkpt lat="46.47657" lon="7.03457" /><trkpt lat="46.47648" lon="7.03461" /><trkpt lat="46.47637" lon="7.03467" /><trkpt lat="46.47614" lon="7.03483" /><trkpt lat="46.47593" lon="7.03501" /><trkpt lat="46.47554" lon="7.03534" /><trkpt lat="46.4751" lon="7.03571" /><trkpt lat="46.47495" lon="7.03584" /><trkpt lat="46.4748" lon="7.036" /><trkpt lat="46.47471" lon="7.03612" /><trkpt lat="46.47461" lon="7.03627" /><trkpt lat="46.47456" lon="7.03637" /><trkpt lat="46.47452" lon="7.03645" /><trkpt lat="46.47447" lon="7.03659" /><trkpt lat="46.47444" lon="7.0367" /><trkpt lat="46.47442" lon="7.03681" /><trkpt lat="46.4744" lon="7.03693" /><trkpt lat="46.4744" lon="7.03706" /><trkpt lat="46.4744" lon="7.03715" /><trkpt lat="46.47442" lon="7.03727" /><trkpt lat="46.47444" lon="7.03739" /><trkpt lat="46.47448" lon="7.03751" /><trkpt lat="46.47451" lon="7.03761" /><trkpt lat="46.4747" lon="7.03808" /><trkpt lat="46.47473" lon="7.03818" /><trkpt lat="46.47476" lon="7.03829" /><trkpt lat="46.47479" lon="7.03841" /><trkpt lat="46.4748" lon="7.03855" /><trkpt lat="46.4748" lon="7.03865" /><trkpt lat="46.4748" lon="7.03876" /><trkpt lat="46.47478" lon="7.03888" /><trkpt lat="46.47476" lon="7.03899" /><trkpt lat="46.47473" lon="7.0391" /><trkpt lat="46.47469" lon="7.03921" /><trkpt lat="46.47463" lon="7.03934" /><trkpt lat="46.47455" lon="7.0395" /><trkpt lat="46.47438" lon="7.03981" /><trkpt lat="46.47425" lon="7.04004" /><trkpt lat="46.47419" lon="7.04013" /><trkpt lat="46.47411" lon="7.04022" /><trkpt lat="46.47401" lon="7.04032" /><trkpt lat="46.47394" lon="7.04037" /><trkpt lat="46.47384" lon="7.04043" /><trkpt lat="46.47366" lon="7.04053" /><trkpt lat="46.47352" lon="7.04062" /><trkpt lat="46.47344" lon="7.04068" /><trkpt lat="46.47337" lon="7.04074" /><trkpt lat="46.47331" lon="7.04081" /><trkpt lat="46.47324" lon="7.04091" /><trkpt lat="46.47315" lon="7.04104" /><trkpt lat="46.47307" lon="7.04119" /><trkpt lat="46.47299" lon="7.04134" /><trkpt lat="46.47294" lon="7.04145" /><trkpt lat="46.47288" lon="7.04159" /><trkpt lat="46.47283" lon="7.04169" /><trkpt lat="46.47282" lon="7.04176" /><trkpt lat="46.4728" lon="7.04184" /><trkpt lat="46.47278" lon="7.04195" /><trkpt lat="46.47276" lon="7.04204" /><trkpt lat="46.47276" lon="7.04215" /><trkpt lat="46.47275" lon="7.04232" /><trkpt lat="46.47274" lon="7.04261" /><trkpt lat="46.47274" lon="7.04273" /><trkpt lat="46.47272" lon="7.04286" /><trkpt lat="46.4727" lon="7.04296" /><trkpt lat="46.47268" lon="7.04304" /><trkpt lat="46.47266" lon="7.0431" /><trkpt lat="46.47264" lon="7.04317" /><trkpt lat="46.47261" lon="7.04324" /><trkpt lat="46.47258" lon="7.0433" /><trkpt lat="46.47253" lon="7.04337" /><trkpt lat="46.47249" lon="7.04343" /><trkpt lat="46.47244" lon="7.04349" /><trkpt lat="46.47237" lon="7.04354" /><trkpt lat="46.47232" lon="7.04358" /><trkpt lat="46.47225" lon="7.04362" /><trkpt lat="46.47216" lon="7.04365" /><trkpt lat="46.47208" lon="7.04369" /><trkpt lat="46.47185" lon="7.04375" /><trkpt lat="46.47175" lon="7.04379" /><trkpt lat="46.47166" lon="7.04383" /><trkpt lat="46.47156" lon="7.04388" /><trkpt lat="46.47146" lon="7.04393" /><trkpt lat="46.47138" lon="7.04399" /><trkpt lat="46.47129" lon="7.04406" /><trkpt lat="46.47081" lon="7.04446" /><trkpt lat="46.4707" lon="7.04455" /><trkpt lat="46.47061" lon="7.04461" /><trkpt lat="46.47052" lon="7.04466" /><trkpt lat="46.47041" lon="7.04471" /><trkpt lat="46.47029" lon="7.04477" /><trkpt lat="46.4694" lon="7.04509" /><trkpt lat="46.46933" lon="7.04511" /><trkpt lat="46.46925" lon="7.04514" /><trkpt lat="46.46908" lon="7.04518" /><trkpt lat="46.46849" lon="7.04526" /><trkpt lat="46.46829" lon="7.04529" /><trkpt lat="46.46823" lon="7.0453" /><trkpt lat="46.46818" lon="7.04531" /><trkpt lat="46.4681" lon="7.04532" /><trkpt lat="46.46803" lon="7.04535" /><trkpt lat="46.46796" lon="7.04538" /><trkpt lat="46.4679" lon="7.04542" /><trkpt lat="46.46785" lon="7.04545" /><trkpt lat="46.4678" lon="7.04549" /><trkpt lat="46.46774" lon="7.04555" /><trkpt lat="46.46767" lon="7.04563" /><trkpt lat="46.4676" lon="7.04572" /><trkpt lat="46.46721" lon="7.04627" /><trkpt lat="46.46668" lon="7.04701" /><trkpt lat="46.46661" lon="7.0471" /><trkpt lat="46.46653" lon="7.0472" /><trkpt lat="46.4665" lon="7.04723" /><trkpt lat="46.46642" lon="7.04732" /><trkpt lat="46.46633" lon="7.04741" /><trkpt lat="46.46622" lon="7.0475" /><trkpt lat="46.46597" lon="7.04771" /><trkpt lat="46.46588" lon="7.04779" /><trkpt lat="46.4658" lon="7.04787" /><trkpt lat="46.46573" lon="7.04796" /><trkpt lat="46.46566" lon="7.04804" /><trkpt lat="46.46559" lon="7.04816" /><trkpt lat="46.46548" lon="7.04835" /><trkpt lat="46.46528" lon="7.04872" /><trkpt lat="46.46522" lon="7.04883" /><trkpt lat="46.46518" lon="7.04893" /><trkpt lat="46.46514" lon="7.04904" /><trkpt lat="46.46509" lon="7.04917" /><trkpt lat="46.46507" lon="7.04927" /><trkpt lat="46.46504" lon="7.04939" /><trkpt lat="46.46502" lon="7.04949" /><trkpt lat="46.46501" lon="7.0496" /><trkpt lat="46.46499" lon="7.04974" /><trkpt lat="46.46499" lon="7.04984" /><trkpt lat="46.46499" lon="7.04996" /><trkpt lat="46.465" lon="7.05016" /><trkpt lat="46.46501" lon="7.05034" /><trkpt lat="46.46502" lon="7.05054" /><trkpt lat="46.46505" lon="7.05086" /><trkpt lat="46.46506" lon="7.0511" /><trkpt lat="46.46507" lon="7.05122" /><trkpt lat="46.46507" lon="7.05135" /><trkpt lat="46.46507" lon="7.05143" /><trkpt lat="46.46507" lon="7.05153" /><trkpt lat="46.46506" lon="7.05162" /><trkpt lat="46.46504" lon="7.05172" /><trkpt lat="46.46503" lon="7.05183" /><trkpt lat="46.46501" lon="7.05191" /><trkpt lat="46.46498" lon="7.05201" /><trkpt lat="46.46495" lon="7.05209" /><trkpt lat="46.46491" lon="7.05219" /><trkpt lat="46.46488" lon="7.05228" /><trkpt lat="46.46483" lon="7.05238" /><trkpt lat="46.46476" lon="7.0525" /><trkpt lat="46.46468" lon="7.05264" /><trkpt lat="46.46457" lon="7.05282" /><trkpt lat="46.46449" lon="7.05295" /><trkpt lat="46.46445" lon="7.05303" /><trkpt lat="46.46441" lon="7.05309" /><trkpt lat="46.46438" lon="7.05316" /><trkpt lat="46.46436" lon="7.05321" /><trkpt lat="46.46433" lon="7.05327" /><trkpt lat="46.46431" lon="7.05333" /><trkpt lat="46.46428" lon="7.05343" /><trkpt lat="46.46425" lon="7.0535" /><trkpt lat="46.46423" lon="7.0536" /><trkpt lat="46.4642" lon="7.0537" /><trkpt lat="46.46418" lon="7.05382" /><trkpt lat="46.46417" lon="7.05394" /><trkpt lat="46.46416" lon="7.05402" /><trkpt lat="46.46415" lon="7.05416" /><trkpt lat="46.46415" lon="7.05428" /><trkpt lat="46.46415" lon="7.05439" /><trkpt lat="46.46416" lon="7.05446" /><trkpt lat="46.46417" lon="7.05456" /><trkpt lat="46.46418" lon="7.05467" /><trkpt lat="46.46419" lon="7.05478" /><trkpt lat="46.46425" lon="7.05514" /><trkpt lat="46.46427" lon="7.05526" /><trkpt lat="46.46428" lon="7.05537" /><trkpt lat="46.46428" lon="7.05546" /><trkpt lat="46.46429" lon="7.05554" /><trkpt lat="46.46429" lon="7.05561" /><trkpt lat="46.46428" lon="7.05568" /><trkpt lat="46.46428" lon="7.05574" /><trkpt lat="46.46427" lon="7.05582" /><trkpt lat="46.46426" lon="7.0559" /><trkpt lat="46.46425" lon="7.05598" /><trkpt lat="46.46424" lon="7.05607" /><trkpt lat="46.46421" lon="7.05618" /><trkpt lat="46.46418" lon="7.05633" /><trkpt lat="46.46414" lon="7.05651" /><trkpt lat="46.46401" lon="7.05706" /><trkpt lat="46.46398" lon="7.05721" /><trkpt lat="46.46396" lon="7.05731" /><trkpt lat="46.46395" lon="7.0574" /><trkpt lat="46.46394" lon="7.05751" /><trkpt lat="46.46394" lon="7.05759" /><trkpt lat="46.46394" lon="7.05767" /><trkpt lat="46.46394" lon="7.05777" /><trkpt lat="46.46394" lon="7.05794" /><trkpt lat="46.46396" lon="7.05843" /><trkpt lat="46.464" lon="7.05918" /><trkpt lat="46.46401" lon="7.05938" /><trkpt lat="46.46403" lon="7.05958" /><trkpt lat="46.46405" lon="7.05976" /><trkpt lat="46.46407" lon="7.05991" /><trkpt lat="46.46409" lon="7.06008" /><trkpt lat="46.46412" lon="7.06022" /><trkpt lat="46.46416" lon="7.06045" /><trkpt lat="46.4642" lon="7.06063" /><trkpt lat="46.46424" lon="7.06081" /><trkpt lat="46.46429" lon="7.061" /><trkpt lat="46.4644" lon="7.06142" /><trkpt lat="46.46452" lon="7.06184" /><trkpt lat="46.46457" lon="7.062" /><trkpt lat="46.46461" lon="7.06215" /><trkpt lat="46.46464" lon="7.0623" /><trkpt lat="46.46467" lon="7.06243" /><trkpt lat="46.46468" lon="7.06252" /><trkpt lat="46.46469" lon="7.06262" /><trkpt lat="46.46471" lon="7.06275" /><trkpt lat="46.46471" lon="7.06283" /><trkpt lat="46.46472" lon="7.06295" /><trkpt lat="46.46472" lon="7.06313" /><trkpt lat="46.46472" lon="7.06323" /><trkpt lat="46.46471" lon="7.06337" /><trkpt lat="46.4647" lon="7.06351" /><trkpt lat="46.46467" lon="7.06381" /><trkpt lat="46.46465" lon="7.06396" /><trkpt lat="46.46464" lon="7.06421" /><trkpt lat="46.46462" lon="7.06491" /><trkpt lat="46.46462" lon="7.06511" /><trkpt lat="46.46461" lon="7.06533" /><trkpt lat="46.46461" lon="7.06547" /><trkpt lat="46.46461" lon="7.06561" /><trkpt lat="46.46461" lon="7.06568" /><trkpt lat="46.46462" lon="7.06576" /><trkpt lat="46.46463" lon="7.06584" /><trkpt lat="46.46463" lon="7.0659" /><trkpt lat="46.46464" lon="7.06599" /><trkpt lat="46.46466" lon="7.06607" /><trkpt lat="46.46468" lon="7.06619" /><trkpt lat="46.46473" lon="7.06643" /><trkpt lat="46.46476" lon="7.06655" /><trkpt lat="46.46478" lon="7.06666" /><trkpt lat="46.46479" lon="7.06676" /><trkpt lat="46.46481" lon="7.06689" /><trkpt lat="46.46482" lon="7.06703" /><trkpt lat="46.46484" lon="7.06729" /><trkpt lat="46.46485" lon="7.06741" /><trkpt lat="46.46486" lon="7.06751" /><trkpt lat="46.46487" lon="7.06759" /><trkpt lat="46.46489" lon="7.06769" /><trkpt lat="46.46492" lon="7.06783" /><trkpt lat="46.46495" lon="7.06795" /><trkpt lat="46.46498" lon="7.06808" /><trkpt lat="46.46502" lon="7.06821" /><trkpt lat="46.46506" lon="7.06836" /><trkpt lat="46.4651" lon="7.06846" /><trkpt lat="46.46513" lon="7.06856" /><trkpt lat="46.46517" lon="7.06869" /><trkpt lat="46.46523" lon="7.06883" /><trkpt lat="46.46528" lon="7.06894" /><trkpt lat="46.46532" lon="7.06903" /><trkpt lat="46.46539" lon="7.06915" /><trkpt lat="46.4655" lon="7.06935" /><trkpt lat="46.46557" lon="7.06948" /><trkpt lat="46.46564" lon="7.06962" /><trkpt lat="46.46569" lon="7.06975" /><trkpt lat="46.46573" lon="7.06982" /><trkpt lat="46.46577" lon="7.06994" /><trkpt lat="46.4658" lon="7.07005" /><trkpt lat="46.46584" lon="7.07017" /><trkpt lat="46.46598" lon="7.0707" /><trkpt lat="46.46601" lon="7.07081" /><trkpt lat="46.46604" lon="7.07091" /><trkpt lat="46.46606" lon="7.07099" /><trkpt lat="46.4661" lon="7.07111" /><trkpt lat="46.46614" lon="7.07118" /><trkpt lat="46.46618" lon="7.07129" /><trkpt lat="46.46621" lon="7.07136" /><trkpt lat="46.46626" lon="7.07145" /><trkpt lat="46.46629" lon="7.07152" /><trkpt lat="46.46636" lon="7.07163" /><trkpt lat="46.46651" lon="7.07188" /><trkpt lat="46.4668" lon="7.07235" /><trkpt lat="46.46695" lon="7.07258" /><trkpt lat="46.46708" lon="7.07283" /><trkpt lat="46.46717" lon="7.07301" /><trkpt lat="46.46724" lon="7.07317" /><trkpt lat="46.46732" lon="7.07335" /><trkpt lat="46.46735" lon="7.07345" /><trkpt lat="46.46739" lon="7.07355" /><trkpt lat="46.46741" lon="7.07364" /><trkpt lat="46.46744" lon="7.07374" /><trkpt lat="46.46746" lon="7.07384" /><trkpt lat="46.46748" lon="7.07396" /><trkpt lat="46.46749" lon="7.07406" /><trkpt lat="46.4675" lon="7.07416" /><trkpt lat="46.46751" lon="7.07424" /><trkpt lat="46.46751" lon="7.07433" /><trkpt lat="46.46751" lon="7.07439" /><trkpt lat="46.46751" lon="7.07448" /><trkpt lat="46.4675" lon="7.07458" /><trkpt lat="46.4675" lon="7.07467" /><trkpt lat="46.46749" lon="7.07476" /><trkpt lat="46.46748" lon="7.07483" /><trkpt lat="46.46746" lon="7.07494" /><trkpt lat="46.46744" lon="7.07504" /><trkpt lat="46.46742" lon="7.07512" /><trkpt lat="46.4674" lon="7.0752" /><trkpt lat="46.46735" lon="7.07533" /><trkpt lat="46.46732" lon="7.07542" /><trkpt lat="46.46729" lon="7.07549" /><trkpt lat="46.46724" lon="7.07559" /><trkpt lat="46.46722" lon="7.07564" /><trkpt lat="46.46718" lon="7.0757" /><trkpt lat="46.46714" lon="7.07577" /><trkpt lat="46.4671" lon="7.07584" /><trkpt lat="46.46705" lon="7.07591" /><trkpt lat="46.46701" lon="7.07596" /><trkpt lat="46.46696" lon="7.07602" /><trkpt lat="46.4669" lon="7.07608" /><trkpt lat="46.46684" lon="7.07614" /><trkpt lat="46.46679" lon="7.07619" /><trkpt lat="46.46668" lon="7.07628" /><trkpt lat="46.46643" lon="7.07646" /><trkpt lat="46.46618" lon="7.07664" /><trkpt lat="46.46583" lon="7.0769" /><trkpt lat="46.46549" lon="7.07716" /><trkpt lat="46.46519" lon="7.07737" /><trkpt lat="46.46508" lon="7.07746" /><trkpt lat="46.46502" lon="7.07751" /><trkpt lat="46.46496" lon="7.07756" /><trkpt lat="46.46487" lon="7.07764" /><trkpt lat="46.46483" lon="7.07769" /><trkpt lat="46.46479" lon="7.07774" /><trkpt lat="46.46474" lon="7.07781" /><trkpt lat="46.46469" lon="7.07788" /><trkpt lat="46.46465" lon="7.07796" /><trkpt lat="46.4646" lon="7.07804" /><trkpt lat="46.46456" lon="7.07813" /><trkpt lat="46.46453" lon="7.07821" /><trkpt lat="46.4645" lon="7.07828" /><trkpt lat="46.46446" lon="7.0784" /><trkpt lat="46.46443" lon="7.0785" /><trkpt lat="46.46441" lon="7.0786" /><trkpt lat="46.46439" lon="7.07869" /><trkpt lat="46.46437" lon="7.0788" /><trkpt lat="46.46436" lon="7.07889" /><trkpt lat="46.46435" lon="7.07897" /><trkpt lat="46.46434" lon="7.07905" /><trkpt lat="46.46433" lon="7.07914" /><trkpt lat="46.46433" lon="7.07925" /><trkpt lat="46.46432" lon="7.07936" /><trkpt lat="46.46432" lon="7.07945" /><trkpt lat="46.46432" lon="7.07959" /><trkpt lat="46.46433" lon="7.07973" /><trkpt lat="46.46434" lon="7.07986" /><trkpt lat="46.46435" lon="7.07998" /><trkpt lat="46.46436" lon="7.08013" /><trkpt lat="46.46438" lon="7.08025" /><trkpt lat="46.4644" lon="7.08038" /><trkpt lat="46.46443" lon="7.08052" /><trkpt lat="46.46445" lon="7.08064" /><trkpt lat="46.4645" lon="7.08081" /><trkpt lat="46.4646" lon="7.08121" /><trkpt lat="46.46468" lon="7.08149" /><trkpt lat="46.46473" lon="7.08167" /><trkpt lat="46.46475" lon="7.08176" /><trkpt lat="46.46476" lon="7.08183" /><trkpt lat="46.46477" lon="7.08191" /><trkpt lat="46.46478" lon="7.08201" /><trkpt lat="46.46479" lon="7.08211" /><trkpt lat="46.46479" lon="7.08219" /><trkpt lat="46.46479" lon="7.08237" /><trkpt lat="46.46478" lon="7.083" /><trkpt lat="46.46476" lon="7.08411" /><trkpt lat="46.46476" lon="7.08438" /><trkpt lat="46.46477" lon="7.08452" /><trkpt lat="46.46477" lon="7.08465" /><trkpt lat="46.46478" lon="7.0847" /><trkpt lat="46.46479" lon="7.08483" /><trkpt lat="46.46479" lon="7.08491" /><trkpt lat="46.46487" lon="7.08556" /><trkpt lat="46.46488" lon="7.08566" /><trkpt lat="46.46489" lon="7.08576" /><trkpt lat="46.4649" lon="7.08586" /><trkpt lat="46.4649" lon="7.08597" /><trkpt lat="46.46489" lon="7.08607" /><trkpt lat="46.46489" lon="7.08617" /><trkpt lat="46.46488" lon="7.08628" /><trkpt lat="46.46486" lon="7.08641" /><trkpt lat="46.46481" lon="7.08669" /><trkpt lat="46.46479" lon="7.08687" /><trkpt lat="46.46477" lon="7.08699" /><trkpt lat="46.46476" lon="7.08712" /><trkpt lat="46.46475" lon="7.08724" /><trkpt lat="46.46475" lon="7.08735" /><trkpt lat="46.46474" lon="7.08747" /><trkpt lat="46.46474" lon="7.08761" /><trkpt lat="46.46475" lon="7.0878" /><trkpt lat="46.46477" lon="7.08869" /><trkpt lat="46.46478" lon="7.08894" /><trkpt lat="46.46477" lon="7.08908" /><trkpt lat="46.46477" lon="7.08918" /><trkpt lat="46.46476" lon="7.08928" /><trkpt lat="46.46474" lon="7.08941" /><trkpt lat="46.46472" lon="7.08953" /><trkpt lat="46.46468" lon="7.08968" /><trkpt lat="46.46464" lon="7.08981" /><trkpt lat="46.4646" lon="7.08993" /><trkpt lat="46.46446" lon="7.09026" /><trkpt lat="46.46442" lon="7.09036" /><trkpt lat="46.46438" lon="7.09046" /><trkpt lat="46.46435" lon="7.09059" /><trkpt lat="46.46432" lon="7.09069" /><trkpt lat="46.4643" lon="7.0908" /><trkpt lat="46.46428" lon="7.09093" /><trkpt lat="46.46427" lon="7.09103" /><trkpt lat="46.46427" lon="7.09118" /><trkpt lat="46.46427" lon="7.09129" /><trkpt lat="46.46427" lon="7.0914" /><trkpt lat="46.46428" lon="7.09153" /><trkpt lat="46.4643" lon="7.09166" /><trkpt lat="46.46433" lon="7.0918" /><trkpt lat="46.46436" lon="7.09192" /><trkpt lat="46.4644" lon="7.09205" /><trkpt lat="46.46444" lon="7.09216" /><trkpt lat="46.46449" lon="7.09228" /><trkpt lat="46.4646" lon="7.09248" /><trkpt lat="46.4647" lon="7.09266" /><trkpt lat="46.46477" lon="7.09281" /><trkpt lat="46.46487" lon="7.09298" /><trkpt lat="46.46494" lon="7.0931" /><trkpt lat="46.46503" lon="7.09324" /><trkpt lat="46.46523" lon="7.09353" /><trkpt lat="46.46562" lon="7.09423" /><trkpt lat="46.46578" lon="7.09456" /><trkpt lat="46.46583" lon="7.09466" /><trkpt lat="46.46587" lon="7.09474" /><trkpt lat="46.46591" lon="7.09486" /><trkpt lat="46.46593" lon="7.09492" /><trkpt lat="46.46596" lon="7.09501" /><trkpt lat="46.46598" lon="7.0951" /><trkpt lat="46.46601" lon="7.09522" /><trkpt lat="46.46602" lon="7.09532" /><trkpt lat="46.46604" lon="7.09544" /><trkpt lat="46.46605" lon="7.09557" /><trkpt lat="46.46605" lon="7.09572" /><trkpt lat="46.46606" lon="7.09588" /><trkpt lat="46.46606" lon="7.09611" /><trkpt lat="46.46606" lon="7.09639" /><trkpt lat="46.46606" lon="7.09656" /><trkpt lat="46.46606" lon="7.09668" /><trkpt lat="46.46605" lon="7.09679" /><trkpt lat="46.46605" lon="7.09687" /><trkpt lat="46.46604" lon="7.09698" /><trkpt lat="46.46602" lon="7.09709" /><trkpt lat="46.466" lon="7.09719" /><trkpt lat="46.46598" lon="7.09729" /><trkpt lat="46.46595" lon="7.0974" /><trkpt lat="46.46591" lon="7.09753" /><trkpt lat="46.46586" lon="7.09765" /><trkpt lat="46.4658" lon="7.09777" /><trkpt lat="46.46574" lon="7.09789" /><trkpt lat="46.46566" lon="7.09802" /><trkpt lat="46.46552" lon="7.09824" /><trkpt lat="46.46539" lon="7.09844" /><trkpt lat="46.46532" lon="7.09857" /><trkpt lat="46.46526" lon="7.09868" /><trkpt lat="46.46521" lon="7.09881" /><trkpt lat="46.46516" lon="7.09895" /><trkpt lat="46.46512" lon="7.09909" /><trkpt lat="46.46508" lon="7.09925" /><trkpt lat="46.46506" lon="7.09939" /><trkpt lat="46.46504" lon="7.09952" /><trkpt lat="46.46503" lon="7.09964" /><trkpt lat="46.46503" lon="7.09975" /><trkpt lat="46.46503" lon="7.09985" /><trkpt lat="46.46503" lon="7.09996" /><trkpt lat="46.46504" lon="7.10007" /><trkpt lat="46.46505" lon="7.10016" /><trkpt lat="46.46507" lon="7.10028" /><trkpt lat="46.46509" lon="7.10041" /><trkpt lat="46.46512" lon="7.10051" /><trkpt lat="46.46514" lon="7.1006" /><trkpt lat="46.46524" lon="7.10092" /><trkpt lat="46.46534" lon="7.10121" /><trkpt lat="46.46539" lon="7.1014" /><trkpt lat="46.46544" lon="7.10159" /><trkpt lat="46.46548" lon="7.10184" /><trkpt lat="46.46551" lon="7.10213" /><trkpt lat="46.4656" lon="7.10305" /><trkpt lat="46.46564" lon="7.10336" /><trkpt lat="46.46568" lon="7.10356" /><trkpt lat="46.46577" lon="7.10393" /><trkpt lat="46.46589" lon="7.10431" /><trkpt lat="46.46594" lon="7.10452" /><trkpt lat="46.46598" lon="7.10472" /><trkpt lat="46.46602" lon="7.10491" /><trkpt lat="46.46604" lon="7.10509" /><trkpt lat="46.46613" lon="7.10622" /><trkpt lat="46.46618" lon="7.10676" /><trkpt lat="46.46625" lon="7.10764" /><trkpt lat="46.46632" lon="7.1081" /><trkpt lat="46.46635" lon="7.1083" /><trkpt lat="46.4664" lon="7.10853" /><trkpt lat="46.46646" lon="7.10882" /><trkpt lat="46.46654" lon="7.10912" /><trkpt lat="46.46663" lon="7.10942" /><trkpt lat="46.46677" lon="7.10981" /><trkpt lat="46.46696" lon="7.11033" /><trkpt lat="46.46706" lon="7.11059" /><trkpt lat="46.46716" lon="7.11082" /><trkpt lat="46.46729" lon="7.11108" /><trkpt lat="46.46747" lon="7.11137" /><trkpt lat="46.4676" lon="7.11161" /><trkpt lat="46.4677" lon="7.11183" /><trkpt lat="46.46791" lon="7.11234" /><trkpt lat="46.468" lon="7.11252" /><trkpt lat="46.46811" lon="7.1127" /><trkpt lat="46.46833" lon="7.11301" /><trkpt lat="46.46844" lon="7.11316" /><trkpt lat="46.46856" lon="7.11337" /><trkpt lat="46.46868" lon="7.11362" /><trkpt lat="46.46876" lon="7.11385" /><trkpt lat="46.46884" lon="7.11413" /><trkpt lat="46.46888" lon="7.11436" /><trkpt lat="46.46891" lon="7.11459" /><trkpt lat="46.46893" lon="7.11479" /><trkpt lat="46.46893" lon="7.11502" /><trkpt lat="46.46891" lon="7.11523" /><trkpt lat="46.46888" lon="7.11552" /><trkpt lat="46.46882" lon="7.11588" /><trkpt lat="46.46871" lon="7.11658" /><trkpt lat="46.46861" lon="7.11714" /><trkpt lat="46.46842" lon="7.11834" /><trkpt lat="46.46838" lon="7.11864" /><trkpt lat="46.46836" lon="7.11891" /><trkpt lat="46.46836" lon="7.11921" /><trkpt lat="46.46837" lon="7.11951" /><trkpt lat="46.4684" lon="7.11979" /><trkpt lat="46.46843" lon="7.12002" /><trkpt lat="46.46847" lon="7.12028" /><trkpt lat="46.46852" lon="7.12049" /><trkpt lat="46.46861" lon="7.12079" /><trkpt lat="46.4687" lon="7.12106" /><trkpt lat="46.46882" lon="7.12133" /><trkpt lat="46.46895" lon="7.12158" /><trkpt lat="46.46911" lon="7.12185" /><trkpt lat="46.46927" lon="7.12206" /><trkpt lat="46.46946" lon="7.1223" /><trkpt lat="46.46966" lon="7.12248" /><trkpt lat="46.47029" lon="7.12301" /><trkpt lat="46.47075" lon="7.12339" /><trkpt lat="46.47087" lon="7.12348" /><trkpt lat="46.471" lon="7.12355" /><trkpt lat="46.47111" lon="7.1236" /><trkpt lat="46.47123" lon="7.12363" /><trkpt lat="46.47134" lon="7.12365" /><trkpt lat="46.47164" lon="7.12369" /><trkpt lat="46.47177" lon="7.12372" /><trkpt lat="46.47184" lon="7.12373" /><trkpt lat="46.47192" lon="7.12376" /><trkpt lat="46.47202" lon="7.1238" /><trkpt lat="46.47211" lon="7.12385" /><trkpt lat="46.47258" lon="7.12411" /><trkpt lat="46.47274" lon="7.12421" /><trkpt lat="46.47288" lon="7.12433" /><trkpt lat="46.473" lon="7.12446" /><trkpt lat="46.47342" lon="7.12494" /><trkpt lat="46.47354" lon="7.12509" /><trkpt lat="46.47362" lon="7.12521" /><trkpt lat="46.47368" lon="7.12532" /><trkpt lat="46.47393" lon="7.12575" /><trkpt lat="46.47416" lon="7.12613" /><trkpt lat="46.47422" lon="7.12622" /><trkpt lat="46.47427" lon="7.12633" /><trkpt lat="46.47431" lon="7.12641" /><trkpt lat="46.47435" lon="7.12648" /><trkpt lat="46.47438" lon="7.12655" /><trkpt lat="46.4744" lon="7.12661" /><trkpt lat="46.47442" lon="7.12667" /><trkpt lat="46.47445" lon="7.12674" /><trkpt lat="46.47447" lon="7.1268" /><trkpt lat="46.47448" lon="7.12687" /><trkpt lat="46.4745" lon="7.12694" /><trkpt lat="46.47451" lon="7.127" /><trkpt lat="46.47452" lon="7.12704" /><trkpt lat="46.47453" lon="7.1271" /><trkpt lat="46.47454" lon="7.12717" /><trkpt lat="46.47455" lon="7.12724" /><trkpt lat="46.47456" lon="7.12731" /><trkpt lat="46.47456" lon="7.12738" /><trkpt lat="46.47456" lon="7.12745" /><trkpt lat="46.47456" lon="7.12753" /><trkpt lat="46.47456" lon="7.12762" /><trkpt lat="46.47456" lon="7.12771" /><trkpt lat="46.47455" lon="7.1278" /><trkpt lat="46.47454" lon="7.12789" /><trkpt lat="46.47453" lon="7.12801" /><trkpt lat="46.47442" lon="7.12889" /><trkpt lat="46.47441" lon="7.12896" /><trkpt lat="46.4744" lon="7.12903" /><trkpt lat="46.4744" lon="7.12909" /><trkpt lat="46.47439" lon="7.12916" /><trkpt lat="46.47439" lon="7.12924" /><trkpt lat="46.4744" lon="7.12931" /><trkpt lat="46.4744" lon="7.12937" /><trkpt lat="46.4744" lon="7.12943" /><trkpt lat="46.47441" lon="7.12953" /><trkpt lat="46.47448" lon="7.13005" /><trkpt lat="46.47452" lon="7.13045" /><trkpt lat="46.47454" lon="7.13057" /><trkpt lat="46.47457" lon="7.13084" /><trkpt lat="46.47461" lon="7.13113" /><trkpt lat="46.47463" lon="7.13131" /><trkpt lat="46.47465" lon="7.13147" /><trkpt lat="46.47468" lon="7.13164" /><trkpt lat="46.47471" lon="7.13177" /><trkpt lat="46.47474" lon="7.13191" /><trkpt lat="46.47478" lon="7.13206" /><trkpt lat="46.47483" lon="7.13222" /><trkpt lat="46.47488" lon="7.13236" /><trkpt lat="46.47495" lon="7.13254" /><trkpt lat="46.47507" lon="7.1328" /><trkpt lat="46.47513" lon="7.13292" /><trkpt lat="46.47519" lon="7.13304" /><trkpt lat="46.47525" lon="7.13317" /><trkpt lat="46.4753" lon="7.13325" /><trkpt lat="46.47534" lon="7.13333" /><trkpt lat="46.47539" lon="7.13342" /><trkpt lat="46.47548" lon="7.13364" /><trkpt lat="46.47557" lon="7.13382" /><trkpt lat="46.4756" lon="7.1339" /><trkpt lat="46.47579" lon="7.13432" /><trkpt lat="46.47589" lon="7.13453" /><trkpt lat="46.47599" lon="7.13472" /><trkpt lat="46.4762" lon="7.13506" /><trkpt lat="46.47627" lon="7.13517" /><trkpt lat="46.47633" lon="7.13529" /><trkpt lat="46.47638" lon="7.1354" /><trkpt lat="46.47641" lon="7.1355" /><trkpt lat="46.47643" lon="7.1356" /><trkpt lat="46.47645" lon="7.13571" /><trkpt lat="46.47646" lon="7.13583" /><trkpt lat="46.47646" lon="7.13596" /><trkpt lat="46.47645" lon="7.13612" /><trkpt lat="46.47642" lon="7.13626" /><trkpt lat="46.47637" lon="7.13644" /><trkpt lat="46.47631" lon="7.13658" /><trkpt lat="46.47626" lon="7.1367" /><trkpt lat="46.47615" lon="7.13697" /><trkpt lat="46.47597" lon="7.13744" /><trkpt lat="46.4759" lon="7.13766" /><trkpt lat="46.47588" lon="7.13774" /><trkpt lat="46.47584" lon="7.13792" /><trkpt lat="46.47582" lon="7.13813" /><trkpt lat="46.47582" lon="7.13834" /><trkpt lat="46.47583" lon="7.13859" /><trkpt lat="46.47585" lon="7.13879" /><trkpt lat="46.47588" lon="7.13899" /><trkpt lat="46.47593" lon="7.1392" /><trkpt lat="46.476" lon="7.13942" /><trkpt lat="46.4763" lon="7.14024" /><trkpt lat="46.47639" lon="7.14049" /><trkpt lat="46.47645" lon="7.14072" /><trkpt lat="46.47649" lon="7.14091" /><trkpt lat="46.47652" lon="7.14113" /><trkpt lat="46.47654" lon="7.14135" /><trkpt lat="46.47654" lon="7.14153" /><trkpt lat="46.47653" lon="7.14178" /><trkpt lat="46.4765" lon="7.14207" /><trkpt lat="46.47646" lon="7.14233" /><trkpt lat="46.47641" lon="7.14257" /><trkpt lat="46.47633" lon="7.14285" /><trkpt lat="46.47622" lon="7.14313" /><trkpt lat="46.47611" lon="7.14339" /><trkpt lat="46.47577" lon="7.14413" /><trkpt lat="46.4755" lon="7.1447" /><trkpt lat="46.47536" lon="7.14505" /><trkpt lat="46.47525" lon="7.14539" /><trkpt lat="46.47518" lon="7.14571" /><trkpt lat="46.47512" lon="7.14604" /><trkpt lat="46.47508" lon="7.14636" /><trkpt lat="46.47506" lon="7.14669" /><trkpt lat="46.47505" lon="7.14712" /><trkpt lat="46.47507" lon="7.14766" /><trkpt lat="46.4751" lon="7.14826" /><trkpt lat="46.47515" lon="7.14911" /><trkpt lat="46.47517" lon="7.14945" /><trkpt lat="46.4752" lon="7.14974" /><trkpt lat="46.47524" lon="7.15003" /><trkpt lat="46.47532" lon="7.15051" /><trkpt lat="46.47533" lon="7.15067" /><trkpt lat="46.47534" lon="7.1508" /><trkpt lat="46.47534" lon="7.15095" /><trkpt lat="46.47532" lon="7.15107" /><trkpt lat="46.47531" lon="7.15117" /><trkpt lat="46.47528" lon="7.15128" /><trkpt lat="46.47523" lon="7.15142" /><trkpt lat="46.47434" lon="7.15367" /><trkpt lat="46.47428" lon="7.15385" /><trkpt lat="46.47423" lon="7.15404" /><trkpt lat="46.47421" lon="7.15421" /><trkpt lat="46.4742" lon="7.15439" /><trkpt lat="46.4742" lon="7.15469" /><trkpt lat="46.47419" lon="7.15488" /><trkpt lat="46.47418" lon="7.15506" /><trkpt lat="46.47415" lon="7.15523" /><trkpt lat="46.4741" lon="7.15539" /><trkpt lat="46.47404" lon="7.15555" /><trkpt lat="46.4739" lon="7.15578" /><trkpt lat="46.47374" lon="7.15605" /><trkpt lat="46.47369" lon="7.15614" /><trkpt lat="46.47365" lon="7.1562" /><trkpt lat="46.47362" lon="7.15628" /><trkpt lat="46.4736" lon="7.15633" /><trkpt lat="46.47358" lon="7.15641" /><trkpt lat="46.47356" lon="7.15648" /><trkpt lat="46.47354" lon="7.15655" /><trkpt lat="46.47353" lon="7.15662" /><trkpt lat="46.47353" lon="7.15669" /><trkpt lat="46.47352" lon="7.15675" /><trkpt lat="46.47352" lon="7.15681" /><trkpt lat="46.47352" lon="7.15687" /><trkpt lat="46.47353" lon="7.15694" /><trkpt lat="46.47353" lon="7.157" /><trkpt lat="46.47354" lon="7.15706" /><trkpt lat="46.47356" lon="7.15714" /><trkpt lat="46.47357" lon="7.15722" /><trkpt lat="46.47359" lon="7.15732" /><trkpt lat="46.47365" lon="7.15756" /><trkpt lat="46.47369" lon="7.15771" /><trkpt lat="46.47371" lon="7.1578" /><trkpt lat="46.47372" lon="7.15787" /><trkpt lat="46.47373" lon="7.15796" /><trkpt lat="46.47373" lon="7.15804" /><trkpt lat="46.47374" lon="7.15812" /><trkpt lat="46.47374" lon="7.15819" /><trkpt lat="46.47373" lon="7.15827" /><trkpt lat="46.47373" lon="7.15836" /><trkpt lat="46.47366" lon="7.15897" /><trkpt lat="46.47365" lon="7.15906" /><trkpt lat="46.47364" lon="7.15913" /><trkpt lat="46.47364" lon="7.15921" /><trkpt lat="46.47364" lon="7.15927" /><trkpt lat="46.47365" lon="7.15934" /><trkpt lat="46.47365" lon="7.1594" /><trkpt lat="46.47366" lon="7.15946" /><trkpt lat="46.47367" lon="7.15953" /><trkpt lat="46.47369" lon="7.1596" /><trkpt lat="46.47371" lon="7.15969" /><trkpt lat="46.47378" lon="7.15994" /><trkpt lat="46.4738" lon="7.16002" /><trkpt lat="46.47382" lon="7.16011" /><trkpt lat="46.47383" lon="7.16019" /><trkpt lat="46.47384" lon="7.16025" /><trkpt lat="46.47385" lon="7.16032" /><trkpt lat="46.47385" lon="7.1604" /><trkpt lat="46.47385" lon="7.16046" /><trkpt lat="46.47385" lon="7.16051" /><trkpt lat="46.47384" lon="7.16056" /><trkpt lat="46.47384" lon="7.16062" /><trkpt lat="46.47382" lon="7.1607" /><trkpt lat="46.47381" lon="7.16077" /><trkpt lat="46.47378" lon="7.16086" /><trkpt lat="46.47376" lon="7.16092" /><trkpt lat="46.47373" lon="7.16099" /><trkpt lat="46.4737" lon="7.16106" /><trkpt lat="46.47366" lon="7.16113" /><trkpt lat="46.47362" lon="7.16118" /><trkpt lat="46.47357" lon="7.16124" /><trkpt lat="46.47352" lon="7.1613" /><trkpt lat="46.47347" lon="7.16135" /><trkpt lat="46.47338" lon="7.16144" /><trkpt lat="46.47332" lon="7.1615" /><trkpt lat="46.47325" lon="7.16159" /><trkpt lat="46.47321" lon="7.16163" /><trkpt lat="46.47317" lon="7.16169" /><trkpt lat="46.47313" lon="7.16176" /><trkpt lat="46.4731" lon="7.16184" /><trkpt lat="46.47307" lon="7.16191" /><trkpt lat="46.47305" lon="7.16197" /><trkpt lat="46.47304" lon="7.16204" /><trkpt lat="46.47302" lon="7.16211" /><trkpt lat="46.47301" lon="7.16218" /><trkpt lat="46.473" lon="7.16223" /><trkpt lat="46.473" lon="7.1623" /><trkpt lat="46.473" lon="7.16236" /><trkpt lat="46.473" lon="7.16242" /><trkpt lat="46.473" lon="7.16248" /><trkpt lat="46.47301" lon="7.16256" /><trkpt lat="46.47302" lon="7.16263" /><trkpt lat="46.47303" lon="7.1627" /><trkpt lat="46.47305" lon="7.16279" /><trkpt lat="46.47307" lon="7.16286" /><trkpt lat="46.4731" lon="7.16293" /><trkpt lat="46.47313" lon="7.163" /><trkpt lat="46.47316" lon="7.16306" /><trkpt lat="46.4732" lon="7.16312" /><trkpt lat="46.47325" lon="7.1632" /><trkpt lat="46.47329" lon="7.16326" /><trkpt lat="46.47333" lon="7.1633" /><trkpt lat="46.47337" lon="7.16335" /><trkpt lat="46.47342" lon="7.16339" /><trkpt lat="46.47346" lon="7.16343" /><trkpt lat="46.4735" lon="7.16346" /><trkpt lat="46.47355" lon="7.1635" /><trkpt lat="46.4736" lon="7.16352" /><trkpt lat="46.47364" lon="7.16355" /><trkpt lat="46.47382" lon="7.16363" /><trkpt lat="46.47387" lon="7.16366" /><trkpt lat="46.47392" lon="7.16369" /><trkpt lat="46.47396" lon="7.16372" /><trkpt lat="46.474" lon="7.16375" /><trkpt lat="46.47403" lon="7.16378" /><trkpt lat="46.47406" lon="7.16381" /><trkpt lat="46.4741" lon="7.16385" /><trkpt lat="46.47413" lon="7.16389" /><trkpt lat="46.47417" lon="7.16395" /><trkpt lat="46.47418" lon="7.16396" /><trkpt lat="46.47423" lon="7.16406" /><trkpt lat="46.47429" lon="7.16419" /><trkpt lat="46.47435" lon="7.16436" /><trkpt lat="46.47445" lon="7.16468" /><trkpt lat="46.47452" lon="7.1649" /><trkpt lat="46.47457" lon="7.16511" /><trkpt lat="46.47461" lon="7.16534" /><trkpt lat="46.47466" lon="7.16574" /><trkpt lat="46.47478" lon="7.16664" /><trkpt lat="46.47489" lon="7.16748" /><trkpt lat="46.47495" lon="7.16791" /><trkpt lat="46.47498" lon="7.16813" /><trkpt lat="46.47502" lon="7.16834" /><trkpt lat="46.47507" lon="7.16855" /><trkpt lat="46.47512" lon="7.16871" /><trkpt lat="46.47519" lon="7.16888" /><trkpt lat="46.47525" lon="7.16902" /><trkpt lat="46.47533" lon="7.16915" /><trkpt lat="46.47542" lon="7.16928" /><trkpt lat="46.4755" lon="7.16939" /><trkpt lat="46.47561" lon="7.1695" /><trkpt lat="46.47574" lon="7.16962" /><trkpt lat="46.47671" lon="7.17041" /><trkpt lat="46.47688" lon="7.17056" /><trkpt lat="46.47696" lon="7.17064" /><trkpt lat="46.47706" lon="7.17076" /><trkpt lat="46.47712" lon="7.17087" /><trkpt lat="46.47717" lon="7.17097" /><trkpt lat="46.47721" lon="7.17108" /><trkpt lat="46.47725" lon="7.17119" /><trkpt lat="46.47728" lon="7.1713" /><trkpt lat="46.4774" lon="7.17182" /><trkpt lat="46.47748" lon="7.17216" /><trkpt lat="46.47775" lon="7.17327" /><trkpt lat="46.47778" lon="7.17337" /><trkpt lat="46.4778" lon="7.17345" /><trkpt lat="46.47783" lon="7.17354" /><trkpt lat="46.47786" lon="7.17361" /><trkpt lat="46.47789" lon="7.17367" /><trkpt lat="46.47793" lon="7.17375" /><trkpt lat="46.47798" lon="7.17383" /><trkpt lat="46.47804" lon="7.17392" /><trkpt lat="46.47812" lon="7.17401" /><trkpt lat="46.4783" lon="7.17424" /><trkpt lat="46.47866" lon="7.17466" /><trkpt lat="46.47913" lon="7.17525" /><trkpt lat="46.47947" lon="7.17567" /><trkpt lat="46.47957" lon="7.17581" /><trkpt lat="46.47965" lon="7.17594" /><trkpt lat="46.47974" lon="7.17607" /><trkpt lat="46.47981" lon="7.1762" /><trkpt lat="46.47989" lon="7.17633" /><trkpt lat="46.47997" lon="7.1765" /><trkpt lat="46.48007" lon="7.17671" /><trkpt lat="46.48014" lon="7.17687" /><trkpt lat="46.4802" lon="7.17703" /><trkpt lat="46.48026" lon="7.17718" /><trkpt lat="46.48032" lon="7.17738" /><trkpt lat="46.48038" lon="7.17759" /><trkpt lat="46.48042" lon="7.17775" /><trkpt lat="46.48046" lon="7.17791" /><trkpt lat="46.48049" lon="7.17805" /><trkpt lat="46.48052" lon="7.1782" /><trkpt lat="46.48054" lon="7.17833" /><trkpt lat="46.48057" lon="7.17852" /><trkpt lat="46.4806" lon="7.17881" /><trkpt lat="46.48066" lon="7.17945" /><trkpt lat="46.4807" lon="7.17983" /><trkpt lat="46.48073" lon="7.18021" /><trkpt lat="46.48077" lon="7.18054" /><trkpt lat="46.4808" lon="7.18078" /><trkpt lat="46.48084" lon="7.18096" /><trkpt lat="46.4809" lon="7.18118" /><trkpt lat="46.48099" lon="7.18143" /><trkpt lat="46.48148" lon="7.18292" /><trkpt lat="46.48149" lon="7.18296" /><trkpt lat="46.48167" lon="7.1835" /><trkpt lat="46.48171" lon="7.18367" /><trkpt lat="46.48175" lon="7.18383" /><trkpt lat="46.48182" lon="7.18419" /><trkpt lat="46.48206" lon="7.1855" /><trkpt lat="46.48229" lon="7.18669" /><trkpt lat="46.48242" lon="7.18743" /><trkpt lat="46.48246" lon="7.18762" /><trkpt lat="46.4825" lon="7.18781" /><trkpt lat="46.48254" lon="7.18796" /><trkpt lat="46.48258" lon="7.18811" /><trkpt lat="46.48263" lon="7.18824" /><trkpt lat="46.48278" lon="7.18873" /><trkpt lat="46.48291" lon="7.18913" /><trkpt lat="46.48301" lon="7.18952" /><trkpt lat="46.48308" lon="7.18984" /><trkpt lat="46.48329" lon="7.19105" /><trkpt lat="46.48368" lon="7.19333" /><trkpt lat="46.48379" lon="7.19396" /><trkpt lat="46.48389" lon="7.19447" /><trkpt lat="46.48397" lon="7.19485" /><trkpt lat="46.48408" lon="7.19532" /><trkpt lat="46.48422" lon="7.19584" /><trkpt lat="46.48437" lon="7.19628" /><trkpt lat="46.48451" lon="7.1967" /><trkpt lat="46.48469" lon="7.19719" /><trkpt lat="46.48542" lon="7.19896" /><trkpt lat="46.48559" lon="7.19939" /><trkpt lat="46.48632" lon="7.20134" /><trkpt lat="46.48642" lon="7.20158" /><trkpt lat="46.48652" lon="7.20176" /><trkpt lat="46.48662" lon="7.20191" /><trkpt lat="46.48678" lon="7.20209" /><trkpt lat="46.48693" lon="7.20221" /><trkpt lat="46.48714" lon="7.20236" /><trkpt lat="46.48749" lon="7.20262" /><trkpt lat="46.48767" lon="7.20277" /><trkpt lat="46.48779" lon="7.2029" /><trkpt lat="46.4879" lon="7.20306" /><trkpt lat="46.488" lon="7.20324" /><trkpt lat="46.48807" lon="7.20341" /><trkpt lat="46.48813" lon="7.20359" /><trkpt lat="46.48819" lon="7.20378" /><trkpt lat="46.48823" lon="7.204" /><trkpt lat="46.48824" lon="7.20419" /><trkpt lat="46.48825" lon="7.20438" /><trkpt lat="46.48826" lon="7.20468" /><trkpt lat="46.48837" lon="7.20778" /><trkpt lat="46.48838" lon="7.20789" /><trkpt lat="46.48838" lon="7.2082" /><trkpt lat="46.4884" lon="7.20878" /><trkpt lat="46.48842" lon="7.20912" /><trkpt lat="46.48842" lon="7.20922" /><trkpt lat="46.48845" lon="7.21011" /><trkpt lat="46.48848" lon="7.21086" /><trkpt lat="46.48851" lon="7.21163" /><trkpt lat="46.48851" lon="7.21185" /><trkpt lat="46.48852" lon="7.21198" /><trkpt lat="46.48866" lon="7.21592" /><trkpt lat="46.48867" lon="7.2163" /><trkpt lat="46.48866" lon="7.21667" /><trkpt lat="46.48864" lon="7.21707" /><trkpt lat="46.48859" lon="7.21747" /><trkpt lat="46.48855" lon="7.2178" /><trkpt lat="46.48849" lon="7.21814" /><trkpt lat="46.48843" lon="7.2184" /><trkpt lat="46.48837" lon="7.21863" /><trkpt lat="46.48807" lon="7.21985" /><trkpt lat="46.48803" lon="7.22002" /><trkpt lat="46.48757" lon="7.22186" /><trkpt lat="46.48749" lon="7.22222" /><trkpt lat="46.48743" lon="7.22261" /><trkpt lat="46.48738" lon="7.22297" /><trkpt lat="46.48735" lon="7.22332" /><trkpt lat="46.48733" lon="7.2237" /><trkpt lat="46.48729" lon="7.22447" /><trkpt lat="46.48727" lon="7.22496" /><trkpt lat="46.48725" lon="7.22542" /><trkpt lat="46.48723" lon="7.22682" /><trkpt lat="46.48723" lon="7.22719" /><trkpt lat="46.48721" lon="7.22753" /><trkpt lat="46.48719" lon="7.22787" /><trkpt lat="46.48715" lon="7.22817" /><trkpt lat="46.48712" lon="7.22844" /><trkpt lat="46.48708" lon="7.22873" /><trkpt lat="46.48699" lon="7.22916" /><trkpt lat="46.48685" lon="7.22997" /><trkpt lat="46.4868" lon="7.23038" /><trkpt lat="46.48677" lon="7.23069" /><trkpt lat="46.48675" lon="7.231" /><trkpt lat="46.48675" lon="7.23147" /><trkpt lat="46.48675" lon="7.23174" /><trkpt lat="46.48678" lon="7.23201" /><trkpt lat="46.48685" lon="7.23261" /><trkpt lat="46.48696" lon="7.23324" /><trkpt lat="46.48715" lon="7.23417" /><trkpt lat="46.48729" lon="7.23517" /><trkpt lat="46.48735" lon="7.23555" /><trkpt lat="46.4874" lon="7.23588" /><trkpt lat="46.48743" lon="7.23619" /><trkpt lat="46.48745" lon="7.23652" /><trkpt lat="46.48745" lon="7.2368" /><trkpt lat="46.48744" lon="7.23704" /><trkpt lat="46.48742" lon="7.23745" /><trkpt lat="46.48732" lon="7.23833" /><trkpt lat="46.48731" lon="7.23867" /><trkpt lat="46.48732" lon="7.23904" /><trkpt lat="46.48734" lon="7.23989" /><trkpt lat="46.48739" lon="7.24208" /><trkpt lat="46.48741" lon="7.24261" /><trkpt lat="46.48745" lon="7.24304" /><trkpt lat="46.48774" lon="7.24564" /><trkpt lat="46.48777" lon="7.246" /><trkpt lat="46.48777" lon="7.24636" /><trkpt lat="46.48775" lon="7.24672" /><trkpt lat="46.48772" lon="7.24708" /><trkpt lat="46.48768" lon="7.24753" /><trkpt lat="46.48767" lon="7.24777" /><trkpt lat="46.48766" lon="7.24803" /><trkpt lat="46.48768" lon="7.24825" /><trkpt lat="46.48772" lon="7.24862" /><trkpt lat="46.48789" lon="7.24989" /><trkpt lat="46.48794" lon="7.25026" /><trkpt lat="46.488" lon="7.2509" /><trkpt lat="46.488" lon="7.25148" /><trkpt lat="46.48799" lon="7.25208" /><trkpt lat="46.48794" lon="7.25433" /><trkpt lat="46.48793" lon="7.2547" /><trkpt lat="46.48793" lon="7.2551" /><trkpt lat="46.48795" lon="7.25546" /><trkpt lat="46.48798" lon="7.25577" /><trkpt lat="46.48802" lon="7.25613" /><trkpt lat="46.48808" lon="7.25653" /><trkpt lat="46.48836" lon="7.25825" /><trkpt lat="46.48838" lon="7.25841" /><trkpt lat="46.4884" lon="7.25857" /><trkpt lat="46.48842" lon="7.25882" /><trkpt lat="46.48843" lon="7.25907" /><trkpt lat="46.48843" lon="7.25947" /><trkpt lat="46.48843" lon="7.25955" /><trkpt lat="46.48843" lon="7.25964" /><trkpt lat="46.48843" lon="7.25983" /><trkpt lat="46.48844" lon="7.26074" /><trkpt lat="46.48844" lon="7.26172" /><trkpt lat="46.48844" lon="7.26191" /><trkpt lat="46.48844" lon="7.26203" /><trkpt lat="46.48843" lon="7.26217" /><trkpt lat="46.4884" lon="7.26235" /><trkpt lat="46.48833" lon="7.26265" /><trkpt lat="46.48823" lon="7.26301" /><trkpt lat="46.48807" lon="7.26354" /><trkpt lat="46.488" lon="7.26376" /><trkpt lat="46.48794" lon="7.26392" /><trkpt lat="46.48786" lon="7.26407" /><trkpt lat="46.48776" lon="7.26424" /><trkpt lat="46.48599" lon="7.26704" /><trkpt lat="46.48598" lon="7.26705" /><trkpt lat="46.48591" lon="7.26716" /><trkpt lat="46.48475" lon="7.26898" /><trkpt lat="46.48443" lon="7.26948" /><trkpt lat="46.48408" lon="7.2699" /><trkpt lat="46.48215" lon="7.27212" /><trkpt lat="46.48" lon="7.27493" /><trkpt lat="46.47957" lon="7.2755" /><trkpt lat="46.47947" lon="7.27564" /><trkpt lat="46.47938" lon="7.27579" /><trkpt lat="46.47928" lon="7.27594" /><trkpt lat="46.4792" lon="7.27609" /><trkpt lat="46.47911" lon="7.27624" /><trkpt lat="46.47903" lon="7.27639" /><trkpt lat="46.47895" lon="7.27655" /><trkpt lat="46.47879" lon="7.27688" /><trkpt lat="46.47744" lon="7.27965" /><trkpt lat="46.47737" lon="7.2798" /><trkpt lat="46.4773" lon="7.27995" /><trkpt lat="46.47685" lon="7.28095" /><trkpt lat="46.47679" lon="7.28107" /><trkpt lat="46.47674" lon="7.28119" /><trkpt lat="46.47661" lon="7.28148" /><trkpt lat="46.4765" lon="7.28177" /><trkpt lat="46.47627" lon="7.28233" /><trkpt lat="46.47621" lon="7.28246" /><trkpt lat="46.47617" lon="7.28255" /><trkpt lat="46.47613" lon="7.28263" /><trkpt lat="46.47609" lon="7.2827" /><trkpt lat="46.47604" lon="7.28278" /><trkpt lat="46.47598" lon="7.28288" /><trkpt lat="46.4759" lon="7.28299" /><trkpt lat="46.47584" lon="7.28308" /><trkpt lat="46.47574" lon="7.2832" /><trkpt lat="46.47537" lon="7.28365" /><trkpt lat="46.47504" lon="7.28404" /><trkpt lat="46.47504" lon="7.28404" /></trkseg></trk></gpx>