<gpx version="1.1" creator="Trainlog.me"><trk><name>Trip Path</name><trkseg><trkpt lat="46.3844" lon="6.23584" /><trkpt lat="46.38553" lon="6.23719" /><trkpt lat="46.38575" lon="6.23746" /><trkpt lat="46.38593" lon="6.23766" /><trkpt lat="46.38611" lon="6.23786" /><trkpt lat="46.38626" lon="6.23802" /><trkpt lat="46.3864" lon="6.23818" /><trkpt lat="46.38654" lon="6.23832" /><trkpt lat="46.38671" lon="6.23849" /><trkpt lat="46.38688" lon="6.23865" /><trkpt lat="46.38705" lon="6.23882" /><trkpt lat="46.38731" lon="6.23905" /><trkpt lat="46.38767" lon="6.23936" /><trkpt lat="46.38795" lon="6.23959" /><trkpt lat="46.38824" lon="6.2398" /><trkpt lat="46.38848" lon="6.23998" /><trkpt lat="46.38865" lon="6.24008" /><trkpt lat="46.38889" lon="6.24024" /><trkpt lat="46.38911" lon="6.24036" /><trkpt lat="46.3894" lon="6.24051" /><trkpt lat="46.38974" lon="6.24068" /><trkpt lat="46.39002" lon="6.24079" /><trkpt lat="46.39036" lon="6.24092" /><trkpt lat="46.39052" lon="6.24098" /><trkpt lat="46.39075" lon="6.24105" /><trkpt lat="46.39155" lon="6.24131" /><trkpt lat="46.39174" lon="6.24138" /><trkpt lat="46.39199" lon="6.24147" /><trkpt lat="46.39224" lon="6.24158" /><trkpt lat="46.3925" lon="6.2417" /><trkpt lat="46.39275" lon="6.24183" /><trkpt lat="46.39298" lon="6.24197" /><trkpt lat="46.3932" lon="6.2421" /><trkpt lat="46.39339" lon="6.24223" /><trkpt lat="46.39357" lon="6.24236" /><trkpt lat="46.39376" lon="6.24251" /><trkpt lat="46.39395" lon="6.24266" /><trkpt lat="46.39414" lon="6.24283" /><trkpt lat="46.39431" lon="6.24297" /><trkpt lat="46.39454" lon="6.2432" /><trkpt lat="46.39476" lon="6.24342" /><trkpt lat="46.39505" lon="6.24375" /><trkpt lat="46.39533" lon="6.24408" /><trkpt lat="46.39623" lon="6.2452" /><trkpt lat="46.39635" lon="6.24535" /><trkpt lat="46.39811" lon="6.24755" /><trkpt lat="46.39996" lon="6.24985" /><trkpt lat="46.40047" lon="6.25049" /><trkpt lat="46.40072" lon="6.25078" /><trkpt lat="46.40097" lon="6.25107" /><trkpt lat="46.40116" lon="6.25128" /><trkpt lat="46.40136" lon="6.2515" /><trkpt lat="46.40156" lon="6.25172" /><trkpt lat="46.40176" lon="6.25192" /><trkpt lat="46.40207" lon="6.25223" /><trkpt lat="46.40239" lon="6.25252" /><trkpt lat="46.4027" lon="6.25282" /><trkpt lat="46.40302" lon="6.2531" /><trkpt lat="46.41178" lon="6.26106" /><trkpt lat="46.41189" lon="6.26116" /><trkpt lat="46.41263" lon="6.26184" /><trkpt lat="46.41301" lon="6.26219" /><trkpt lat="46.41329" lon="6.26246" /><trkpt lat="46.41355" lon="6.26271" /><trkpt lat="46.41381" lon="6.26296" /><trkpt lat="46.41406" lon="6.26322" /><trkpt lat="46.41431" lon="6.26347" /><trkpt lat="46.41579" lon="6.26498" /><trkpt lat="46.41665" lon="6.26587" /><trkpt lat="46.41721" lon="6.26646" /><trkpt lat="46.41784" lon="6.26714" /><trkpt lat="46.41836" lon="6.2677" /><trkpt lat="46.41901" lon="6.26838" /><trkpt lat="46.41992" lon="6.26932" /><trkpt lat="46.42057" lon="6.26998" /><trkpt lat="46.42127" lon="6.27071" /><trkpt lat="46.42148" lon="6.27092" /><trkpt lat="46.42196" lon="6.27138" /><trkpt lat="46.42236" lon="6.27175" /><trkpt lat="46.42255" lon="6.27194" /><trkpt lat="46.42274" lon="6.27213" /><trkpt lat="46.42313" lon="6.27252" /><trkpt lat="46.4235" lon="6.27291" /><trkpt lat="46.42566" lon="6.27513" /><trkpt lat="46.42993" lon="6.27951" /><trkpt lat="46.43314" lon="6.28281" /><trkpt lat="46.43526" lon="6.28499" /><trkpt lat="46.43547" lon="6.2852" /><trkpt lat="46.43567" lon="6.28542" /><trkpt lat="46.43588" lon="6.28564" /><trkpt lat="46.43609" lon="6.28586" /><trkpt lat="46.43629" lon="6.28608" /><trkpt lat="46.43648" lon="6.28631" /><trkpt lat="46.43667" lon="6.28654" /><trkpt lat="46.43685" lon="6.28677" /><trkpt lat="46.43703" lon="6.287" /><trkpt lat="46.43721" lon="6.28724" /><trkpt lat="46.43739" lon="6.28748" /><trkpt lat="46.43756" lon="6.28773" /><trkpt lat="46.43771" lon="6.28793" /><trkpt lat="46.43777" lon="6.28803" /><trkpt lat="46.43784" lon="6.28814" /><trkpt lat="46.43792" lon="6.28826" /><trkpt lat="46.438" lon="6.28838" /><trkpt lat="46.43808" lon="6.2885" /><trkpt lat="46.43815" lon="6.28862" /><trkpt lat="46.43829" lon="6.28885" /><trkpt lat="46.43836" lon="6.28897" /><trkpt lat="46.43843" lon="6.28908" /><trkpt lat="46.43851" lon="6.28923" /><trkpt lat="46.43861" lon="6.2894" /><trkpt lat="46.43867" lon="6.2895" /><trkpt lat="46.43872" lon="6.28959" /><trkpt lat="46.4389" lon="6.28993" /><trkpt lat="46.43899" lon="6.2901" /><trkpt lat="46.43908" lon="6.29027" /><trkpt lat="46.43919" lon="6.2905" /><trkpt lat="46.4393" lon="6.29072" /><trkpt lat="46.43941" lon="6.29096" /><trkpt lat="46.43952" lon="6.29119" /><trkpt lat="46.43964" lon="6.29146" /><trkpt lat="46.43976" lon="6.29172" /><trkpt lat="46.43987" lon="6.29199" /><trkpt lat="46.4399" lon="6.29205" /><trkpt lat="46.43998" lon="6.29225" /><trkpt lat="46.44009" lon="6.29252" /><trkpt lat="46.44019" lon="6.2928" /><trkpt lat="46.44029" lon="6.29307" /><trkpt lat="46.44039" lon="6.29335" /><trkpt lat="46.4405" lon="6.29364" /><trkpt lat="46.4406" lon="6.29393" /><trkpt lat="46.44277" lon="6.30024" /><trkpt lat="46.44321" lon="6.30153" /><trkpt lat="46.44334" lon="6.30189" /><trkpt lat="46.44346" lon="6.30223" /><trkpt lat="46.44357" lon="6.30253" /><trkpt lat="46.44367" lon="6.3028" /><trkpt lat="46.44378" lon="6.30311" /><trkpt lat="46.4439" lon="6.30342" /><trkpt lat="46.44401" lon="6.3037" /><trkpt lat="46.44413" lon="6.30399" /><trkpt lat="46.44422" lon="6.30422" /><trkpt lat="46.44445" lon="6.30479" /><trkpt lat="46.4446" lon="6.30515" /><trkpt lat="46.44471" lon="6.30539" /><trkpt lat="46.44481" lon="6.30563" /><trkpt lat="46.44495" lon="6.30594" /><trkpt lat="46.44504" lon="6.30612" /><trkpt lat="46.44526" lon="6.30659" /><trkpt lat="46.44547" lon="6.30705" /><trkpt lat="46.44574" lon="6.30761" /><trkpt lat="46.44591" lon="6.30798" /><trkpt lat="46.44645" lon="6.30905" /><trkpt lat="46.44661" lon="6.30938" /><trkpt lat="46.44678" lon="6.30972" /><trkpt lat="46.44764" lon="6.31148" /><trkpt lat="46.44853" lon="6.31328" /><trkpt lat="46.44909" lon="6.31443" /><trkpt lat="46.44943" lon="6.31511" /><trkpt lat="46.44963" lon="6.31552" /><trkpt lat="46.45086" lon="6.31803" /><trkpt lat="46.4514" lon="6.31912" /><trkpt lat="46.45169" lon="6.31971" /><trkpt lat="46.45209" lon="6.3205" /><trkpt lat="46.45212" lon="6.32057" /><trkpt lat="46.4523" lon="6.32091" /><trkpt lat="46.45244" lon="6.32117" /><trkpt lat="46.4526" lon="6.32145" /><trkpt lat="46.45274" lon="6.32171" /><trkpt lat="46.45292" lon="6.32202" /><trkpt lat="46.45309" lon="6.3223" /><trkpt lat="46.45325" lon="6.32257" /><trkpt lat="46.45342" lon="6.32285" /><trkpt lat="46.45359" lon="6.32312" /><trkpt lat="46.45393" lon="6.32365" /><trkpt lat="46.45427" lon="6.32418" /><trkpt lat="46.45445" lon="6.32444" /><trkpt lat="46.45463" lon="6.3247" /><trkpt lat="46.45479" lon="6.32493" /><trkpt lat="46.45482" lon="6.32497" /><trkpt lat="46.45499" lon="6.32521" /><trkpt lat="46.45597" lon="6.32659" /><trkpt lat="46.45605" lon="6.3267" /><trkpt lat="46.45757" lon="6.32885" /><trkpt lat="46.45991" lon="6.33217" /><trkpt lat="46.46025" lon="6.33264" /><trkpt lat="46.46068" lon="6.33325" /><trkpt lat="46.46071" lon="6.3333" /><trkpt lat="46.46094" lon="6.33362" /><trkpt lat="46.46128" lon="6.33412" /><trkpt lat="46.46145" lon="6.33436" /><trkpt lat="46.4616" lon="6.33459" /><trkpt lat="46.46163" lon="6.33464" /><trkpt lat="46.46177" lon="6.33485" /><trkpt lat="46.46185" lon="6.33498" /><trkpt lat="46.46193" lon="6.33511" /><trkpt lat="46.462" lon="6.33523" /><trkpt lat="46.46207" lon="6.33535" /><trkpt lat="46.46222" lon="6.3356" /><trkpt lat="46.4623" lon="6.33575" /><trkpt lat="46.46236" lon="6.33585" /><trkpt lat="46.46242" lon="6.33598" /><trkpt lat="46.46249" lon="6.33611" /><trkpt lat="46.46252" lon="6.33617" /><trkpt lat="46.46257" lon="6.33626" /><trkpt lat="46.46275" lon="6.33661" /><trkpt lat="46.46278" lon="6.33667" /><trkpt lat="46.46291" lon="6.33694" /><trkpt lat="46.46303" lon="6.33721" /><trkpt lat="46.46315" lon="6.33747" /><trkpt lat="46.46327" lon="6.33773" /><trkpt lat="46.46335" lon="6.33793" /><trkpt lat="46.46343" lon="6.33813" /><trkpt lat="46.46357" lon="6.33848" /><trkpt lat="46.46358" lon="6.33852" /><trkpt lat="46.46362" lon="6.33863" /><trkpt lat="46.46368" lon="6.33877" /><trkpt lat="46.46377" lon="6.33904" /><trkpt lat="46.46387" lon="6.33932" /><trkpt lat="46.46403" lon="6.33981" /><trkpt lat="46.46412" lon="6.3401" /><trkpt lat="46.4642" lon="6.34038" /><trkpt lat="46.46429" lon="6.3407" /><trkpt lat="46.46438" lon="6.34101" /><trkpt lat="46.46446" lon="6.34134" /><trkpt lat="46.46455" lon="6.34167" /><trkpt lat="46.4648" lon="6.34269" /><trkpt lat="46.4649" lon="6.34311" /><trkpt lat="46.46495" lon="6.34332" /><trkpt lat="46.46501" lon="6.34352" /><trkpt lat="46.46506" lon="6.34373" /><trkpt lat="46.46512" lon="6.34393" /><trkpt lat="46.46517" lon="6.34414" /><trkpt lat="46.46523" lon="6.34434" /><trkpt lat="46.46532" lon="6.34464" /><trkpt lat="46.46542" lon="6.34496" /><trkpt lat="46.46552" lon="6.34526" /><trkpt lat="46.46563" lon="6.34559" /><trkpt lat="46.46578" lon="6.34602" /><trkpt lat="46.46582" lon="6.34612" /><trkpt lat="46.46597" lon="6.34652" /><trkpt lat="46.46611" lon="6.34688" /><trkpt lat="46.46623" lon="6.34719" /><trkpt lat="46.46637" lon="6.3475" /><trkpt lat="46.46649" lon="6.34779" /><trkpt lat="46.46662" lon="6.34807" /><trkpt lat="46.46675" lon="6.34835" /><trkpt lat="46.46689" lon="6.34863" /><trkpt lat="46.46702" lon="6.3489" /><trkpt lat="46.46716" lon="6.34918" /><trkpt lat="46.46744" lon="6.3497" /><trkpt lat="46.46772" lon="6.35024" /><trkpt lat="46.46801" lon="6.3508" /><trkpt lat="46.46816" lon="6.35108" /><trkpt lat="46.4683" lon="6.35137" /><trkpt lat="46.46843" lon="6.35164" /><trkpt lat="46.46855" lon="6.35191" /><trkpt lat="46.46867" lon="6.35218" /><trkpt lat="46.46879" lon="6.35246" /><trkpt lat="46.4689" lon="6.35273" /><trkpt lat="46.46901" lon="6.35299" /><trkpt lat="46.46906" lon="6.35314" /><trkpt lat="46.46912" lon="6.35329" /><trkpt lat="46.46917" lon="6.35344" /><trkpt lat="46.46923" lon="6.35359" /><trkpt lat="46.46933" lon="6.35389" /><trkpt lat="46.46944" lon="6.3542" /><trkpt lat="46.46954" lon="6.35452" /><trkpt lat="46.46963" lon="6.35484" /><trkpt lat="46.46973" lon="6.35516" /><trkpt lat="46.46982" lon="6.35549" /><trkpt lat="46.4699" lon="6.3558" /><trkpt lat="46.46998" lon="6.35612" /><trkpt lat="46.47005" lon="6.35644" /><trkpt lat="46.47012" lon="6.35676" /><trkpt lat="46.47019" lon="6.35709" /><trkpt lat="46.47026" lon="6.35741" /><trkpt lat="46.47064" lon="6.35934" /><trkpt lat="46.47083" lon="6.36028" /><trkpt lat="46.47093" lon="6.36076" /><trkpt lat="46.47102" lon="6.36124" /><trkpt lat="46.47109" lon="6.36158" /><trkpt lat="46.47115" lon="6.36192" /><trkpt lat="46.47121" lon="6.36226" /><trkpt lat="46.47124" lon="6.36246" /><trkpt lat="46.47125" lon="6.36251" /><trkpt lat="46.47126" lon="6.3626" /><trkpt lat="46.47131" lon="6.36292" /><trkpt lat="46.47136" lon="6.36324" /><trkpt lat="46.4714" lon="6.36355" /><trkpt lat="46.47144" lon="6.36388" /><trkpt lat="46.47148" lon="6.36424" /><trkpt lat="46.47152" lon="6.36454" /><trkpt lat="46.47155" lon="6.36488" /><trkpt lat="46.47157" lon="6.36521" /><trkpt lat="46.4716" lon="6.36556" /><trkpt lat="46.47162" lon="6.36591" /><trkpt lat="46.47164" lon="6.36626" /><trkpt lat="46.47165" lon="6.36661" /><trkpt lat="46.47166" lon="6.36697" /><trkpt lat="46.47167" lon="6.36733" /><trkpt lat="46.47167" lon="6.36769" /><trkpt lat="46.47167" lon="6.36806" /><trkpt lat="46.47166" lon="6.36842" /><trkpt lat="46.47165" lon="6.36879" /><trkpt lat="46.47164" lon="6.36914" /><trkpt lat="46.47162" lon="6.36949" /><trkpt lat="46.4716" lon="6.36982" /><trkpt lat="46.47159" lon="6.37" /><trkpt lat="46.47158" lon="6.37021" /><trkpt lat="46.47155" lon="6.37057" /><trkpt lat="46.47151" lon="6.37093" /><trkpt lat="46.47147" lon="6.37129" /><trkpt lat="46.47143" lon="6.37165" /><trkpt lat="46.47135" lon="6.37237" /><trkpt lat="46.47119" lon="6.37381" /><trkpt lat="46.47115" lon="6.37415" /><trkpt lat="46.47111" lon="6.3745" /><trkpt lat="46.47109" lon="6.37484" /><trkpt lat="46.47106" lon="6.37518" /><trkpt lat="46.47104" lon="6.37551" /><trkpt lat="46.47103" lon="6.37585" /><trkpt lat="46.47102" lon="6.37618" /><trkpt lat="46.47101" lon="6.3765" /><trkpt lat="46.47101" lon="6.37683" /><trkpt lat="46.47101" lon="6.37715" /><trkpt lat="46.47102" lon="6.37748" /><trkpt lat="46.47103" lon="6.3778" /><trkpt lat="46.47104" lon="6.37813" /><trkpt lat="46.47106" lon="6.37845" /><trkpt lat="46.47109" lon="6.37877" /><trkpt lat="46.47112" lon="6.3791" /><trkpt lat="46.47115" lon="6.37942" /><trkpt lat="46.47119" lon="6.37974" /><trkpt lat="46.47123" lon="6.38006" /><trkpt lat="46.47128" lon="6.38038" /><trkpt lat="46.47133" lon="6.38069" /><trkpt lat="46.47138" lon="6.38101" /><trkpt lat="46.47145" lon="6.38134" /><trkpt lat="46.47152" lon="6.38166" /><trkpt lat="46.47154" lon="6.38177" /><trkpt lat="46.47162" lon="6.38215" /><trkpt lat="46.47256" lon="6.38621" /><trkpt lat="46.47292" lon="6.38782" /><trkpt lat="46.47331" lon="6.38953" /><trkpt lat="46.47335" lon="6.38972" /><trkpt lat="46.47387" lon="6.39195" /><trkpt lat="46.47473" lon="6.39571" /><trkpt lat="46.4756" lon="6.39952" /><trkpt lat="46.47572" lon="6.40001" /><trkpt lat="46.47579" lon="6.40037" /><trkpt lat="46.47587" lon="6.40072" /><trkpt lat="46.47593" lon="6.40103" /><trkpt lat="46.47597" lon="6.40122" /><trkpt lat="46.47601" lon="6.40142" /><trkpt lat="46.47607" lon="6.40176" /><trkpt lat="46.47612" lon="6.40201" /><trkpt lat="46.47616" lon="6.40227" /><trkpt lat="46.47618" lon="6.40241" /><trkpt lat="46.47621" lon="6.40255" /><trkpt lat="46.47625" lon="6.40283" /><trkpt lat="46.4763" lon="6.40313" /><trkpt lat="46.47634" lon="6.40344" /><trkpt lat="46.47639" lon="6.4038" /><trkpt lat="46.47643" lon="6.40417" /><trkpt lat="46.47645" lon="6.40438" /><trkpt lat="46.47648" lon="6.40458" /><trkpt lat="46.4765" lon="6.4048" /><trkpt lat="46.47653" lon="6.40507" /><trkpt lat="46.47654" lon="6.40521" /><trkpt lat="46.47659" lon="6.40583" /><trkpt lat="46.47675" lon="6.4076" /><trkpt lat="46.47678" lon="6.408" /><trkpt lat="46.47681" lon="6.40838" /><trkpt lat="46.47682" lon="6.40867" /><trkpt lat="46.47683" lon="6.40897" /><trkpt lat="46.47684" lon="6.40928" /><trkpt lat="46.47684" lon="6.40944" /><trkpt lat="46.47684" lon="6.4096" /><trkpt lat="46.47684" lon="6.40975" /><trkpt lat="46.47684" lon="6.40991" /><trkpt lat="46.47684" lon="6.41006" /><trkpt lat="46.47683" lon="6.41022" /><trkpt lat="46.47683" lon="6.41037" /><trkpt lat="46.47683" lon="6.41053" /><trkpt lat="46.47682" lon="6.41069" /><trkpt lat="46.47681" lon="6.41084" /><trkpt lat="46.4768" lon="6.411" /><trkpt lat="46.47679" lon="6.41115" /><trkpt lat="46.47678" lon="6.41131" /><trkpt lat="46.47677" lon="6.41146" /><trkpt lat="46.47676" lon="6.41163" /><trkpt lat="46.47674" lon="6.4118" /><trkpt lat="46.47673" lon="6.41196" /><trkpt lat="46.47671" lon="6.41213" /><trkpt lat="46.47664" lon="6.4128" /><trkpt lat="46.47657" lon="6.41347" /><trkpt lat="46.47649" lon="6.41419" /><trkpt lat="46.47634" lon="6.41561" /><trkpt lat="46.47512" lon="6.42703" /><trkpt lat="46.47501" lon="6.42803" /><trkpt lat="46.47499" lon="6.42824" /><trkpt lat="46.47492" lon="6.42884" /><trkpt lat="46.47485" lon="6.42951" /><trkpt lat="46.47482" lon="6.42986" /><trkpt lat="46.47479" lon="6.43022" /><trkpt lat="46.47477" lon="6.43056" /><trkpt lat="46.47475" lon="6.43089" /><trkpt lat="46.47474" lon="6.43123" /><trkpt lat="46.47474" lon="6.43157" /><trkpt lat="46.47474" lon="6.4319" /><trkpt lat="46.47474" lon="6.43222" /><trkpt lat="46.47475" lon="6.43257" /><trkpt lat="46.47476" lon="6.4329" /><trkpt lat="46.47478" lon="6.43325" /><trkpt lat="46.4748" lon="6.4336" /><trkpt lat="46.47483" lon="6.43393" /><trkpt lat="46.47486" lon="6.43425" /><trkpt lat="46.4749" lon="6.4346" /><trkpt lat="46.47494" lon="6.43493" /><trkpt lat="46.47499" lon="6.43526" /><trkpt lat="46.47504" lon="6.43561" /><trkpt lat="46.47509" lon="6.43593" /><trkpt lat="46.47516" lon="6.43626" /><trkpt lat="46.47522" lon="6.43659" /><trkpt lat="46.4753" lon="6.43692" /><trkpt lat="46.47537" lon="6.43723" /><trkpt lat="46.47545" lon="6.43757" /><trkpt lat="46.47556" lon="6.43798" /><trkpt lat="46.4757" lon="6.43845" /><trkpt lat="46.47584" lon="6.43892" /><trkpt lat="46.4783" lon="6.44721" /><trkpt lat="46.47914" lon="6.45002" /><trkpt lat="46.47929" lon="6.45052" /><trkpt lat="46.47936" lon="6.45075" /><trkpt lat="46.47944" lon="6.45097" /><trkpt lat="46.47954" lon="6.45128" /><trkpt lat="46.47964" lon="6.45153" /><trkpt lat="46.47975" lon="6.45181" /><trkpt lat="46.47987" lon="6.45209" /><trkpt lat="46.47998" lon="6.45232" /><trkpt lat="46.48008" lon="6.45255" /><trkpt lat="46.4802" lon="6.4528" /><trkpt lat="46.48033" lon="6.45306" /><trkpt lat="46.48044" lon="6.45325" /><trkpt lat="46.48057" lon="6.45348" /><trkpt lat="46.48067" lon="6.45366" /><trkpt lat="46.48079" lon="6.45385" /><trkpt lat="46.4809" lon="6.45403" /><trkpt lat="46.48102" lon="6.45421" /><trkpt lat="46.48113" lon="6.45438" /><trkpt lat="46.48125" lon="6.45454" /><trkpt lat="46.48136" lon="6.45469" /><trkpt lat="46.48144" lon="6.4548" /><trkpt lat="46.48152" lon="6.4549" /><trkpt lat="46.48166" lon="6.45508" /><trkpt lat="46.48179" lon="6.45524" /><trkpt lat="46.48191" lon="6.45538" /><trkpt lat="46.48206" lon="6.45554" /><trkpt lat="46.48213" lon="6.45562" /><trkpt lat="46.48221" lon="6.4557" /><trkpt lat="46.4823" lon="6.4558" /><trkpt lat="46.48255" lon="6.45604" /><trkpt lat="46.48279" lon="6.45628" /><trkpt lat="46.48312" lon="6.45658" /><trkpt lat="46.48334" lon="6.4568" /><trkpt lat="46.48392" lon="6.45734" /><trkpt lat="46.484" lon="6.45742" /><trkpt lat="46.48449" lon="6.45789" /><trkpt lat="46.48481" lon="6.45819" /><trkpt lat="46.48505" lon="6.45842" /><trkpt lat="46.48526" lon="6.45863" /><trkpt lat="46.48547" lon="6.45884" /><trkpt lat="46.48579" lon="6.45918" /><trkpt lat="46.48595" lon="6.45935" /><trkpt lat="46.4861" lon="6.45952" /><trkpt lat="46.48641" lon="6.45987" /><trkpt lat="46.48673" lon="6.46025" /><trkpt lat="46.48679" lon="6.46032" /><trkpt lat="46.48693" lon="6.46049" /><trkpt lat="46.48707" lon="6.46067" /><trkpt lat="46.48734" lon="6.46101" /><trkpt lat="46.48752" lon="6.46125" /><trkpt lat="46.4877" lon="6.46148" /><trkpt lat="46.48788" lon="6.46173" /><trkpt lat="46.48805" lon="6.46197" /><trkpt lat="46.48818" lon="6.46215" /><trkpt lat="46.48831" lon="6.46233" /><trkpt lat="46.48856" lon="6.4627" /><trkpt lat="46.48882" lon="6.46307" /><trkpt lat="46.48907" lon="6.46345" /><trkpt lat="46.49105" lon="6.46638" /><trkpt lat="46.49302" lon="6.46931" /><trkpt lat="46.49306" lon="6.46936" /><trkpt lat="46.49462" lon="6.47168" /><trkpt lat="46.49465" lon="6.47172" /><trkpt lat="46.49582" lon="6.47346" /><trkpt lat="46.49599" lon="6.47372" /><trkpt lat="46.49614" lon="6.47394" /><trkpt lat="46.49628" lon="6.47417" /><trkpt lat="46.49644" lon="6.47443" /><trkpt lat="46.4966" lon="6.4747" /><trkpt lat="46.49666" lon="6.47482" /><trkpt lat="46.49672" lon="6.47493" /><trkpt lat="46.49679" lon="6.47505" /><trkpt lat="46.49685" lon="6.47517" /><trkpt lat="46.49697" lon="6.47541" /><trkpt lat="46.49707" lon="6.47564" /><trkpt lat="46.49717" lon="6.47585" /><trkpt lat="46.4973" lon="6.47615" /><trkpt lat="46.49742" lon="6.47646" /><trkpt lat="46.49752" lon="6.47671" /><trkpt lat="46.49762" lon="6.47698" /><trkpt lat="46.49771" lon="6.47725" /><trkpt lat="46.4978" lon="6.47754" /><trkpt lat="46.49789" lon="6.4778" /><trkpt lat="46.49827" lon="6.47903" /><trkpt lat="46.49843" lon="6.47952" /><trkpt lat="46.49854" lon="6.47983" /><trkpt lat="46.49864" lon="6.4801" /><trkpt lat="46.49875" lon="6.48039" /><trkpt lat="46.49886" lon="6.48065" /><trkpt lat="46.49891" lon="6.48078" /><trkpt lat="46.49898" lon="6.48093" /><trkpt lat="46.49909" lon="6.48117" /><trkpt lat="46.49922" lon="6.48145" /><trkpt lat="46.49934" lon="6.48168" /><trkpt lat="46.49948" lon="6.48195" /><trkpt lat="46.49961" lon="6.48217" /><trkpt lat="46.49976" lon="6.48243" /><trkpt lat="46.49989" lon="6.48265" /><trkpt lat="46.50004" lon="6.48287" /><trkpt lat="46.50019" lon="6.4831" /><trkpt lat="46.50032" lon="6.48328" /><trkpt lat="46.50044" lon="6.48345" /><trkpt lat="46.5005" lon="6.48352" /><trkpt lat="46.50067" lon="6.48374" /><trkpt lat="46.50077" lon="6.48386" /><trkpt lat="46.50086" lon="6.48397" /><trkpt lat="46.50102" lon="6.48415" /><trkpt lat="46.50117" lon="6.48432" /><trkpt lat="46.50135" lon="6.48451" /><trkpt lat="46.50153" lon="6.48468" /><trkpt lat="46.50172" lon="6.48487" /><trkpt lat="46.50189" lon="6.48502" /><trkpt lat="46.50208" lon="6.48518" /><trkpt lat="46.50226" lon="6.48533" /><trkpt lat="46.50251" lon="6.48551" /><trkpt lat="46.50263" lon="6.4856" /><trkpt lat="46.50274" lon="6.48568" /><trkpt lat="46.50296" lon="6.48582" /><trkpt lat="46.50317" lon="6.48596" /><trkpt lat="46.50345" lon="6.48613" /><trkpt lat="46.50352" lon="6.48618" /><trkpt lat="46.50445" lon="6.48676" /><trkpt lat="46.50496" lon="6.48708" /><trkpt lat="46.50546" lon="6.4874" /><trkpt lat="46.50568" lon="6.48754" /><trkpt lat="46.50585" lon="6.48766" /><trkpt lat="46.50599" lon="6.48775" /><trkpt lat="46.50618" lon="6.48789" /><trkpt lat="46.50627" lon="6.48796" /><trkpt lat="46.50636" lon="6.48803" /><trkpt lat="46.5065" lon="6.48813" /><trkpt lat="46.50665" lon="6.48825" /><trkpt lat="46.50679" lon="6.48836" /><trkpt lat="46.50693" lon="6.48848" /><trkpt lat="46.50706" lon="6.48859" /><trkpt lat="46.50718" lon="6.4887" /><trkpt lat="46.5073" lon="6.48881" /><trkpt lat="46.50755" lon="6.48904" /><trkpt lat="46.50761" lon="6.4891" /><trkpt lat="46.50812" lon="6.4896" /><trkpt lat="46.50825" lon="6.48972" /><trkpt lat="46.50838" lon="6.48985" /><trkpt lat="46.50851" lon="6.48999" /><trkpt lat="46.50877" lon="6.49029" /><trkpt lat="46.50891" lon="6.49047" /><trkpt lat="46.50907" lon="6.49067" /><trkpt lat="46.50926" lon="6.49091" /><trkpt lat="46.50944" lon="6.49115" /><trkpt lat="46.50966" lon="6.49144" /><trkpt lat="46.51002" lon="6.49194" /><trkpt lat="46.5102" lon="6.4922" /><trkpt lat="46.51038" lon="6.49246" /><trkpt lat="46.51056" lon="6.49272" /><trkpt lat="46.51074" lon="6.49299" /><trkpt lat="46.51091" lon="6.49325" /><trkpt lat="46.51108" lon="6.49352" /><trkpt lat="46.51133" lon="6.49392" /><trkpt lat="46.51175" lon="6.49458" /><trkpt lat="46.51183" lon="6.49471" /><trkpt lat="46.51191" lon="6.49484" /><trkpt lat="46.51207" lon="6.49511" /><trkpt lat="46.51238" lon="6.49564" /><trkpt lat="46.51269" lon="6.49619" /><trkpt lat="46.51284" lon="6.49648" /><trkpt lat="46.513" lon="6.49677" /><trkpt lat="46.51333" lon="6.49739" /><trkpt lat="46.51359" lon="6.49788" /><trkpt lat="46.51377" lon="6.49823" /><trkpt lat="46.51391" lon="6.49849" /><trkpt lat="46.51404" lon="6.49876" /><trkpt lat="46.5141" lon="6.4989" /><trkpt lat="46.51417" lon="6.49903" /><trkpt lat="46.51425" lon="6.49921" /><trkpt lat="46.51436" lon="6.49947" /><trkpt lat="46.51445" lon="6.49966" /><trkpt lat="46.51451" lon="6.4998" /><trkpt lat="46.51458" lon="6.49996" /><trkpt lat="46.51471" lon="6.50028" /><trkpt lat="46.51482" lon="6.50057" /><trkpt lat="46.51497" lon="6.50094" /><trkpt lat="46.51518" lon="6.50147" /><trkpt lat="46.51531" lon="6.5018" /><trkpt lat="46.51544" lon="6.50214" /><trkpt lat="46.51556" lon="6.50242" /><trkpt lat="46.51569" lon="6.5027" /><trkpt lat="46.51807" lon="6.50805" /><trkpt lat="46.51866" lon="6.50937" /><trkpt lat="46.51923" lon="6.51064" /><trkpt lat="46.5208" lon="6.51417" /><trkpt lat="46.52149" lon="6.51572" /><trkpt lat="46.52178" lon="6.51638" /><trkpt lat="46.52193" lon="6.51671" /><trkpt lat="46.52207" lon="6.51704" /><trkpt lat="46.52221" lon="6.51737" /><trkpt lat="46.52236" lon="6.51771" /><trkpt lat="46.52249" lon="6.51802" /><trkpt lat="46.52261" lon="6.51833" /><trkpt lat="46.52272" lon="6.51859" /><trkpt lat="46.52292" lon="6.51909" /><trkpt lat="46.52299" lon="6.51926" /><trkpt lat="46.52307" lon="6.51949" /><trkpt lat="46.52319" lon="6.5198" /><trkpt lat="46.52337" lon="6.52026" /><trkpt lat="46.5234" lon="6.52034" /><trkpt lat="46.52347" lon="6.52052" /><trkpt lat="46.52365" lon="6.521" /><trkpt lat="46.52388" lon="6.52164" /><trkpt lat="46.52402" lon="6.522" /><trkpt lat="46.52415" lon="6.52237" /><trkpt lat="46.52427" lon="6.52272" /><trkpt lat="46.52439" lon="6.52307" /><trkpt lat="46.52447" lon="6.52328" /><trkpt lat="46.52467" lon="6.52387" /><trkpt lat="46.52485" lon="6.52439" /><trkpt lat="46.52498" lon="6.52479" /><trkpt lat="46.5251" lon="6.52519" /><trkpt lat="46.52522" lon="6.52554" /><trkpt lat="46.52533" lon="6.5259" /><trkpt lat="46.52544" lon="6.52626" /><trkpt lat="46.52555" lon="6.52661" /><trkpt lat="46.52565" lon="6.52695" /><trkpt lat="46.52576" lon="6.52733" /><trkpt lat="46.52586" lon="6.52769" /><trkpt lat="46.52597" lon="6.52806" /><trkpt lat="46.52607" lon="6.5284" /><trkpt lat="46.52616" lon="6.52875" /><trkpt lat="46.52636" lon="6.52947" /><trkpt lat="46.52655" lon="6.53018" /><trkpt lat="46.52659" lon="6.53036" /><trkpt lat="46.52673" lon="6.53089" /><trkpt lat="46.52681" lon="6.53119" /><trkpt lat="46.52689" lon="6.5315" /><trkpt lat="46.52696" lon="6.5318" /><trkpt lat="46.52704" lon="6.53211" /><trkpt lat="46.52711" lon="6.53241" /><trkpt lat="46.52718" lon="6.53272" /><trkpt lat="46.52728" lon="6.53316" /><trkpt lat="46.52738" lon="6.5336" /><trkpt lat="46.52748" lon="6.53404" /><trkpt lat="46.52757" lon="6.53447" /><trkpt lat="46.52796" lon="6.53623" /><trkpt lat="46.52825" lon="6.53754" /><trkpt lat="46.52832" lon="6.53788" /><trkpt lat="46.5284" lon="6.53822" /><trkpt lat="46.52845" lon="6.53843" /><trkpt lat="46.5285" lon="6.53863" /><trkpt lat="46.52861" lon="6.53905" /><trkpt lat="46.52871" lon="6.53942" /><trkpt lat="46.52879" lon="6.53969" /><trkpt lat="46.52888" lon="6.53997" /><trkpt lat="46.52901" lon="6.54037" /><trkpt lat="46.52909" lon="6.54061" /><trkpt lat="46.52917" lon="6.54083" /><trkpt lat="46.52927" lon="6.54109" /><trkpt lat="46.52937" lon="6.54135" /><trkpt lat="46.52942" lon="6.54148" /><trkpt lat="46.52956" lon="6.54183" /><trkpt lat="46.52979" lon="6.54237" /><trkpt lat="46.5299" lon="6.54261" /><trkpt lat="46.53007" lon="6.54297" /><trkpt lat="46.53016" lon="6.54315" /><trkpt lat="46.53025" lon="6.54332" /><trkpt lat="46.53034" lon="6.5435" /><trkpt lat="46.53044" lon="6.54367" /><trkpt lat="46.53062" lon="6.544" /><trkpt lat="46.5308" lon="6.54432" /><trkpt lat="46.53162" lon="6.54578" /><trkpt lat="46.53262" lon="6.54755" /><trkpt lat="46.53314" lon="6.54846" /><trkpt lat="46.53332" lon="6.54879" /><trkpt lat="46.53375" lon="6.54955" /><trkpt lat="46.53447" lon="6.55083" /><trkpt lat="46.53482" lon="6.55145" /><trkpt lat="46.53483" lon="6.55147" /><trkpt lat="46.53519" lon="6.5521" /><trkpt lat="46.53555" lon="6.55275" /><trkpt lat="46.53566" lon="6.55293" /><trkpt lat="46.53577" lon="6.55312" /><trkpt lat="46.53588" lon="6.5533" /><trkpt lat="46.53599" lon="6.55348" /><trkpt lat="46.53611" lon="6.55365" /><trkpt lat="46.53622" lon="6.55382" /><trkpt lat="46.53636" lon="6.554" /><trkpt lat="46.53649" lon="6.55418" /><trkpt lat="46.53663" lon="6.55435" /><trkpt lat="46.53678" lon="6.55452" /><trkpt lat="46.53692" lon="6.55468" /><trkpt lat="46.53708" lon="6.55484" /><trkpt lat="46.53716" lon="6.55492" /><trkpt lat="46.53724" lon="6.555" /><trkpt lat="46.53732" lon="6.55508" /><trkpt lat="46.5374" lon="6.55516" /><trkpt lat="46.53749" lon="6.55524" /><trkpt lat="46.53758" lon="6.55531" /><trkpt lat="46.53767" lon="6.55538" /><trkpt lat="46.53776" lon="6.55545" /><trkpt lat="46.53785" lon="6.55552" /><trkpt lat="46.5379" lon="6.55557" /><trkpt lat="46.53794" lon="6.55559" /><trkpt lat="46.53803" lon="6.55566" /><trkpt lat="46.53813" lon="6.55573" /><trkpt lat="46.53837" lon="6.55588" /><trkpt lat="46.53852" lon="6.55596" /><trkpt lat="46.53866" lon="6.55604" /><trkpt lat="46.53878" lon="6.5561" /><trkpt lat="46.53902" lon="6.55621" /><trkpt lat="46.53961" lon="6.55648" /><trkpt lat="46.53965" lon="6.55649" /><trkpt lat="46.53976" lon="6.55654" /><trkpt lat="46.53987" lon="6.5566" /><trkpt lat="46.54005" lon="6.55669" /><trkpt lat="46.54016" lon="6.55675" /><trkpt lat="46.54042" lon="6.55692" /><trkpt lat="46.54092" lon="6.55728" /><trkpt lat="46.54108" lon="6.5574" /><trkpt lat="46.54118" lon="6.55749" /><trkpt lat="46.54127" lon="6.55757" /><trkpt lat="46.54136" lon="6.55766" /><trkpt lat="46.54146" lon="6.55775" /><trkpt lat="46.54156" lon="6.55785" /><trkpt lat="46.54164" lon="6.55795" /><trkpt lat="46.54172" lon="6.55804" /><trkpt lat="46.5418" lon="6.55813" /><trkpt lat="46.54187" lon="6.55823" /><trkpt lat="46.54198" lon="6.55839" /><trkpt lat="46.5421" lon="6.55856" /><trkpt lat="46.54218" lon="6.5587" /><trkpt lat="46.54226" lon="6.55883" /><trkpt lat="46.54235" lon="6.559" /><trkpt lat="46.54244" lon="6.55918" /><trkpt lat="46.54252" lon="6.55934" /><trkpt lat="46.54268" lon="6.55969" /><trkpt lat="46.5428" lon="6.55996" /><trkpt lat="46.5429" lon="6.56023" /><trkpt lat="46.54299" lon="6.56044" /><trkpt lat="46.54307" lon="6.56067" /><trkpt lat="46.54313" lon="6.56086" /><trkpt lat="46.54319" lon="6.56109" /><trkpt lat="46.54325" lon="6.56131" /><trkpt lat="46.54327" lon="6.56143" /><trkpt lat="46.54327" lon="6.56144" /><trkpt lat="46.54329" lon="6.56152" /><trkpt lat="46.54333" lon="6.5617" /><trkpt lat="46.54336" lon="6.56189" /><trkpt lat="46.54339" lon="6.56206" /><trkpt lat="46.54341" lon="6.56225" /><trkpt lat="46.54343" lon="6.56244" /><trkpt lat="46.54344" lon="6.56261" /><trkpt lat="46.54346" lon="6.56286" /><trkpt lat="46.54347" lon="6.56311" /><trkpt lat="46.54348" lon="6.56329" /><trkpt lat="46.54349" lon="6.56358" /><trkpt lat="46.54349" lon="6.56386" /><trkpt lat="46.5435" lon="6.56408" /><trkpt lat="46.5435" lon="6.56456" /><trkpt lat="46.5435" lon="6.56496" /><trkpt lat="46.5435" lon="6.56516" /><trkpt lat="46.54349" lon="6.56535" /><trkpt lat="46.54347" lon="6.56556" /><trkpt lat="46.54345" lon="6.56579" /><trkpt lat="46.54343" lon="6.56593" /><trkpt lat="46.5434" lon="6.56611" /><trkpt lat="46.54337" lon="6.5663" /><trkpt lat="46.54336" lon="6.56638" /><trkpt lat="46.54334" lon="6.56648" /><trkpt lat="46.5433" lon="6.56663" /><trkpt lat="46.54325" lon="6.56683" /><trkpt lat="46.5432" lon="6.56701" /><trkpt lat="46.54314" lon="6.5672" /><trkpt lat="46.54306" lon="6.56746" /><trkpt lat="46.54298" lon="6.56769" /><trkpt lat="46.54291" lon="6.56788" /><trkpt lat="46.5428" lon="6.56819" /><trkpt lat="46.5427" lon="6.56845" /><trkpt lat="46.5426" lon="6.56873" /><trkpt lat="46.54256" lon="6.56884" /><trkpt lat="46.54249" lon="6.56904" /><trkpt lat="46.54236" lon="6.56936" /><trkpt lat="46.54231" lon="6.56949" /><trkpt lat="46.54226" lon="6.56962" /><trkpt lat="46.54214" lon="6.56988" /><trkpt lat="46.54207" lon="6.57006" /><trkpt lat="46.54195" lon="6.57031" /><trkpt lat="46.54184" lon="6.57052" /><trkpt lat="46.54177" lon="6.57067" /><trkpt lat="46.5417" lon="6.57082" /><trkpt lat="46.54145" lon="6.5713" /><trkpt lat="46.54118" lon="6.57181" /><trkpt lat="46.54105" lon="6.57206" /><trkpt lat="46.54082" lon="6.5725" /><trkpt lat="46.54069" lon="6.57275" /><trkpt lat="46.54017" lon="6.57375" /><trkpt lat="46.54001" lon="6.57406" /><trkpt lat="46.53986" lon="6.57438" /><trkpt lat="46.53975" lon="6.5746" /><trkpt lat="46.53965" lon="6.57481" /><trkpt lat="46.53948" lon="6.57515" /><trkpt lat="46.53938" lon="6.57535" /><trkpt lat="46.53903" lon="6.57602" /><trkpt lat="46.53884" lon="6.57638" /><trkpt lat="46.53866" lon="6.57674" /><trkpt lat="46.53832" lon="6.57743" /><trkpt lat="46.53816" lon="6.57778" /><trkpt lat="46.53808" lon="6.57794" /><trkpt lat="46.53799" lon="6.57812" /><trkpt lat="46.5379" lon="6.57831" /><trkpt lat="46.53767" lon="6.57875" /><trkpt lat="46.53748" lon="6.57911" /><trkpt lat="46.53728" lon="6.57948" /><trkpt lat="46.53705" lon="6.5799" /><trkpt lat="46.53682" lon="6.58033" /><trkpt lat="46.5364" lon="6.58114" /><trkpt lat="46.53635" lon="6.58124" /><trkpt lat="46.53581" lon="6.58227" /><trkpt lat="46.53516" lon="6.5835" /><trkpt lat="46.53466" lon="6.58446" /><trkpt lat="46.53451" lon="6.58477" /><trkpt lat="46.5345" lon="6.58479" /><trkpt lat="46.53442" lon="6.58494" /><trkpt lat="46.53425" lon="6.5853" /><trkpt lat="46.53339" lon="6.58707" /><trkpt lat="46.53331" lon="6.58723" /><trkpt lat="46.5331" lon="6.58767" /><trkpt lat="46.53267" lon="6.5885" /><trkpt lat="46.53261" lon="6.58861" /><trkpt lat="46.53196" lon="6.58985" /><trkpt lat="46.53139" lon="6.59095" /><trkpt lat="46.53135" lon="6.59102" /><trkpt lat="46.5313" lon="6.59113" /><trkpt lat="46.53113" lon="6.59145" /><trkpt lat="46.53094" lon="6.59181" /><trkpt lat="46.53071" lon="6.59228" /><trkpt lat="46.53051" lon="6.59268" /><trkpt lat="46.53024" lon="6.59321" /><trkpt lat="46.53" lon="6.59375" /><trkpt lat="46.52976" lon="6.5943" /><trkpt lat="46.52959" lon="6.59474" /><trkpt lat="46.52953" lon="6.59487" /><trkpt lat="46.52932" lon="6.59545" /><trkpt lat="46.52886" lon="6.59679" /><trkpt lat="46.52832" lon="6.59835" /><trkpt lat="46.5279" lon="6.59957" /><trkpt lat="46.52753" lon="6.60061" /><trkpt lat="46.52742" lon="6.6009" /><trkpt lat="46.52723" lon="6.60143" /><trkpt lat="46.52706" lon="6.6019" /><trkpt lat="46.52678" lon="6.60273" /><trkpt lat="46.52667" lon="6.60304" /><trkpt lat="46.52656" lon="6.60337" /><trkpt lat="46.5263" lon="6.60414" /><trkpt lat="46.52612" lon="6.60469" /><trkpt lat="46.5259" lon="6.60538" /><trkpt lat="46.52571" lon="6.60595" /><trkpt lat="46.52548" lon="6.60662" /><trkpt lat="46.52476" lon="6.60871" /><trkpt lat="46.52449" lon="6.60949" /><trkpt lat="46.52411" lon="6.6106" /><trkpt lat="46.524" lon="6.61089" /><trkpt lat="46.52388" lon="6.6112" /><trkpt lat="46.52372" lon="6.61159" /><trkpt lat="46.52368" lon="6.61166" /><trkpt lat="46.52355" lon="6.61196" /><trkpt lat="46.52341" lon="6.61226" /><trkpt lat="46.52326" lon="6.61257" /><trkpt lat="46.52311" lon="6.61285" /><trkpt lat="46.52295" lon="6.61313" /><trkpt lat="46.52278" lon="6.61341" /><trkpt lat="46.52262" lon="6.61367" /><trkpt lat="46.52243" lon="6.61394" /><trkpt lat="46.52231" lon="6.61412" /><trkpt lat="46.52191" lon="6.61467" /><trkpt lat="46.52169" lon="6.61497" /><trkpt lat="46.52133" lon="6.61545" /><trkpt lat="46.52101" lon="6.61589" /><trkpt lat="46.52088" lon="6.61607" /><trkpt lat="46.51998" lon="6.61728" /><trkpt lat="46.51987" lon="6.61743" /><trkpt lat="46.51967" lon="6.61773" /><trkpt lat="46.51949" lon="6.61802" /><trkpt lat="46.51938" lon="6.61821" /><trkpt lat="46.51927" lon="6.61842" /><trkpt lat="46.51913" lon="6.61873" /><trkpt lat="46.51904" lon="6.61895" /><trkpt lat="46.51896" lon="6.61916" /><trkpt lat="46.51889" lon="6.61939" /><trkpt lat="46.51882" lon="6.61961" /><trkpt lat="46.51874" lon="6.61991" /><trkpt lat="46.5187" lon="6.62008" /><trkpt lat="46.51866" lon="6.62027" /><trkpt lat="46.51865" lon="6.62029" /><trkpt lat="46.5186" lon="6.62057" /><trkpt lat="46.51855" lon="6.62083" /><trkpt lat="46.51849" lon="6.62123" /><trkpt lat="46.51843" lon="6.62156" /><trkpt lat="46.51835" lon="6.62198" /><trkpt lat="46.51829" lon="6.62232" /><trkpt lat="46.51809" lon="6.62319" /><trkpt lat="46.51802" lon="6.62347" /><trkpt lat="46.51788" lon="6.62411" /><trkpt lat="46.51761" lon="6.62528" /><trkpt lat="46.5174" lon="6.62621" /><trkpt lat="46.51722" lon="6.62701" /><trkpt lat="46.51707" lon="6.62762" /><trkpt lat="46.51707" lon="6.62764" /><trkpt lat="46.51704" lon="6.62775" /><trkpt lat="46.51698" lon="6.62807" /><trkpt lat="46.51693" lon="6.62838" /><trkpt lat="46.51683" lon="6.62912" /><trkpt lat="46.51683" lon="6.62912" /></trkseg></trk></gpx>