<gpx version="1.1" creator="Trainlog.me"><trk><name>Trip Path</name><trkseg><trkpt lat="46.73657" lon="7.95885" /><trkpt lat="46.73625" lon="7.95826" /><trkpt lat="46.73617" lon="7.95806" /><trkpt lat="46.73609" lon="7.95787" /><trkpt lat="46.73595" lon="7.9576" /><trkpt lat="46.73586" lon="7.95744" /><trkpt lat="46.73577" lon="7.95729" /><trkpt lat="46.7357" lon="7.95716" /><trkpt lat="46.73562" lon="7.95704" /><trkpt lat="46.73553" lon="7.95691" /><trkpt lat="46.73547" lon="7.95684" /><trkpt lat="46.73541" lon="7.95677" /><trkpt lat="46.73535" lon="7.9567" /><trkpt lat="46.73528" lon="7.95663" /><trkpt lat="46.73515" lon="7.95653" /><trkpt lat="46.73506" lon="7.95647" /><trkpt lat="46.73481" lon="7.95633" /><trkpt lat="46.73428" lon="7.9561" /><trkpt lat="46.734" lon="7.95594" /><trkpt lat="46.73373" lon="7.95573" /><trkpt lat="46.73352" lon="7.95553" /><trkpt lat="46.73343" lon="7.95542" /><trkpt lat="46.73339" lon="7.95536" /><trkpt lat="46.73335" lon="7.95531" /><trkpt lat="46.73329" lon="7.95521" /><trkpt lat="46.73323" lon="7.95512" /><trkpt lat="46.73315" lon="7.95499" /><trkpt lat="46.73308" lon="7.95485" /><trkpt lat="46.73304" lon="7.95475" /><trkpt lat="46.73299" lon="7.95465" /><trkpt lat="46.73295" lon="7.95454" /><trkpt lat="46.73293" lon="7.95447" /><trkpt lat="46.73288" lon="7.95434" /><trkpt lat="46.73285" lon="7.95423" /><trkpt lat="46.73279" lon="7.95401" /><trkpt lat="46.73273" lon="7.95379" /><trkpt lat="46.73268" lon="7.95362" /><trkpt lat="46.73263" lon="7.95345" /><trkpt lat="46.73258" lon="7.95328" /><trkpt lat="46.73252" lon="7.95312" /><trkpt lat="46.73245" lon="7.95291" /><trkpt lat="46.73234" lon="7.95264" /><trkpt lat="46.73221" lon="7.95235" /><trkpt lat="46.73209" lon="7.95206" /><trkpt lat="46.73202" lon="7.95188" /><trkpt lat="46.73194" lon="7.95171" /><trkpt lat="46.73188" lon="7.95157" /><trkpt lat="46.73181" lon="7.95145" /><trkpt lat="46.73175" lon="7.95133" /><trkpt lat="46.73169" lon="7.95122" /><trkpt lat="46.73162" lon="7.95112" /><trkpt lat="46.73156" lon="7.95102" /><trkpt lat="46.73149" lon="7.95092" /><trkpt lat="46.73141" lon="7.95083" /><trkpt lat="46.73119" lon="7.95054" /><trkpt lat="46.73096" lon="7.95025" /><trkpt lat="46.73078" lon="7.95002" /><trkpt lat="46.73075" lon="7.94998" /><trkpt lat="46.73073" lon="7.94996" /><trkpt lat="46.73062" lon="7.94981" /><trkpt lat="46.7305" lon="7.94967" /><trkpt lat="46.73045" lon="7.9496" /><trkpt lat="46.73039" lon="7.94954" /><trkpt lat="46.73028" lon="7.94941" /><trkpt lat="46.73018" lon="7.9493" /><trkpt lat="46.73007" lon="7.94919" /><trkpt lat="46.7299" lon="7.94904" /><trkpt lat="46.72971" lon="7.94888" /><trkpt lat="46.72936" lon="7.94862" /><trkpt lat="46.72919" lon="7.9485" /><trkpt lat="46.72911" lon="7.94844" /><trkpt lat="46.72903" lon="7.94837" /><trkpt lat="46.72895" lon="7.9483" /><trkpt lat="46.72887" lon="7.94823" /><trkpt lat="46.72879" lon="7.94816" /><trkpt lat="46.72872" lon="7.94808" /><trkpt lat="46.72868" lon="7.94804" /><trkpt lat="46.72865" lon="7.948" /><trkpt lat="46.72859" lon="7.94793" /><trkpt lat="46.72853" lon="7.94785" /><trkpt lat="46.72848" lon="7.94777" /><trkpt lat="46.72839" lon="7.94763" /><trkpt lat="46.72835" lon="7.94756" /><trkpt lat="46.72831" lon="7.94749" /><trkpt lat="46.72827" lon="7.9474" /><trkpt lat="46.72823" lon="7.94732" /><trkpt lat="46.72818" lon="7.94721" /><trkpt lat="46.72813" lon="7.9471" /><trkpt lat="46.72806" lon="7.94691" /><trkpt lat="46.728" lon="7.94673" /><trkpt lat="46.72776" lon="7.9461" /><trkpt lat="46.72766" lon="7.9459" /><trkpt lat="46.72756" lon="7.94571" /><trkpt lat="46.72744" lon="7.94553" /><trkpt lat="46.7272" lon="7.94524" /><trkpt lat="46.72683" lon="7.94482" /><trkpt lat="46.72676" lon="7.94475" /><trkpt lat="46.7267" lon="7.94468" /><trkpt lat="46.72659" lon="7.94453" /><trkpt lat="46.72652" lon="7.94444" /><trkpt lat="46.72645" lon="7.94434" /><trkpt lat="46.72633" lon="7.94415" /><trkpt lat="46.72621" lon="7.94396" /><trkpt lat="46.72611" lon="7.9438" /><trkpt lat="46.72603" lon="7.94366" /><trkpt lat="46.72586" lon="7.94338" /><trkpt lat="46.72576" lon="7.94322" /><trkpt lat="46.72566" lon="7.94305" /><trkpt lat="46.72561" lon="7.94296" /><trkpt lat="46.72557" lon="7.94287" /><trkpt lat="46.72554" lon="7.94282" /><trkpt lat="46.72552" lon="7.94277" /><trkpt lat="46.72548" lon="7.94268" /><trkpt lat="46.72543" lon="7.94257" /><trkpt lat="46.72538" lon="7.94245" /><trkpt lat="46.72533" lon="7.94231" /><trkpt lat="46.72529" lon="7.94218" /><trkpt lat="46.72515" lon="7.94172" /><trkpt lat="46.72502" lon="7.94127" /><trkpt lat="46.72491" lon="7.94093" /><trkpt lat="46.72485" lon="7.94075" /><trkpt lat="46.72478" lon="7.94057" /><trkpt lat="46.72472" lon="7.94043" /><trkpt lat="46.72465" lon="7.94028" /><trkpt lat="46.72456" lon="7.94013" /><trkpt lat="46.72452" lon="7.94006" /><trkpt lat="46.72448" lon="7.93998" /><trkpt lat="46.7244" lon="7.93985" /><trkpt lat="46.72431" lon="7.93972" /><trkpt lat="46.72414" lon="7.93946" /><trkpt lat="46.72381" lon="7.93894" /><trkpt lat="46.72347" lon="7.93842" /><trkpt lat="46.72313" lon="7.9379" /><trkpt lat="46.72303" lon="7.93776" /><trkpt lat="46.72294" lon="7.93762" /><trkpt lat="46.72283" lon="7.93747" /><trkpt lat="46.72272" lon="7.93733" /><trkpt lat="46.72261" lon="7.93721" /><trkpt lat="46.72254" lon="7.93714" /><trkpt lat="46.72247" lon="7.93707" /><trkpt lat="46.72234" lon="7.93695" /><trkpt lat="46.72218" lon="7.93681" /><trkpt lat="46.72208" lon="7.93672" /><trkpt lat="46.72197" lon="7.93663" /><trkpt lat="46.72192" lon="7.93657" /><trkpt lat="46.72186" lon="7.93652" /><trkpt lat="46.7218" lon="7.93646" /><trkpt lat="46.72175" lon="7.93641" /><trkpt lat="46.72167" lon="7.93632" /><trkpt lat="46.72159" lon="7.93622" /><trkpt lat="46.72149" lon="7.9361" /><trkpt lat="46.72145" lon="7.93603" /><trkpt lat="46.7214" lon="7.93597" /><trkpt lat="46.72136" lon="7.9359" /><trkpt lat="46.72131" lon="7.93583" /><trkpt lat="46.72123" lon="7.93569" /><trkpt lat="46.72116" lon="7.93557" /><trkpt lat="46.72109" lon="7.93545" /><trkpt lat="46.72095" lon="7.93521" /><trkpt lat="46.72082" lon="7.93499" /><trkpt lat="46.72075" lon="7.93489" /><trkpt lat="46.72071" lon="7.93484" /><trkpt lat="46.72068" lon="7.93479" /><trkpt lat="46.72062" lon="7.93472" /><trkpt lat="46.72056" lon="7.93465" /><trkpt lat="46.7205" lon="7.93458" /><trkpt lat="46.72044" lon="7.93451" /><trkpt lat="46.7203" lon="7.93439" /><trkpt lat="46.72023" lon="7.93433" /><trkpt lat="46.72016" lon="7.93428" /><trkpt lat="46.7201" lon="7.93423" /><trkpt lat="46.72003" lon="7.93418" /><trkpt lat="46.71982" lon="7.93405" /><trkpt lat="46.71961" lon="7.93392" /><trkpt lat="46.71947" lon="7.93383" /><trkpt lat="46.71934" lon="7.93373" /><trkpt lat="46.71923" lon="7.93364" /><trkpt lat="46.71913" lon="7.93354" /><trkpt lat="46.71904" lon="7.93344" /><trkpt lat="46.71894" lon="7.93332" /><trkpt lat="46.71885" lon="7.9332" /><trkpt lat="46.7188" lon="7.93313" /><trkpt lat="46.71875" lon="7.93305" /><trkpt lat="46.7187" lon="7.93296" /><trkpt lat="46.71864" lon="7.93285" /><trkpt lat="46.71858" lon="7.93273" /><trkpt lat="46.71853" lon="7.93262" /><trkpt lat="46.71848" lon="7.93251" /><trkpt lat="46.71831" lon="7.93211" /><trkpt lat="46.71827" lon="7.93201" /><trkpt lat="46.71822" lon="7.9319" /><trkpt lat="46.71818" lon="7.93181" /><trkpt lat="46.71814" lon="7.93172" /><trkpt lat="46.71809" lon="7.93162" /><trkpt lat="46.71804" lon="7.93152" /><trkpt lat="46.718" lon="7.93144" /><trkpt lat="46.71794" lon="7.93135" /><trkpt lat="46.71788" lon="7.93126" /><trkpt lat="46.71782" lon="7.93116" /><trkpt lat="46.71738" lon="7.9305" /><trkpt lat="46.71732" lon="7.9304" /><trkpt lat="46.71712" lon="7.93011" /><trkpt lat="46.71693" lon="7.92983" /><trkpt lat="46.71681" lon="7.92965" /><trkpt lat="46.7167" lon="7.92947" /><trkpt lat="46.71661" lon="7.92931" /><trkpt lat="46.71651" lon="7.92912" /><trkpt lat="46.71634" lon="7.92878" /><trkpt lat="46.71617" lon="7.92846" /><trkpt lat="46.71601" lon="7.92813" /><trkpt lat="46.71569" lon="7.92749" /><trkpt lat="46.71536" lon="7.92684" /><trkpt lat="46.71504" lon="7.9262" /><trkpt lat="46.71498" lon="7.92609" /><trkpt lat="46.71493" lon="7.92598" /><trkpt lat="46.71487" lon="7.92587" /><trkpt lat="46.71482" lon="7.92575" /><trkpt lat="46.71478" lon="7.92565" /><trkpt lat="46.71474" lon="7.92554" /><trkpt lat="46.7147" lon="7.92544" /><trkpt lat="46.71466" lon="7.92533" /><trkpt lat="46.71461" lon="7.92517" /><trkpt lat="46.71457" lon="7.92501" /><trkpt lat="46.71447" lon="7.92468" /><trkpt lat="46.71443" lon="7.92455" /><trkpt lat="46.71438" lon="7.92441" /><trkpt lat="46.71435" lon="7.9243" /><trkpt lat="46.71429" lon="7.92416" /><trkpt lat="46.71423" lon="7.92402" /><trkpt lat="46.71417" lon="7.92389" /><trkpt lat="46.71411" lon="7.92377" /><trkpt lat="46.71407" lon="7.92371" /><trkpt lat="46.71403" lon="7.92365" /><trkpt lat="46.71397" lon="7.92355" /><trkpt lat="46.7139" lon="7.92345" /><trkpt lat="46.71379" lon="7.9233" /><trkpt lat="46.71355" lon="7.92302" /><trkpt lat="46.71341" lon="7.92287" /><trkpt lat="46.71334" lon="7.92279" /><trkpt lat="46.71327" lon="7.9227" /><trkpt lat="46.71318" lon="7.92258" /><trkpt lat="46.71309" lon="7.92246" /><trkpt lat="46.71302" lon="7.92236" /><trkpt lat="46.71296" lon="7.92226" /><trkpt lat="46.71289" lon="7.92214" /><trkpt lat="46.71282" lon="7.92201" /><trkpt lat="46.71278" lon="7.92193" /><trkpt lat="46.71274" lon="7.92184" /><trkpt lat="46.71267" lon="7.92167" /><trkpt lat="46.71261" lon="7.92153" /><trkpt lat="46.71255" lon="7.92139" /><trkpt lat="46.71244" lon="7.92111" /><trkpt lat="46.71221" lon="7.92055" /><trkpt lat="46.71208" lon="7.92023" /><trkpt lat="46.71199" lon="7.92002" /><trkpt lat="46.7119" lon="7.9198" /><trkpt lat="46.71187" lon="7.91969" /><trkpt lat="46.71183" lon="7.91959" /><trkpt lat="46.71178" lon="7.91944" /><trkpt lat="46.71174" lon="7.91929" /><trkpt lat="46.71165" lon="7.91896" /><trkpt lat="46.71153" lon="7.91852" /><trkpt lat="46.71146" lon="7.9183" /><trkpt lat="46.71143" lon="7.91819" /><trkpt lat="46.71139" lon="7.91809" /><trkpt lat="46.71136" lon="7.91799" /><trkpt lat="46.71132" lon="7.91789" /><trkpt lat="46.71128" lon="7.9178" /><trkpt lat="46.71123" lon="7.91771" /><trkpt lat="46.7112" lon="7.91763" /><trkpt lat="46.71116" lon="7.91755" /><trkpt lat="46.71111" lon="7.91747" /><trkpt lat="46.7111" lon="7.91745" /><trkpt lat="46.71107" lon="7.9174" /><trkpt lat="46.71106" lon="7.91738" /><trkpt lat="46.711" lon="7.91727" /><trkpt lat="46.71092" lon="7.91715" /><trkpt lat="46.71083" lon="7.91703" /><trkpt lat="46.71077" lon="7.91696" /><trkpt lat="46.71071" lon="7.91689" /><trkpt lat="46.71065" lon="7.91682" /><trkpt lat="46.71059" lon="7.91675" /><trkpt lat="46.71047" lon="7.91664" /><trkpt lat="46.71035" lon="7.91653" /><trkpt lat="46.71023" lon="7.91643" /><trkpt lat="46.71011" lon="7.91634" /><trkpt lat="46.70987" lon="7.91615" /><trkpt lat="46.70963" lon="7.91597" /><trkpt lat="46.70941" lon="7.91581" /><trkpt lat="46.70929" lon="7.91571" /><trkpt lat="46.70917" lon="7.9156" /><trkpt lat="46.70911" lon="7.91554" /><trkpt lat="46.70906" lon="7.91549" /><trkpt lat="46.709" lon="7.91543" /><trkpt lat="46.70895" lon="7.91537" /><trkpt lat="46.70889" lon="7.91529" /><trkpt lat="46.70883" lon="7.91521" /><trkpt lat="46.70876" lon="7.91512" /><trkpt lat="46.7087" lon="7.91502" /><trkpt lat="46.70861" lon="7.91488" /><trkpt lat="46.70853" lon="7.91474" /><trkpt lat="46.70836" lon="7.91447" /><trkpt lat="46.70819" lon="7.91417" /><trkpt lat="46.70806" lon="7.9139" /><trkpt lat="46.70798" lon="7.91369" /><trkpt lat="46.70794" lon="7.91357" /><trkpt lat="46.7079" lon="7.91346" /><trkpt lat="46.70783" lon="7.91323" /><trkpt lat="46.70777" lon="7.91298" /><trkpt lat="46.70773" lon="7.91277" /><trkpt lat="46.7077" lon="7.91255" /><trkpt lat="46.70761" lon="7.91191" /><trkpt lat="46.70759" lon="7.91177" /><trkpt lat="46.70758" lon="7.9117" /><trkpt lat="46.70754" lon="7.91149" /><trkpt lat="46.70747" lon="7.91119" /><trkpt lat="46.70743" lon="7.91109" /><trkpt lat="46.7074" lon="7.91098" /><trkpt lat="46.70733" lon="7.9108" /><trkpt lat="46.70723" lon="7.91058" /><trkpt lat="46.70717" lon="7.91045" /><trkpt lat="46.7071" lon="7.91032" /><trkpt lat="46.70693" lon="7.91004" /><trkpt lat="46.70674" lon="7.90974" /><trkpt lat="46.70656" lon="7.90944" /><trkpt lat="46.70637" lon="7.90914" /><trkpt lat="46.70626" lon="7.90895" /><trkpt lat="46.70621" lon="7.90885" /><trkpt lat="46.70616" lon="7.90875" /><trkpt lat="46.70608" lon="7.90859" /><trkpt lat="46.706" lon="7.90843" /><trkpt lat="46.70588" lon="7.90813" /><trkpt lat="46.70578" lon="7.90786" /><trkpt lat="46.70577" lon="7.90782" /><trkpt lat="46.70569" lon="7.90761" /><trkpt lat="46.70566" lon="7.9075" /><trkpt lat="46.70562" lon="7.90739" /><trkpt lat="46.70559" lon="7.90728" /><trkpt lat="46.70556" lon="7.90717" /><trkpt lat="46.70549" lon="7.90695" /><trkpt lat="46.70545" lon="7.90678" /><trkpt lat="46.7054" lon="7.90662" /><trkpt lat="46.70536" lon="7.90645" /><trkpt lat="46.70532" lon="7.90628" /><trkpt lat="46.70528" lon="7.90606" /><trkpt lat="46.70523" lon="7.90584" /><trkpt lat="46.70517" lon="7.90549" /><trkpt lat="46.70512" lon="7.90514" /><trkpt lat="46.70509" lon="7.90495" /><trkpt lat="46.70508" lon="7.90476" /><trkpt lat="46.70507" lon="7.90461" /><trkpt lat="46.70506" lon="7.90445" /><trkpt lat="46.70507" lon="7.90428" /><trkpt lat="46.70508" lon="7.90351" /><trkpt lat="46.70507" lon="7.90333" /><trkpt lat="46.70505" lon="7.90314" /><trkpt lat="46.70503" lon="7.90288" /><trkpt lat="46.705" lon="7.90268" /><trkpt lat="46.70496" lon="7.90248" /><trkpt lat="46.70494" lon="7.90237" /><trkpt lat="46.70491" lon="7.90225" /><trkpt lat="46.70488" lon="7.90215" /><trkpt lat="46.70485" lon="7.90204" /><trkpt lat="46.70479" lon="7.90187" /><trkpt lat="46.70472" lon="7.9017" /><trkpt lat="46.70464" lon="7.90154" /><trkpt lat="46.70456" lon="7.90137" /><trkpt lat="46.70424" lon="7.90075" /><trkpt lat="46.70384" lon="7.89997" /><trkpt lat="46.70344" lon="7.89919" /><trkpt lat="46.7033" lon="7.89895" /><trkpt lat="46.70323" lon="7.89883" /><trkpt lat="46.70317" lon="7.89872" /><trkpt lat="46.70306" lon="7.89855" /><trkpt lat="46.70295" lon="7.89839" /><trkpt lat="46.70284" lon="7.89825" /><trkpt lat="46.70274" lon="7.89811" /><trkpt lat="46.70257" lon="7.89791" /><trkpt lat="46.70242" lon="7.89771" /><trkpt lat="46.70227" lon="7.89752" /><trkpt lat="46.70222" lon="7.89744" /><trkpt lat="46.70217" lon="7.89735" /><trkpt lat="46.70213" lon="7.89728" /><trkpt lat="46.70208" lon="7.8972" /><trkpt lat="46.702" lon="7.89704" /><trkpt lat="46.70184" lon="7.89672" /><trkpt lat="46.70177" lon="7.89657" /><trkpt lat="46.70169" lon="7.89642" /><trkpt lat="46.70161" lon="7.89629" /><trkpt lat="46.70154" lon="7.89617" /><trkpt lat="46.70149" lon="7.89611" /><trkpt lat="46.70145" lon="7.89604" /><trkpt lat="46.70138" lon="7.89596" /><trkpt lat="46.70131" lon="7.89587" /><trkpt lat="46.70125" lon="7.89581" /><trkpt lat="46.70115" lon="7.8957" /><trkpt lat="46.70101" lon="7.89558" /><trkpt lat="46.70094" lon="7.89553" /><trkpt lat="46.70087" lon="7.89548" /><trkpt lat="46.70079" lon="7.89542" /><trkpt lat="46.7007" lon="7.89537" /><trkpt lat="46.70061" lon="7.89533" /><trkpt lat="46.70053" lon="7.89529" /><trkpt lat="46.70046" lon="7.89527" /><trkpt lat="46.70035" lon="7.89522" /><trkpt lat="46.70018" lon="7.89517" /><trkpt lat="46.6999" lon="7.89507" /><trkpt lat="46.69974" lon="7.895" /><trkpt lat="46.69956" lon="7.89492" /><trkpt lat="46.6994" lon="7.89484" /><trkpt lat="46.69929" lon="7.89477" /><trkpt lat="46.69918" lon="7.89469" /><trkpt lat="46.69908" lon="7.89461" /><trkpt lat="46.69898" lon="7.89452" /><trkpt lat="46.69889" lon="7.89444" /><trkpt lat="46.69881" lon="7.89435" /><trkpt lat="46.69872" lon="7.89424" /><trkpt lat="46.69862" lon="7.89413" /><trkpt lat="46.69848" lon="7.89392" /><trkpt lat="46.69833" lon="7.89371" /><trkpt lat="46.69804" lon="7.89328" /><trkpt lat="46.69772" lon="7.89282" /><trkpt lat="46.69757" lon="7.89259" /><trkpt lat="46.69749" lon="7.89248" /><trkpt lat="46.69742" lon="7.89236" /><trkpt lat="46.69733" lon="7.8922" /><trkpt lat="46.69728" lon="7.8921" /><trkpt lat="46.69726" lon="7.89205" /><trkpt lat="46.69714" lon="7.89174" /><trkpt lat="46.69705" lon="7.89145" /><trkpt lat="46.69697" lon="7.89114" /><trkpt lat="46.69691" lon="7.89083" /><trkpt lat="46.69685" lon="7.8905" /><trkpt lat="46.69679" lon="7.8902" /><trkpt lat="46.6967" lon="7.88988" /><trkpt lat="46.6966" lon="7.8896" /><trkpt lat="46.69648" lon="7.88933" /><trkpt lat="46.69634" lon="7.88908" /><trkpt lat="46.69605" lon="7.88866" /><trkpt lat="46.69571" lon="7.88819" /><trkpt lat="46.69561" lon="7.88803" /><trkpt lat="46.69552" lon="7.88788" /><trkpt lat="46.69547" lon="7.88779" /><trkpt lat="46.69542" lon="7.8877" /><trkpt lat="46.69538" lon="7.88761" /><trkpt lat="46.69534" lon="7.88752" /><trkpt lat="46.69525" lon="7.8873" /><trkpt lat="46.69521" lon="7.88718" /><trkpt lat="46.69518" lon="7.88706" /><trkpt lat="46.69515" lon="7.88695" /><trkpt lat="46.69512" lon="7.88683" /><trkpt lat="46.69509" lon="7.88671" /><trkpt lat="46.69507" lon="7.88658" /><trkpt lat="46.69504" lon="7.88635" /><trkpt lat="46.69502" lon="7.88613" /><trkpt lat="46.695" lon="7.88581" /><trkpt lat="46.695" lon="7.88549" /><trkpt lat="46.69498" lon="7.8851" /><trkpt lat="46.69497" lon="7.88494" /><trkpt lat="46.69496" lon="7.88477" /><trkpt lat="46.69494" lon="7.88465" /><trkpt lat="46.69492" lon="7.88453" /><trkpt lat="46.6949" lon="7.88442" /><trkpt lat="46.69488" lon="7.88432" /><trkpt lat="46.69485" lon="7.88421" /><trkpt lat="46.69482" lon="7.88411" /><trkpt lat="46.69479" lon="7.88402" /><trkpt lat="46.69476" lon="7.88393" /><trkpt lat="46.69472" lon="7.88382" /><trkpt lat="46.69467" lon="7.88372" /><trkpt lat="46.69463" lon="7.88363" /><trkpt lat="46.69458" lon="7.88354" /><trkpt lat="46.69455" lon="7.88347" /><trkpt lat="46.69454" lon="7.88346" /><trkpt lat="46.69446" lon="7.88333" /><trkpt lat="46.69431" lon="7.88313" /><trkpt lat="46.69418" lon="7.88296" /><trkpt lat="46.6934" lon="7.88202" /><trkpt lat="46.69329" lon="7.88188" /><trkpt lat="46.69148" lon="7.87969" /><trkpt lat="46.69131" lon="7.87948" /><trkpt lat="46.69123" lon="7.87937" /><trkpt lat="46.69114" lon="7.87925" /><trkpt lat="46.69109" lon="7.87916" /><trkpt lat="46.69105" lon="7.8791" /><trkpt lat="46.69102" lon="7.87904" /><trkpt lat="46.69097" lon="7.87896" /><trkpt lat="46.69093" lon="7.87887" /><trkpt lat="46.69089" lon="7.87879" /><trkpt lat="46.69085" lon="7.87869" /><trkpt lat="46.69081" lon="7.8786" /><trkpt lat="46.69077" lon="7.8785" /><trkpt lat="46.69074" lon="7.8784" /><trkpt lat="46.6907" lon="7.87829" /><trkpt lat="46.69069" lon="7.87823" /><trkpt lat="46.69066" lon="7.87814" /><trkpt lat="46.69064" lon="7.87804" /><trkpt lat="46.69062" lon="7.87794" /><trkpt lat="46.6906" lon="7.87786" /><trkpt lat="46.69057" lon="7.87771" /><trkpt lat="46.69056" lon="7.8776" /><trkpt lat="46.69055" lon="7.8775" /><trkpt lat="46.69053" lon="7.87739" /><trkpt lat="46.69052" lon="7.87721" /><trkpt lat="46.69052" lon="7.87711" /><trkpt lat="46.69052" lon="7.87703" /><trkpt lat="46.69052" lon="7.87693" /><trkpt lat="46.69052" lon="7.87682" /><trkpt lat="46.69053" lon="7.87674" /><trkpt lat="46.69053" lon="7.87665" /><trkpt lat="46.69054" lon="7.87656" /><trkpt lat="46.69055" lon="7.87647" /><trkpt lat="46.69056" lon="7.87638" /><trkpt lat="46.69057" lon="7.8763" /><trkpt lat="46.69058" lon="7.87622" /><trkpt lat="46.6906" lon="7.8761" /><trkpt lat="46.69062" lon="7.876" /><trkpt lat="46.69064" lon="7.87591" /><trkpt lat="46.69071" lon="7.87557" /><trkpt lat="46.69093" lon="7.87452" /><trkpt lat="46.69095" lon="7.87443" /><trkpt lat="46.69097" lon="7.87434" /><trkpt lat="46.691" lon="7.87416" /><trkpt lat="46.69102" lon="7.87404" /><trkpt lat="46.69104" lon="7.87391" /><trkpt lat="46.69105" lon="7.87378" /><trkpt lat="46.69107" lon="7.87367" /><trkpt lat="46.69108" lon="7.87356" /><trkpt lat="46.69109" lon="7.87343" /><trkpt lat="46.69109" lon="7.87328" /><trkpt lat="46.6911" lon="7.87312" /><trkpt lat="46.6911" lon="7.87302" /><trkpt lat="46.6911" lon="7.87294" /><trkpt lat="46.6911" lon="7.87281" /><trkpt lat="46.69109" lon="7.87261" /><trkpt lat="46.69109" lon="7.87252" /><trkpt lat="46.69108" lon="7.87242" /><trkpt lat="46.69108" lon="7.87231" /><trkpt lat="46.69106" lon="7.87206" /><trkpt lat="46.69104" lon="7.87191" /><trkpt lat="46.69102" lon="7.87176" /><trkpt lat="46.691" lon="7.87164" /><trkpt lat="46.69098" lon="7.87155" /><trkpt lat="46.69094" lon="7.87136" /><trkpt lat="46.6909" lon="7.87121" /><trkpt lat="46.69089" lon="7.87118" /><trkpt lat="46.69087" lon="7.87109" /><trkpt lat="46.69086" lon="7.87103" /><trkpt lat="46.69084" lon="7.87097" /><trkpt lat="46.69083" lon="7.8709" /><trkpt lat="46.69082" lon="7.87085" /><trkpt lat="46.69081" lon="7.8708" /><trkpt lat="46.6908" lon="7.87072" /><trkpt lat="46.69085" lon="7.87119" /><trkpt lat="46.69086" lon="7.87125" /><trkpt lat="46.69086" lon="7.87131" /><trkpt lat="46.69087" lon="7.87138" /><trkpt lat="46.69087" lon="7.87144" /><trkpt lat="46.69087" lon="7.87151" /><trkpt lat="46.69086" lon="7.87159" /><trkpt lat="46.69086" lon="7.87167" /><trkpt lat="46.69085" lon="7.87175" /><trkpt lat="46.69084" lon="7.8718" /><trkpt lat="46.69083" lon="7.87186" /><trkpt lat="46.69083" lon="7.87191" /><trkpt lat="46.69082" lon="7.87196" /><trkpt lat="46.69081" lon="7.872" /><trkpt lat="46.6908" lon="7.87205" /><trkpt lat="46.69079" lon="7.87209" /><trkpt lat="46.69078" lon="7.87214" /><trkpt lat="46.69077" lon="7.87218" /><trkpt lat="46.69076" lon="7.87223" /><trkpt lat="46.69074" lon="7.87229" /><trkpt lat="46.69072" lon="7.87233" /><trkpt lat="46.69071" lon="7.87236" /><trkpt lat="46.6907" lon="7.8724" /><trkpt lat="46.69068" lon="7.87244" /><trkpt lat="46.69067" lon="7.87248" /><trkpt lat="46.69065" lon="7.87251" /><trkpt lat="46.69062" lon="7.87257" /><trkpt lat="46.69061" lon="7.8726" /><trkpt lat="46.69059" lon="7.87263" /><trkpt lat="46.69056" lon="7.87269" /><trkpt lat="46.69052" lon="7.87274" /><trkpt lat="46.69049" lon="7.87279" /><trkpt lat="46.69046" lon="7.87284" /><trkpt lat="46.69044" lon="7.87288" /><trkpt lat="46.69037" lon="7.87296" /><trkpt lat="46.69032" lon="7.87302" /><trkpt lat="46.69029" lon="7.87306" /><trkpt lat="46.69025" lon="7.87311" /><trkpt lat="46.69013" lon="7.87322" /><trkpt lat="46.69004" lon="7.87329" /><trkpt lat="46.68992" lon="7.87337" /><trkpt lat="46.68985" lon="7.87341" /><trkpt lat="46.6898" lon="7.87343" /><trkpt lat="46.68974" lon="7.87346" /><trkpt lat="46.68966" lon="7.87349" /><trkpt lat="46.68953" lon="7.87352" /><trkpt lat="46.68944" lon="7.87354" /><trkpt lat="46.68926" lon="7.87357" /><trkpt lat="46.68828" lon="7.87373" /><trkpt lat="46.6881" lon="7.87376" /><trkpt lat="46.68793" lon="7.87379" /><trkpt lat="46.68768" lon="7.87383" /><trkpt lat="46.68741" lon="7.87387" /><trkpt lat="46.68733" lon="7.87388" /><trkpt lat="46.68714" lon="7.87391" /><trkpt lat="46.68664" lon="7.87397" /><trkpt lat="46.68592" lon="7.87405" /><trkpt lat="46.68541" lon="7.87413" /><trkpt lat="46.68515" lon="7.87417" /><trkpt lat="46.68387" lon="7.87438" /><trkpt lat="46.68329" lon="7.87448" /><trkpt lat="46.68284" lon="7.87456" /><trkpt lat="46.68269" lon="7.87459" /><trkpt lat="46.68252" lon="7.87465" /><trkpt lat="46.68243" lon="7.87468" /><trkpt lat="46.68234" lon="7.87471" /><trkpt lat="46.68216" lon="7.8748" /><trkpt lat="46.68198" lon="7.8749" /><trkpt lat="46.68181" lon="7.87501" /><trkpt lat="46.68153" lon="7.87522" /><trkpt lat="46.6807" lon="7.87586" /><trkpt lat="46.68057" lon="7.87595" /><trkpt lat="46.68036" lon="7.8761" /><trkpt lat="46.68023" lon="7.87618" /><trkpt lat="46.68005" lon="7.87627" /><trkpt lat="46.67989" lon="7.87633" /><trkpt lat="46.67979" lon="7.87636" /><trkpt lat="46.67969" lon="7.87639" /><trkpt lat="46.67957" lon="7.87641" /><trkpt lat="46.67948" lon="7.87642" /><trkpt lat="46.67933" lon="7.87643" /><trkpt lat="46.67926" lon="7.87644" /><trkpt lat="46.67918" lon="7.87643" /><trkpt lat="46.67911" lon="7.87642" /><trkpt lat="46.67903" lon="7.87642" /><trkpt lat="46.67889" lon="7.87639" /><trkpt lat="46.67875" lon="7.87637" /><trkpt lat="46.67702" lon="7.87602" /><trkpt lat="46.67688" lon="7.87598" /><trkpt lat="46.67675" lon="7.87594" /><trkpt lat="46.67663" lon="7.8759" /><trkpt lat="46.67655" lon="7.87586" /><trkpt lat="46.67646" lon="7.87582" /><trkpt lat="46.6764" lon="7.87579" /><trkpt lat="46.67634" lon="7.87575" /><trkpt lat="46.67627" lon="7.8757" /><trkpt lat="46.67619" lon="7.87565" /><trkpt lat="46.67616" lon="7.87563" /><trkpt lat="46.67598" lon="7.87548" /><trkpt lat="46.67585" lon="7.87537" /><trkpt lat="46.67567" lon="7.87519" /><trkpt lat="46.67557" lon="7.87508" /><trkpt lat="46.67541" lon="7.87488" /><trkpt lat="46.67523" lon="7.87465" /><trkpt lat="46.67493" lon="7.87417" /><trkpt lat="46.67437" lon="7.87328" /><trkpt lat="46.67397" lon="7.87263" /><trkpt lat="46.67357" lon="7.872" /><trkpt lat="46.67327" lon="7.87152" /><trkpt lat="46.67279" lon="7.87075" /><trkpt lat="46.67262" lon="7.87048" /><trkpt lat="46.6725" lon="7.87031" /><trkpt lat="46.6724" lon="7.87019" /><trkpt lat="46.6723" lon="7.87008" /><trkpt lat="46.67217" lon="7.86996" /><trkpt lat="46.67206" lon="7.86988" /><trkpt lat="46.67196" lon="7.86981" /><trkpt lat="46.67185" lon="7.86975" /><trkpt lat="46.67176" lon="7.86971" /><trkpt lat="46.67166" lon="7.86967" /><trkpt lat="46.67151" lon="7.86963" /><trkpt lat="46.67143" lon="7.86961" /><trkpt lat="46.67135" lon="7.8696" /><trkpt lat="46.67128" lon="7.8696" /><trkpt lat="46.67114" lon="7.8696" /><trkpt lat="46.67107" lon="7.8696" /><trkpt lat="46.67101" lon="7.86961" /><trkpt lat="46.67095" lon="7.86962" /><trkpt lat="46.67086" lon="7.86964" /><trkpt lat="46.67077" lon="7.86967" /><trkpt lat="46.67069" lon="7.8697" /><trkpt lat="46.67058" lon="7.86974" /><trkpt lat="46.67047" lon="7.8698" /><trkpt lat="46.6704" lon="7.86983" /><trkpt lat="46.67031" lon="7.86988" /><trkpt lat="46.67014" lon="7.86997" /><trkpt lat="46.66996" lon="7.87007" /><trkpt lat="46.66974" lon="7.87018" /><trkpt lat="46.66954" lon="7.87027" /><trkpt lat="46.66938" lon="7.87034" /><trkpt lat="46.66931" lon="7.87039" /><trkpt lat="46.66922" lon="7.87044" /><trkpt lat="46.6691" lon="7.8705" /><trkpt lat="46.66899" lon="7.87056" /><trkpt lat="46.6689" lon="7.8706" /><trkpt lat="46.66884" lon="7.87064" /><trkpt lat="46.66876" lon="7.87067" /><trkpt lat="46.6687" lon="7.87069" /><trkpt lat="46.66864" lon="7.87071" /><trkpt lat="46.66857" lon="7.87073" /><trkpt lat="46.66851" lon="7.87075" /><trkpt lat="46.66844" lon="7.87077" /><trkpt lat="46.66837" lon="7.87078" /><trkpt lat="46.66831" lon="7.87078" /><trkpt lat="46.66824" lon="7.87079" /><trkpt lat="46.66819" lon="7.87079" /><trkpt lat="46.66811" lon="7.87078" /><trkpt lat="46.66804" lon="7.87078" /><trkpt lat="46.66797" lon="7.87077" /><trkpt lat="46.66791" lon="7.87075" /><trkpt lat="46.66784" lon="7.87073" /><trkpt lat="46.66778" lon="7.87072" /><trkpt lat="46.66773" lon="7.8707" /><trkpt lat="46.66768" lon="7.87067" /><trkpt lat="46.66765" lon="7.87066" /><trkpt lat="46.66763" lon="7.87065" /><trkpt lat="46.66757" lon="7.87062" /><trkpt lat="46.66754" lon="7.87059" /><trkpt lat="46.6675" lon="7.87056" /><trkpt lat="46.66744" lon="7.87052" /><trkpt lat="46.6674" lon="7.87048" /><trkpt lat="46.66736" lon="7.87045" /><trkpt lat="46.6673" lon="7.8704" /><trkpt lat="46.66722" lon="7.87035" /><trkpt lat="46.66706" lon="7.87025" /><trkpt lat="46.66699" lon="7.8702" /><trkpt lat="46.66696" lon="7.87021" /><trkpt lat="46.66543" lon="7.86921" /><trkpt lat="46.66539" lon="7.86918" /><trkpt lat="46.66536" lon="7.86917" /><trkpt lat="46.66533" lon="7.86915" /><trkpt lat="46.6653" lon="7.86914" /><trkpt lat="46.66526" lon="7.86913" /><trkpt lat="46.66523" lon="7.86913" /><trkpt lat="46.66521" lon="7.86912" /><trkpt lat="46.66521" lon="7.86907" /><trkpt lat="46.66525" lon="7.86908" /><trkpt lat="46.66528" lon="7.86909" /><trkpt lat="46.66532" lon="7.8691" /><trkpt lat="46.66536" lon="7.86911" /><trkpt lat="46.66539" lon="7.86913" /><trkpt lat="46.66545" lon="7.86916" /><trkpt lat="46.66546" lon="7.86916" /><trkpt lat="46.66561" lon="7.86926" /><trkpt lat="46.66592" lon="7.86946" /><trkpt lat="46.66703" lon="7.87018" /><trkpt lat="46.66699" lon="7.8702" /><trkpt lat="46.66706" lon="7.87025" /><trkpt lat="46.66722" lon="7.87035" /><trkpt lat="46.6673" lon="7.8704" /><trkpt lat="46.66736" lon="7.87045" /><trkpt lat="46.6674" lon="7.87048" /><trkpt lat="46.66744" lon="7.87052" /><trkpt lat="46.6675" lon="7.87056" /><trkpt lat="46.66754" lon="7.87059" /><trkpt lat="46.66757" lon="7.87062" /><trkpt lat="46.66763" lon="7.87065" /><trkpt lat="46.66765" lon="7.87066" /><trkpt lat="46.66768" lon="7.87067" /><trkpt lat="46.66773" lon="7.8707" /><trkpt lat="46.66778" lon="7.87072" /><trkpt lat="46.66784" lon="7.87073" /><trkpt lat="46.66791" lon="7.87075" /><trkpt lat="46.66797" lon="7.87077" /><trkpt lat="46.66804" lon="7.87078" /><trkpt lat="46.66811" lon="7.87078" /><trkpt lat="46.66819" lon="7.87079" /><trkpt lat="46.66824" lon="7.87079" /><trkpt lat="46.66831" lon="7.87078" /><trkpt lat="46.66837" lon="7.87078" /><trkpt lat="46.66844" lon="7.87077" /><trkpt lat="46.66851" lon="7.87075" /><trkpt lat="46.66857" lon="7.87073" /><trkpt lat="46.66864" lon="7.87071" /><trkpt lat="46.6687" lon="7.87069" /><trkpt lat="46.66876" lon="7.87067" /><trkpt lat="46.66884" lon="7.87064" /><trkpt lat="46.6689" lon="7.8706" /><trkpt lat="46.66899" lon="7.87056" /><trkpt lat="46.6691" lon="7.8705" /><trkpt lat="46.66922" lon="7.87044" /><trkpt lat="46.66931" lon="7.87039" /><trkpt lat="46.66938" lon="7.87034" /><trkpt lat="46.66954" lon="7.87027" /><trkpt lat="46.66974" lon="7.87018" /><trkpt lat="46.66996" lon="7.87007" /><trkpt lat="46.67014" lon="7.86997" /><trkpt lat="46.67031" lon="7.86988" /><trkpt lat="46.6704" lon="7.86983" /><trkpt lat="46.67047" lon="7.8698" /><trkpt lat="46.67058" lon="7.86974" /><trkpt lat="46.67069" lon="7.8697" /><trkpt lat="46.67077" lon="7.86967" /><trkpt lat="46.67086" lon="7.86964" /><trkpt lat="46.67095" lon="7.86962" /><trkpt lat="46.67101" lon="7.86961" /><trkpt lat="46.67107" lon="7.8696" /><trkpt lat="46.67114" lon="7.8696" /><trkpt lat="46.67128" lon="7.8696" /><trkpt lat="46.67135" lon="7.8696" /><trkpt lat="46.67143" lon="7.86961" /><trkpt lat="46.67151" lon="7.86963" /><trkpt lat="46.67166" lon="7.86967" /><trkpt lat="46.67176" lon="7.86971" /><trkpt lat="46.67185" lon="7.86975" /><trkpt lat="46.67196" lon="7.86981" /><trkpt lat="46.67206" lon="7.86988" /><trkpt lat="46.67217" lon="7.86996" /><trkpt lat="46.6723" lon="7.87008" /><trkpt lat="46.6724" lon="7.87019" /><trkpt lat="46.6725" lon="7.87031" /><trkpt lat="46.67262" lon="7.87048" /><trkpt lat="46.67279" lon="7.87075" /><trkpt lat="46.67327" lon="7.87152" /><trkpt lat="46.67357" lon="7.872" /><trkpt lat="46.67397" lon="7.87263" /><trkpt lat="46.67437" lon="7.87328" /><trkpt lat="46.67493" lon="7.87417" /><trkpt lat="46.67523" lon="7.87465" /><trkpt lat="46.67541" lon="7.87488" /><trkpt lat="46.67557" lon="7.87508" /><trkpt lat="46.67567" lon="7.87519" /><trkpt lat="46.67585" lon="7.87537" /><trkpt lat="46.67598" lon="7.87548" /><trkpt lat="46.67616" lon="7.87563" /><trkpt lat="46.67619" lon="7.87565" /><trkpt lat="46.67627" lon="7.8757" /><trkpt lat="46.67634" lon="7.87575" /><trkpt lat="46.6764" lon="7.87579" /><trkpt lat="46.67646" lon="7.87582" /><trkpt lat="46.67655" lon="7.87586" /><trkpt lat="46.67663" lon="7.8759" /><trkpt lat="46.67675" lon="7.87594" /><trkpt lat="46.67688" lon="7.87598" /><trkpt lat="46.67702" lon="7.87602" /><trkpt lat="46.67875" lon="7.87637" /><trkpt lat="46.67889" lon="7.87639" /><trkpt lat="46.67903" lon="7.87642" /><trkpt lat="46.67911" lon="7.87642" /><trkpt lat="46.67918" lon="7.87643" /><trkpt lat="46.67926" lon="7.87644" /><trkpt lat="46.67933" lon="7.87643" /><trkpt lat="46.67948" lon="7.87642" /><trkpt lat="46.67957" lon="7.87641" /><trkpt lat="46.67969" lon="7.87639" /><trkpt lat="46.67979" lon="7.87636" /><trkpt lat="46.67989" lon="7.87633" /><trkpt lat="46.68005" lon="7.87627" /><trkpt lat="46.68023" lon="7.87618" /><trkpt lat="46.68036" lon="7.8761" /><trkpt lat="46.68057" lon="7.87595" /><trkpt lat="46.6807" lon="7.87586" /><trkpt lat="46.68153" lon="7.87522" /><trkpt lat="46.68181" lon="7.87501" /><trkpt lat="46.68198" lon="7.8749" /><trkpt lat="46.68216" lon="7.8748" /><trkpt lat="46.68234" lon="7.87471" /><trkpt lat="46.68243" lon="7.87468" /><trkpt lat="46.68252" lon="7.87465" /><trkpt lat="46.68269" lon="7.87459" /><trkpt lat="46.68284" lon="7.87456" /><trkpt lat="46.68329" lon="7.87448" /><trkpt lat="46.68387" lon="7.87438" /><trkpt lat="46.68515" lon="7.87417" /><trkpt lat="46.68541" lon="7.87413" /><trkpt lat="46.68592" lon="7.87405" /><trkpt lat="46.68664" lon="7.87397" /><trkpt lat="46.68714" lon="7.87391" /><trkpt lat="46.68733" lon="7.87388" /><trkpt lat="46.68741" lon="7.87387" /><trkpt lat="46.68768" lon="7.87383" /><trkpt lat="46.68793" lon="7.87379" /><trkpt lat="46.6881" lon="7.87376" /><trkpt lat="46.68828" lon="7.87373" /><trkpt lat="46.68926" lon="7.87357" /><trkpt lat="46.68944" lon="7.87354" /><trkpt lat="46.68953" lon="7.87352" /><trkpt lat="46.68966" lon="7.87349" /><trkpt lat="46.68974" lon="7.87346" /><trkpt lat="46.6898" lon="7.87343" /><trkpt lat="46.68985" lon="7.87341" /><trkpt lat="46.68992" lon="7.87337" /><trkpt lat="46.69004" lon="7.87329" /><trkpt lat="46.69013" lon="7.87322" /><trkpt lat="46.69025" lon="7.87311" /><trkpt lat="46.69029" lon="7.87306" /><trkpt lat="46.69032" lon="7.87302" /><trkpt lat="46.69037" lon="7.87296" /><trkpt lat="46.69044" lon="7.87288" /><trkpt lat="46.69046" lon="7.87284" /><trkpt lat="46.69049" lon="7.87279" /><trkpt lat="46.69052" lon="7.87274" /><trkpt lat="46.69056" lon="7.87269" /><trkpt lat="46.69059" lon="7.87263" /><trkpt lat="46.69061" lon="7.8726" /><trkpt lat="46.69062" lon="7.87257" /><trkpt lat="46.69065" lon="7.87251" /><trkpt lat="46.69067" lon="7.87248" /><trkpt lat="46.69068" lon="7.87244" /><trkpt lat="46.6907" lon="7.8724" /><trkpt lat="46.69071" lon="7.87236" /><trkpt lat="46.69072" lon="7.87233" /><trkpt lat="46.69074" lon="7.87229" /><trkpt lat="46.69076" lon="7.87223" /><trkpt lat="46.69077" lon="7.87218" /><trkpt lat="46.69078" lon="7.87214" /><trkpt lat="46.69079" lon="7.87209" /><trkpt lat="46.6908" lon="7.87205" /><trkpt lat="46.69081" lon="7.872" /><trkpt lat="46.69082" lon="7.87196" /><trkpt lat="46.69083" lon="7.87191" /><trkpt lat="46.69083" lon="7.87186" /><trkpt lat="46.69084" lon="7.87179" /><trkpt lat="46.69085" lon="7.87176" /><trkpt lat="46.69085" lon="7.87173" /><trkpt lat="46.69085" lon="7.87169" /><trkpt lat="46.69085" lon="7.87164" /><trkpt lat="46.69085" lon="7.87157" /><trkpt lat="46.69085" lon="7.8715" /><trkpt lat="46.69084" lon="7.87143" /><trkpt lat="46.69083" lon="7.87137" /><trkpt lat="46.69081" lon="7.8712" /><trkpt lat="46.69062" lon="7.86945" /><trkpt lat="46.69057" lon="7.86899" /><trkpt lat="46.69056" lon="7.86897" /><trkpt lat="46.69056" lon="7.86897" /></trkseg></trk></gpx>