<gpx version="1.1" creator="Trainlog.me"><trk><name>Trip Path</name><trkseg><trkpt lat="47.0552" lon="8.48514" /><trkpt lat="47.05521" lon="8.48506" /><trkpt lat="47.05522" lon="8.48495" /><trkpt lat="47.05523" lon="8.48482" /><trkpt lat="47.05523" lon="8.48468" /><trkpt lat="47.05523" lon="8.48451" /><trkpt lat="47.05522" lon="8.48442" /><trkpt lat="47.05521" lon="8.48433" /><trkpt lat="47.0552" lon="8.4842" /><trkpt lat="47.05518" lon="8.48407" /><trkpt lat="47.05515" lon="8.48387" /><trkpt lat="47.05508" lon="8.48343" /><trkpt lat="47.05506" lon="8.48329" /><trkpt lat="47.05504" lon="8.48315" /><trkpt lat="47.05503" lon="8.48306" /><trkpt lat="47.05502" lon="8.48294" /><trkpt lat="47.05502" lon="8.48283" /><trkpt lat="47.05502" lon="8.4827" /><trkpt lat="47.05502" lon="8.48257" /><trkpt lat="47.05502" lon="8.48246" /><trkpt lat="47.05503" lon="8.48235" /><trkpt lat="47.05504" lon="8.48225" /><trkpt lat="47.05504" lon="8.48214" /><trkpt lat="47.05504" lon="8.48204" /><trkpt lat="47.05504" lon="8.48194" /><trkpt lat="47.05504" lon="8.48183" /><trkpt lat="47.05504" lon="8.48173" /><trkpt lat="47.05503" lon="8.48164" /><trkpt lat="47.05501" lon="8.48154" /><trkpt lat="47.055" lon="8.48145" /><trkpt lat="47.05498" lon="8.48135" /><trkpt lat="47.05496" lon="8.48126" /><trkpt lat="47.05493" lon="8.48116" /><trkpt lat="47.05491" lon="8.48107" /><trkpt lat="47.05485" lon="8.4809" /><trkpt lat="47.05481" lon="8.4808" /><trkpt lat="47.05478" lon="8.4807" /><trkpt lat="47.05476" lon="8.48059" /><trkpt lat="47.05463" lon="8.48001" /><trkpt lat="47.0546" lon="8.47988" /><trkpt lat="47.05457" lon="8.47976" /><trkpt lat="47.05455" lon="8.47964" /><trkpt lat="47.05454" lon="8.47953" /><trkpt lat="47.05453" lon="8.47941" /><trkpt lat="47.05452" lon="8.4793" /><trkpt lat="47.05452" lon="8.47917" /><trkpt lat="47.05452" lon="8.47905" /><trkpt lat="47.05453" lon="8.47887" /><trkpt lat="47.05454" lon="8.47871" /><trkpt lat="47.05472" lon="8.47675" /><trkpt lat="47.05473" lon="8.47666" /><trkpt lat="47.05473" lon="8.47656" /><trkpt lat="47.05473" lon="8.47645" /><trkpt lat="47.05473" lon="8.47636" /><trkpt lat="47.05473" lon="8.47627" /><trkpt lat="47.05472" lon="8.47615" /><trkpt lat="47.05471" lon="8.47605" /><trkpt lat="47.05471" lon="8.47595" /><trkpt lat="47.05469" lon="8.47585" /><trkpt lat="47.05468" lon="8.47575" /><trkpt lat="47.05466" lon="8.47567" /><trkpt lat="47.05463" lon="8.47555" /><trkpt lat="47.0546" lon="8.47543" /><trkpt lat="47.05456" lon="8.47532" /><trkpt lat="47.05452" lon="8.47522" /><trkpt lat="47.05447" lon="8.47511" /><trkpt lat="47.05442" lon="8.475" /><trkpt lat="47.05436" lon="8.47489" /><trkpt lat="47.0543" lon="8.47479" /><trkpt lat="47.05423" lon="8.4747" /><trkpt lat="47.05417" lon="8.47461" /><trkpt lat="47.05408" lon="8.4745" /><trkpt lat="47.05398" lon="8.47441" /><trkpt lat="47.05389" lon="8.47431" /><trkpt lat="47.05378" lon="8.4742" /><trkpt lat="47.05368" lon="8.47409" /><trkpt lat="47.0536" lon="8.474" /><trkpt lat="47.05349" lon="8.47387" /><trkpt lat="47.05345" lon="8.47381" /><trkpt lat="47.05331" lon="8.47363" /><trkpt lat="47.0532" lon="8.47346" /><trkpt lat="47.05304" lon="8.47318" /><trkpt lat="47.05279" lon="8.47276" /><trkpt lat="47.05272" lon="8.47264" /><trkpt lat="47.05265" lon="8.47253" /><trkpt lat="47.05255" lon="8.47235" /><trkpt lat="47.05258" lon="8.4724" /><trkpt lat="47.05261" lon="8.47246" /><trkpt lat="47.05264" lon="8.47254" /><trkpt lat="47.0527" lon="8.47266" /><trkpt lat="47.05276" lon="8.47279" /><trkpt lat="47.05279" lon="8.47285" /><trkpt lat="47.05283" lon="8.47291" /><trkpt lat="47.05301" lon="8.47322" /><trkpt lat="47.05317" lon="8.4735" /><trkpt lat="47.05326" lon="8.47364" /><trkpt lat="47.05338" lon="8.47381" /><trkpt lat="47.05347" lon="8.47393" /><trkpt lat="47.05353" lon="8.474" /><trkpt lat="47.0536" lon="8.47408" /><trkpt lat="47.05353" lon="8.47401" /><trkpt lat="47.05338" lon="8.47385" /><trkpt lat="47.0533" lon="8.47379" /><trkpt lat="47.05322" lon="8.47372" /><trkpt lat="47.05313" lon="8.47366" /><trkpt lat="47.05303" lon="8.4736" /><trkpt lat="47.0528" lon="8.47349" /><trkpt lat="47.05245" lon="8.47331" /><trkpt lat="47.05085" lon="8.47249" /><trkpt lat="47.05063" lon="8.47239" /><trkpt lat="47.05052" lon="8.47234" /><trkpt lat="47.05043" lon="8.47231" /><trkpt lat="47.05034" lon="8.47229" /><trkpt lat="47.05023" lon="8.47227" /><trkpt lat="47.05013" lon="8.47226" /><trkpt lat="47.05003" lon="8.47226" /><trkpt lat="47.04992" lon="8.47228" /><trkpt lat="47.04979" lon="8.47231" /><trkpt lat="47.0497" lon="8.47235" /><trkpt lat="47.04961" lon="8.47238" /><trkpt lat="47.04952" lon="8.47243" /><trkpt lat="47.04943" lon="8.47249" /><trkpt lat="47.04933" lon="8.47256" /><trkpt lat="47.04927" lon="8.47261" /><trkpt lat="47.0492" lon="8.47267" /><trkpt lat="47.0491" lon="8.47278" /><trkpt lat="47.04876" lon="8.4732" /><trkpt lat="47.04868" lon="8.4733" /><trkpt lat="47.0486" lon="8.4734" /><trkpt lat="47.04851" lon="8.47353" /><trkpt lat="47.04846" lon="8.47362" /><trkpt lat="47.04841" lon="8.47371" /><trkpt lat="47.04836" lon="8.47381" /><trkpt lat="47.04789" lon="8.47495" /><trkpt lat="47.04735" lon="8.47628" /><trkpt lat="47.04728" lon="8.47644" /><trkpt lat="47.04721" lon="8.4766" /><trkpt lat="47.04715" lon="8.47673" /><trkpt lat="47.04711" lon="8.47681" /><trkpt lat="47.04705" lon="8.47691" /><trkpt lat="47.04696" lon="8.47705" /><trkpt lat="47.04688" lon="8.47718" /><trkpt lat="47.04668" lon="8.4775" /><trkpt lat="47.04498" lon="8.48018" /><trkpt lat="47.04437" lon="8.48115" /><trkpt lat="47.04339" lon="8.48271" /><trkpt lat="47.04333" lon="8.48279" /><trkpt lat="47.04328" lon="8.48288" /><trkpt lat="47.04322" lon="8.48296" /><trkpt lat="47.04318" lon="8.48304" /><trkpt lat="47.04314" lon="8.48313" /><trkpt lat="47.04309" lon="8.48324" /><trkpt lat="47.04305" lon="8.48333" /><trkpt lat="47.04302" lon="8.48343" /><trkpt lat="47.04298" lon="8.48356" /><trkpt lat="47.04295" lon="8.48368" /><trkpt lat="47.04293" lon="8.4838" /><trkpt lat="47.0429" lon="8.48393" /><trkpt lat="47.04288" lon="8.48406" /><trkpt lat="47.04287" lon="8.48418" /><trkpt lat="47.04286" lon="8.4843" /><trkpt lat="47.04286" lon="8.48441" /><trkpt lat="47.04286" lon="8.48451" /><trkpt lat="47.04286" lon="8.48461" /><trkpt lat="47.04286" lon="8.48469" /><trkpt lat="47.04289" lon="8.48518" /><trkpt lat="47.04289" lon="8.4853" /><trkpt lat="47.0429" lon="8.48543" /><trkpt lat="47.04289" lon="8.48556" /><trkpt lat="47.04289" lon="8.48568" /><trkpt lat="47.04288" lon="8.48578" /><trkpt lat="47.04286" lon="8.4859" /><trkpt lat="47.04282" lon="8.48621" /><trkpt lat="47.04281" lon="8.48628" /><trkpt lat="47.04279" lon="8.48641" /><trkpt lat="47.04277" lon="8.48652" /><trkpt lat="47.04275" lon="8.48662" /><trkpt lat="47.04272" lon="8.48672" /><trkpt lat="47.04269" lon="8.48683" /><trkpt lat="47.04265" lon="8.48694" /><trkpt lat="47.04261" lon="8.48705" /><trkpt lat="47.04256" lon="8.48716" /><trkpt lat="47.04251" lon="8.48727" /><trkpt lat="47.04246" lon="8.48737" /><trkpt lat="47.04233" lon="8.48758" /><trkpt lat="47.0419" lon="8.4883" /><trkpt lat="47.04059" lon="8.49045" /><trkpt lat="47.04034" lon="8.49087" /><trkpt lat="47.04024" lon="8.49101" /><trkpt lat="47.04014" lon="8.49114" /><trkpt lat="47.04003" lon="8.49125" /><trkpt lat="47.03993" lon="8.49134" /><trkpt lat="47.03982" lon="8.49144" /><trkpt lat="47.03891" lon="8.49229" /><trkpt lat="47.03874" lon="8.49245" /><trkpt lat="47.03866" lon="8.49253" /><trkpt lat="47.03858" lon="8.49262" /><trkpt lat="47.03851" lon="8.49269" /><trkpt lat="47.03845" lon="8.49277" /><trkpt lat="47.03838" lon="8.49288" /><trkpt lat="47.03833" lon="8.49295" /><trkpt lat="47.03828" lon="8.49304" /><trkpt lat="47.03824" lon="8.49313" /><trkpt lat="47.0382" lon="8.49321" /><trkpt lat="47.03817" lon="8.4933" /><trkpt lat="47.03813" lon="8.49339" /><trkpt lat="47.0381" lon="8.49349" /><trkpt lat="47.03806" lon="8.49361" /><trkpt lat="47.03804" lon="8.49372" /><trkpt lat="47.03801" lon="8.49384" /><trkpt lat="47.03799" lon="8.49395" /><trkpt lat="47.03797" lon="8.49407" /><trkpt lat="47.03796" lon="8.4942" /><trkpt lat="47.03795" lon="8.49435" /><trkpt lat="47.03795" lon="8.49449" /><trkpt lat="47.03793" lon="8.49494" /><trkpt lat="47.03793" lon="8.49508" /><trkpt lat="47.03792" lon="8.49517" /><trkpt lat="47.03791" lon="8.49526" /><trkpt lat="47.03789" lon="8.49536" /><trkpt lat="47.03786" lon="8.49546" /><trkpt lat="47.03784" lon="8.49557" /><trkpt lat="47.03781" lon="8.49568" /><trkpt lat="47.03778" lon="8.49577" /><trkpt lat="47.03775" lon="8.49586" /><trkpt lat="47.03771" lon="8.49595" /><trkpt lat="47.03767" lon="8.49604" /><trkpt lat="47.03751" lon="8.49646" /><trkpt lat="47.03745" lon="8.49662" /><trkpt lat="47.03741" lon="8.49678" /><trkpt lat="47.03737" lon="8.49696" /><trkpt lat="47.03735" lon="8.49715" /><trkpt lat="47.03733" lon="8.49734" /><trkpt lat="47.03733" lon="8.49754" /><trkpt lat="47.03723" lon="8.50046" /><trkpt lat="47.03722" lon="8.50069" /><trkpt lat="47.03722" lon="8.50091" /><trkpt lat="47.03723" lon="8.50108" /><trkpt lat="47.03724" lon="8.50125" /><trkpt lat="47.03727" lon="8.50144" /><trkpt lat="47.03731" lon="8.50163" /><trkpt lat="47.03735" lon="8.50181" /><trkpt lat="47.03739" lon="8.502" /><trkpt lat="47.03744" lon="8.50218" /><trkpt lat="47.0375" lon="8.50235" /><trkpt lat="47.03756" lon="8.50252" /><trkpt lat="47.03763" lon="8.50267" /><trkpt lat="47.03775" lon="8.50289" /><trkpt lat="47.03803" lon="8.50343" /><trkpt lat="47.03808" lon="8.50353" /><trkpt lat="47.03812" lon="8.50363" /><trkpt lat="47.03821" lon="8.50389" /><trkpt lat="47.03824" lon="8.50399" /><trkpt lat="47.03827" lon="8.5041" /><trkpt lat="47.0383" lon="8.50422" /><trkpt lat="47.03833" lon="8.50437" /><trkpt lat="47.03835" lon="8.5045" /><trkpt lat="47.03837" lon="8.50464" /><trkpt lat="47.03837" lon="8.50474" /><trkpt lat="47.03837" lon="8.50484" /><trkpt lat="47.03837" lon="8.50495" /><trkpt lat="47.03837" lon="8.50504" /><trkpt lat="47.03836" lon="8.50519" /><trkpt lat="47.03835" lon="8.50529" /><trkpt lat="47.03833" lon="8.50542" /><trkpt lat="47.03831" lon="8.50555" /><trkpt lat="47.03829" lon="8.50564" /><trkpt lat="47.03826" lon="8.50581" /><trkpt lat="47.03822" lon="8.50611" /><trkpt lat="47.03819" lon="8.50628" /><trkpt lat="47.03818" lon="8.50646" /><trkpt lat="47.03817" lon="8.5066" /><trkpt lat="47.03816" lon="8.50675" /><trkpt lat="47.03816" lon="8.50694" /><trkpt lat="47.03817" lon="8.50714" /><trkpt lat="47.03819" lon="8.50737" /><trkpt lat="47.03821" lon="8.50759" /><trkpt lat="47.03829" lon="8.50823" /><trkpt lat="47.03831" lon="8.50838" /><trkpt lat="47.03832" lon="8.50854" /><trkpt lat="47.03832" lon="8.50871" /><trkpt lat="47.03832" lon="8.50889" /><trkpt lat="47.03824" lon="8.51316" /><trkpt lat="47.03823" lon="8.51361" /><trkpt lat="47.03824" lon="8.51375" /><trkpt lat="47.03824" lon="8.51388" /><trkpt lat="47.03825" lon="8.51394" /><trkpt lat="47.03826" lon="8.51405" /><trkpt lat="47.03828" lon="8.51416" /><trkpt lat="47.0383" lon="8.51429" /><trkpt lat="47.03834" lon="8.51444" /><trkpt lat="47.03838" lon="8.51456" /><trkpt lat="47.03842" lon="8.51469" /><trkpt lat="47.03849" lon="8.51486" /><trkpt lat="47.03854" lon="8.51498" /><trkpt lat="47.0386" lon="8.51509" /><trkpt lat="47.03878" lon="8.51536" /><trkpt lat="47.03914" lon="8.51582" /><trkpt lat="47.03925" lon="8.51597" /><trkpt lat="47.03948" lon="8.51636" /><trkpt lat="47.03954" lon="8.51645" /><trkpt lat="47.0396" lon="8.51655" /><trkpt lat="47.03966" lon="8.51665" /><trkpt lat="47.03976" lon="8.51678" /><trkpt lat="47.03999" lon="8.51701" /><trkpt lat="47.04008" lon="8.51712" /><trkpt lat="47.04021" lon="8.51725" /><trkpt lat="47.04028" lon="8.51735" /><trkpt lat="47.04034" lon="8.51747" /><trkpt lat="47.04042" lon="8.51763" /><trkpt lat="47.04052" lon="8.51789" /><trkpt lat="47.0406" lon="8.51816" /><trkpt lat="47.04065" lon="8.51837" /><trkpt lat="47.04068" lon="8.51853" /><trkpt lat="47.04069" lon="8.51869" /><trkpt lat="47.0407" lon="8.51888" /><trkpt lat="47.0407" lon="8.51907" /><trkpt lat="47.04069" lon="8.51925" /><trkpt lat="47.04067" lon="8.51944" /><trkpt lat="47.04064" lon="8.51962" /><trkpt lat="47.04059" lon="8.51982" /><trkpt lat="47.04055" lon="8.51997" /><trkpt lat="47.0405" lon="8.52012" /><trkpt lat="47.04043" lon="8.52028" /><trkpt lat="47.04035" lon="8.52043" /><trkpt lat="47.04003" lon="8.52105" /><trkpt lat="47.03998" lon="8.52117" /><trkpt lat="47.0399" lon="8.52136" /><trkpt lat="47.03983" lon="8.52156" /><trkpt lat="47.03974" lon="8.52178" /><trkpt lat="47.03966" lon="8.52201" /><trkpt lat="47.03941" lon="8.52269" /><trkpt lat="47.03935" lon="8.52283" /><trkpt lat="47.03929" lon="8.52296" /><trkpt lat="47.03913" lon="8.5233" /><trkpt lat="47.03906" lon="8.52346" /><trkpt lat="47.03899" lon="8.52367" /><trkpt lat="47.03894" lon="8.52386" /><trkpt lat="47.0389" lon="8.52405" /><trkpt lat="47.03865" lon="8.52521" /><trkpt lat="47.03862" lon="8.52537" /><trkpt lat="47.03859" lon="8.52553" /><trkpt lat="47.03857" lon="8.52571" /><trkpt lat="47.03856" lon="8.52588" /><trkpt lat="47.03856" lon="8.5261" /><trkpt lat="47.03856" lon="8.52624" /><trkpt lat="47.03858" lon="8.5264" /><trkpt lat="47.0386" lon="8.52654" /><trkpt lat="47.03862" lon="8.52666" /><trkpt lat="47.03864" lon="8.52678" /><trkpt lat="47.03867" lon="8.5269" /><trkpt lat="47.03871" lon="8.52703" /><trkpt lat="47.03875" lon="8.52715" /><trkpt lat="47.03879" lon="8.52726" /><trkpt lat="47.03884" lon="8.52737" /><trkpt lat="47.0389" lon="8.52748" /><trkpt lat="47.03938" lon="8.52844" /><trkpt lat="47.03973" lon="8.52912" /><trkpt lat="47.0398" lon="8.52928" /><trkpt lat="47.03986" lon="8.52945" /><trkpt lat="47.03991" lon="8.52963" /><trkpt lat="47.03996" lon="8.52982" /><trkpt lat="47.04008" lon="8.53027" /><trkpt lat="47.04015" lon="8.53053" /><trkpt lat="47.04056" lon="8.53207" /><trkpt lat="47.0406" lon="8.53219" /><trkpt lat="47.04063" lon="8.53233" /><trkpt lat="47.04065" lon="8.53246" /><trkpt lat="47.04067" lon="8.53261" /><trkpt lat="47.04069" lon="8.53277" /><trkpt lat="47.0407" lon="8.53289" /><trkpt lat="47.0407" lon="8.53303" /><trkpt lat="47.0407" lon="8.53316" /><trkpt lat="47.04069" lon="8.5333" /><trkpt lat="47.04068" lon="8.53344" /><trkpt lat="47.04066" lon="8.53358" /><trkpt lat="47.04061" lon="8.53405" /><trkpt lat="47.0406" lon="8.53418" /><trkpt lat="47.04058" lon="8.53433" /><trkpt lat="47.04057" lon="8.53449" /><trkpt lat="47.04056" lon="8.53463" /><trkpt lat="47.04056" lon="8.53477" /><trkpt lat="47.04057" lon="8.53491" /><trkpt lat="47.04058" lon="8.53504" /><trkpt lat="47.04059" lon="8.53516" /><trkpt lat="47.0406" lon="8.53528" /><trkpt lat="47.04062" lon="8.53539" /><trkpt lat="47.04065" lon="8.5355" /><trkpt lat="47.04068" lon="8.5356" /><trkpt lat="47.0407" lon="8.5357" /><trkpt lat="47.04075" lon="8.53583" /><trkpt lat="47.0408" lon="8.53596" /><trkpt lat="47.04086" lon="8.53609" /><trkpt lat="47.04092" lon="8.53622" /><trkpt lat="47.041" lon="8.53637" /><trkpt lat="47.04107" lon="8.53653" /><trkpt lat="47.04112" lon="8.53663" /><trkpt lat="47.04117" lon="8.53676" /><trkpt lat="47.04121" lon="8.5369" /><trkpt lat="47.04124" lon="8.53701" /><trkpt lat="47.04127" lon="8.53716" /><trkpt lat="47.0413" lon="8.5373" /><trkpt lat="47.04131" lon="8.53743" /><trkpt lat="47.04133" lon="8.53758" /><trkpt lat="47.04134" lon="8.53773" /><trkpt lat="47.04134" lon="8.53787" /><trkpt lat="47.04133" lon="8.53801" /><trkpt lat="47.04132" lon="8.53816" /><trkpt lat="47.04129" lon="8.53881" /><trkpt lat="47.04125" lon="8.53948" /><trkpt lat="47.04124" lon="8.53965" /><trkpt lat="47.04124" lon="8.53984" /><trkpt lat="47.04124" lon="8.54003" /><trkpt lat="47.04125" lon="8.54018" /><trkpt lat="47.04127" lon="8.54038" /><trkpt lat="47.04128" lon="8.54058" /><trkpt lat="47.04166" lon="8.54454" /><trkpt lat="47.04168" lon="8.54477" /><trkpt lat="47.0417" lon="8.5449" /><trkpt lat="47.04172" lon="8.54504" /><trkpt lat="47.04175" lon="8.54517" /><trkpt lat="47.04178" lon="8.5453" /><trkpt lat="47.04182" lon="8.54543" /><trkpt lat="47.04186" lon="8.54555" /><trkpt lat="47.0419" lon="8.54566" /><trkpt lat="47.04195" lon="8.54578" /><trkpt lat="47.04201" lon="8.54589" /><trkpt lat="47.04209" lon="8.54602" /><trkpt lat="47.04219" lon="8.54617" /><trkpt lat="47.04226" lon="8.54626" /><trkpt lat="47.04235" lon="8.54636" /><trkpt lat="47.04244" lon="8.54645" /><trkpt lat="47.04251" lon="8.54652" /><trkpt lat="47.04259" lon="8.54659" /><trkpt lat="47.04268" lon="8.54666" /><trkpt lat="47.04276" lon="8.54672" /><trkpt lat="47.04284" lon="8.54677" /><trkpt lat="47.04291" lon="8.5468" /><trkpt lat="47.04338" lon="8.54705" /><trkpt lat="47.04341" lon="8.54706" /><trkpt lat="47.04356" lon="8.54714" /><trkpt lat="47.04364" lon="8.54718" /><trkpt lat="47.04371" lon="8.54721" /><trkpt lat="47.04378" lon="8.54723" /><trkpt lat="47.04385" lon="8.54725" /><trkpt lat="47.04392" lon="8.54726" /><trkpt lat="47.04399" lon="8.54727" /><trkpt lat="47.04405" lon="8.54727" /><trkpt lat="47.04422" lon="8.54728" /><trkpt lat="47.0445" lon="8.54729" /><trkpt lat="47.04573" lon="8.54732" /><trkpt lat="47.04588" lon="8.54732" /><trkpt lat="47.04596" lon="8.54732" /><trkpt lat="47.04603" lon="8.54731" /><trkpt lat="47.0461" lon="8.54729" /><trkpt lat="47.04617" lon="8.54728" /><trkpt lat="47.04626" lon="8.54725" /><trkpt lat="47.04637" lon="8.5472" /><trkpt lat="47.04664" lon="8.54707" /><trkpt lat="47.04672" lon="8.54703" /><trkpt lat="47.0468" lon="8.54701" /><trkpt lat="47.04688" lon="8.54699" /><trkpt lat="47.04695" lon="8.54698" /><trkpt lat="47.04703" lon="8.54697" /><trkpt lat="47.04713" lon="8.54697" /><trkpt lat="47.04721" lon="8.54698" /><trkpt lat="47.04728" lon="8.547" /><trkpt lat="47.04736" lon="8.54702" /><trkpt lat="47.04742" lon="8.54704" /><trkpt lat="47.04747" lon="8.54707" /><trkpt lat="47.04752" lon="8.54709" /><trkpt lat="47.04756" lon="8.54712" /><trkpt lat="47.04762" lon="8.54716" /><trkpt lat="47.04766" lon="8.54719" /><trkpt lat="47.04772" lon="8.54724" /><trkpt lat="47.04789" lon="8.54738" /><trkpt lat="47.04795" lon="8.54742" /><trkpt lat="47.04802" lon="8.54746" /><trkpt lat="47.04807" lon="8.54748" /><trkpt lat="47.04824" lon="8.54755" /><trkpt lat="47.0484" lon="8.54763" /><trkpt lat="47.04849" lon="8.54766" /><trkpt lat="47.04856" lon="8.54769" /><trkpt lat="47.04864" lon="8.5477" /><trkpt lat="47.04871" lon="8.54771" /><trkpt lat="47.04877" lon="8.54772" /><trkpt lat="47.04877" lon="8.54772" /></trkseg></trk></gpx>