<gpx version="1.1" creator="Trainlog.me"><trk><name>Trip Path</name><trkseg><trkpt lat="46.69365" lon="6.91192" /><trkpt lat="46.69281" lon="6.9105" /><trkpt lat="46.69276" lon="6.91041" /><trkpt lat="46.69208" lon="6.90925" /><trkpt lat="46.69197" lon="6.90907" /><trkpt lat="46.69189" lon="6.90894" /><trkpt lat="46.69181" lon="6.90883" /><trkpt lat="46.69175" lon="6.90874" /><trkpt lat="46.69166" lon="6.90861" /><trkpt lat="46.69156" lon="6.9085" /><trkpt lat="46.69148" lon="6.90839" /><trkpt lat="46.69139" lon="6.90829" /><trkpt lat="46.6912" lon="6.90807" /><trkpt lat="46.69091" lon="6.90774" /><trkpt lat="46.69061" lon="6.90741" /><trkpt lat="46.69046" lon="6.90727" /><trkpt lat="46.69037" lon="6.90719" /><trkpt lat="46.6903" lon="6.90712" /><trkpt lat="46.69024" lon="6.90705" /><trkpt lat="46.69017" lon="6.90698" /><trkpt lat="46.69003" lon="6.90683" /><trkpt lat="46.68997" lon="6.90676" /><trkpt lat="46.68989" lon="6.90669" /><trkpt lat="46.6898" lon="6.90662" /><trkpt lat="46.68974" lon="6.90656" /><trkpt lat="46.68968" lon="6.90651" /><trkpt lat="46.68962" lon="6.90647" /><trkpt lat="46.68957" lon="6.90643" /><trkpt lat="46.68952" lon="6.90639" /><trkpt lat="46.68945" lon="6.90635" /><trkpt lat="46.68933" lon="6.90627" /><trkpt lat="46.6892" lon="6.9062" /><trkpt lat="46.68908" lon="6.90614" /><trkpt lat="46.68901" lon="6.90611" /><trkpt lat="46.68892" lon="6.90608" /><trkpt lat="46.68881" lon="6.90604" /><trkpt lat="46.68873" lon="6.90601" /><trkpt lat="46.68864" lon="6.90598" /><trkpt lat="46.68853" lon="6.90596" /><trkpt lat="46.68846" lon="6.90594" /><trkpt lat="46.68838" lon="6.90593" /><trkpt lat="46.68826" lon="6.90591" /><trkpt lat="46.68813" lon="6.9059" /><trkpt lat="46.68799" lon="6.90589" /><trkpt lat="46.68785" lon="6.90589" /><trkpt lat="46.68771" lon="6.9059" /><trkpt lat="46.68757" lon="6.9059" /><trkpt lat="46.6869" lon="6.90594" /><trkpt lat="46.68629" lon="6.90598" /><trkpt lat="46.68545" lon="6.90603" /><trkpt lat="46.68521" lon="6.90604" /><trkpt lat="46.685" lon="6.90606" /><trkpt lat="46.68478" lon="6.90609" /><trkpt lat="46.68461" lon="6.90613" /><trkpt lat="46.68445" lon="6.90618" /><trkpt lat="46.68437" lon="6.90622" /><trkpt lat="46.68428" lon="6.90626" /><trkpt lat="46.68419" lon="6.90631" /><trkpt lat="46.68411" lon="6.90635" /><trkpt lat="46.68405" lon="6.90639" /><trkpt lat="46.68396" lon="6.90644" /><trkpt lat="46.68388" lon="6.90651" /><trkpt lat="46.68378" lon="6.90659" /><trkpt lat="46.68371" lon="6.90665" /><trkpt lat="46.68364" lon="6.90671" /><trkpt lat="46.68357" lon="6.90679" /><trkpt lat="46.68349" lon="6.90688" /><trkpt lat="46.68338" lon="6.90701" /><trkpt lat="46.68331" lon="6.90709" /><trkpt lat="46.68325" lon="6.90717" /><trkpt lat="46.68318" lon="6.90728" /><trkpt lat="46.68308" lon="6.90744" /><trkpt lat="46.68303" lon="6.90754" /><trkpt lat="46.68298" lon="6.90763" /><trkpt lat="46.68292" lon="6.90775" /><trkpt lat="46.68287" lon="6.90786" /><trkpt lat="46.68281" lon="6.90799" /><trkpt lat="46.68276" lon="6.90813" /><trkpt lat="46.68272" lon="6.90823" /><trkpt lat="46.68268" lon="6.90836" /><trkpt lat="46.68264" lon="6.90851" /><trkpt lat="46.68259" lon="6.90867" /><trkpt lat="46.68256" lon="6.90883" /><trkpt lat="46.68253" lon="6.90895" /><trkpt lat="46.68251" lon="6.90908" /><trkpt lat="46.68249" lon="6.9092" /><trkpt lat="46.68248" lon="6.90931" /><trkpt lat="46.68246" lon="6.90946" /><trkpt lat="46.68245" lon="6.90961" /><trkpt lat="46.68244" lon="6.90975" /><trkpt lat="46.68243" lon="6.90989" /><trkpt lat="46.68243" lon="6.91004" /><trkpt lat="46.68244" lon="6.91023" /><trkpt lat="46.68244" lon="6.9104" /><trkpt lat="46.68246" lon="6.9106" /><trkpt lat="46.68248" lon="6.91075" /><trkpt lat="46.6825" lon="6.91093" /><trkpt lat="46.68252" lon="6.91104" /><trkpt lat="46.68255" lon="6.91117" /><trkpt lat="46.68257" lon="6.91129" /><trkpt lat="46.6826" lon="6.91142" /><trkpt lat="46.68264" lon="6.91154" /><trkpt lat="46.68267" lon="6.91167" /><trkpt lat="46.68272" lon="6.91179" /><trkpt lat="46.68276" lon="6.91191" /><trkpt lat="46.6828" lon="6.91203" /><trkpt lat="46.68285" lon="6.91213" /><trkpt lat="46.68289" lon="6.91223" /><trkpt lat="46.68294" lon="6.91232" /><trkpt lat="46.683" lon="6.91244" /><trkpt lat="46.68306" lon="6.91255" /><trkpt lat="46.68312" lon="6.91264" /><trkpt lat="46.68317" lon="6.91273" /><trkpt lat="46.68326" lon="6.91286" /><trkpt lat="46.68336" lon="6.91299" /><trkpt lat="46.68351" lon="6.91319" /><trkpt lat="46.68366" lon="6.91338" /><trkpt lat="46.68394" lon="6.91373" /><trkpt lat="46.68405" lon="6.91388" /><trkpt lat="46.68412" lon="6.91398" /><trkpt lat="46.68418" lon="6.91407" /><trkpt lat="46.68424" lon="6.91418" /><trkpt lat="46.6843" lon="6.91428" /><trkpt lat="46.68435" lon="6.91437" /><trkpt lat="46.68439" lon="6.91448" /><trkpt lat="46.68444" lon="6.91458" /><trkpt lat="46.68448" lon="6.91468" /><trkpt lat="46.68451" lon="6.91476" /><trkpt lat="46.68455" lon="6.91489" /><trkpt lat="46.68459" lon="6.915" /><trkpt lat="46.68463" lon="6.91514" /><trkpt lat="46.68466" lon="6.91527" /><trkpt lat="46.68468" lon="6.9154" /><trkpt lat="46.6847" lon="6.91551" /><trkpt lat="46.68472" lon="6.91561" /><trkpt lat="46.68473" lon="6.91573" /><trkpt lat="46.68475" lon="6.91587" /><trkpt lat="46.68476" lon="6.91598" /><trkpt lat="46.68476" lon="6.9161" /><trkpt lat="46.68477" lon="6.91623" /><trkpt lat="46.68477" lon="6.91636" /><trkpt lat="46.68477" lon="6.91652" /><trkpt lat="46.68476" lon="6.91667" /><trkpt lat="46.68475" lon="6.91686" /><trkpt lat="46.68473" lon="6.91703" /><trkpt lat="46.68471" lon="6.91716" /><trkpt lat="46.6847" lon="6.91727" /><trkpt lat="46.68466" lon="6.91744" /><trkpt lat="46.68463" lon="6.9176" /><trkpt lat="46.68459" lon="6.91775" /><trkpt lat="46.68456" lon="6.91787" /><trkpt lat="46.68453" lon="6.91796" /><trkpt lat="46.68449" lon="6.91809" /><trkpt lat="46.68445" lon="6.9182" /><trkpt lat="46.68442" lon="6.91829" /><trkpt lat="46.68436" lon="6.91843" /><trkpt lat="46.6843" lon="6.91856" /><trkpt lat="46.68425" lon="6.91867" /><trkpt lat="46.68418" lon="6.9188" /><trkpt lat="46.68411" lon="6.91892" /><trkpt lat="46.68404" lon="6.91904" /><trkpt lat="46.68398" lon="6.91913" /><trkpt lat="46.68391" lon="6.91924" /><trkpt lat="46.68383" lon="6.91933" /><trkpt lat="46.68377" lon="6.91941" /><trkpt lat="46.68371" lon="6.91947" /><trkpt lat="46.68363" lon="6.91956" /><trkpt lat="46.68355" lon="6.91964" /><trkpt lat="46.68347" lon="6.91972" /><trkpt lat="46.68338" lon="6.91979" /><trkpt lat="46.68328" lon="6.91986" /><trkpt lat="46.68321" lon="6.91991" /><trkpt lat="46.68312" lon="6.91997" /><trkpt lat="46.68304" lon="6.92002" /><trkpt lat="46.68295" lon="6.92007" /><trkpt lat="46.68288" lon="6.9201" /><trkpt lat="46.68274" lon="6.92016" /><trkpt lat="46.68264" lon="6.92019" /><trkpt lat="46.68255" lon="6.92022" /><trkpt lat="46.68246" lon="6.92024" /><trkpt lat="46.68238" lon="6.92025" /><trkpt lat="46.68231" lon="6.92026" /><trkpt lat="46.68221" lon="6.92027" /><trkpt lat="46.68212" lon="6.92028" /><trkpt lat="46.682" lon="6.92028" /><trkpt lat="46.68191" lon="6.92027" /><trkpt lat="46.6818" lon="6.92026" /><trkpt lat="46.68171" lon="6.92024" /><trkpt lat="46.68162" lon="6.92022" /><trkpt lat="46.68152" lon="6.92019" /><trkpt lat="46.68143" lon="6.92016" /><trkpt lat="46.68098" lon="6.92" /><trkpt lat="46.68074" lon="6.91993" /><trkpt lat="46.6805" lon="6.91989" /><trkpt lat="46.6802" lon="6.91989" /><trkpt lat="46.67913" lon="6.91992" /><trkpt lat="46.67838" lon="6.91993" /><trkpt lat="46.67807" lon="6.91996" /><trkpt lat="46.67776" lon="6.92002" /><trkpt lat="46.6775" lon="6.92012" /><trkpt lat="46.67723" lon="6.92028" /><trkpt lat="46.67664" lon="6.92065" /><trkpt lat="46.67643" lon="6.92076" /><trkpt lat="46.67616" lon="6.92085" /><trkpt lat="46.67589" lon="6.92091" /><trkpt lat="46.6748" lon="6.92102" /><trkpt lat="46.67445" lon="6.92106" /><trkpt lat="46.67428" lon="6.9211" /><trkpt lat="46.67411" lon="6.92115" /><trkpt lat="46.67393" lon="6.92122" /><trkpt lat="46.67365" lon="6.92137" /><trkpt lat="46.67322" lon="6.92161" /><trkpt lat="46.67289" lon="6.92181" /><trkpt lat="46.67267" lon="6.92192" /><trkpt lat="46.67253" lon="6.92199" /><trkpt lat="46.67237" lon="6.92205" /><trkpt lat="46.67216" lon="6.9221" /><trkpt lat="46.67194" lon="6.92213" /><trkpt lat="46.67171" lon="6.92213" /><trkpt lat="46.67151" lon="6.9221" /><trkpt lat="46.67114" lon="6.92202" /><trkpt lat="46.67064" lon="6.92189" /><trkpt lat="46.67031" lon="6.92181" /><trkpt lat="46.66995" lon="6.92175" /><trkpt lat="46.66863" lon="6.92159" /><trkpt lat="46.66838" lon="6.92156" /><trkpt lat="46.66822" lon="6.92155" /><trkpt lat="46.66797" lon="6.92155" /><trkpt lat="46.66784" lon="6.92157" /><trkpt lat="46.66768" lon="6.92159" /><trkpt lat="46.66749" lon="6.92165" /><trkpt lat="46.66721" lon="6.92175" /><trkpt lat="46.66687" lon="6.9219" /><trkpt lat="46.66666" lon="6.92198" /><trkpt lat="46.66636" lon="6.92208" /><trkpt lat="46.66615" lon="6.92211" /><trkpt lat="46.66606" lon="6.92213" /><trkpt lat="46.66584" lon="6.92213" /><trkpt lat="46.66563" lon="6.9221" /><trkpt lat="46.66544" lon="6.92206" /><trkpt lat="46.66525" lon="6.92199" /><trkpt lat="46.66511" lon="6.92193" /><trkpt lat="46.66493" lon="6.92183" /><trkpt lat="46.66475" lon="6.92172" /><trkpt lat="46.66465" lon="6.92165" /><trkpt lat="46.66304" lon="6.92058" /><trkpt lat="46.66265" lon="6.92032" /><trkpt lat="46.66144" lon="6.91951" /><trkpt lat="46.66128" lon="6.91941" /><trkpt lat="46.66112" lon="6.9193" /><trkpt lat="46.66099" lon="6.91921" /><trkpt lat="46.66088" lon="6.91915" /><trkpt lat="46.66076" lon="6.91908" /><trkpt lat="46.66065" lon="6.91902" /><trkpt lat="46.66053" lon="6.91897" /><trkpt lat="46.66042" lon="6.91892" /><trkpt lat="46.66029" lon="6.91888" /><trkpt lat="46.66019" lon="6.91884" /><trkpt lat="46.66007" lon="6.91882" /><trkpt lat="46.65998" lon="6.9188" /><trkpt lat="46.65989" lon="6.91878" /><trkpt lat="46.65978" lon="6.91877" /><trkpt lat="46.65968" lon="6.91876" /><trkpt lat="46.65957" lon="6.91876" /><trkpt lat="46.65945" lon="6.91876" /><trkpt lat="46.65934" lon="6.91877" /><trkpt lat="46.65923" lon="6.91878" /><trkpt lat="46.6591" lon="6.9188" /><trkpt lat="46.65897" lon="6.91883" /><trkpt lat="46.65873" lon="6.91888" /><trkpt lat="46.65849" lon="6.91894" /><trkpt lat="46.65837" lon="6.91897" /><trkpt lat="46.65825" lon="6.91901" /><trkpt lat="46.65817" lon="6.91903" /><trkpt lat="46.65806" lon="6.91907" /><trkpt lat="46.65795" lon="6.91911" /><trkpt lat="46.65785" lon="6.91916" /><trkpt lat="46.65775" lon="6.91921" /><trkpt lat="46.65766" lon="6.91926" /><trkpt lat="46.65757" lon="6.91931" /><trkpt lat="46.65746" lon="6.91939" /><trkpt lat="46.65735" lon="6.91946" /><trkpt lat="46.65726" lon="6.91954" /><trkpt lat="46.65715" lon="6.91963" /><trkpt lat="46.65707" lon="6.9197" /><trkpt lat="46.65699" lon="6.91979" /><trkpt lat="46.65688" lon="6.9199" /><trkpt lat="46.65677" lon="6.92002" /><trkpt lat="46.65657" lon="6.92026" /><trkpt lat="46.65635" lon="6.92053" /><trkpt lat="46.65616" lon="6.92077" /><trkpt lat="46.65605" lon="6.92092" /><trkpt lat="46.65597" lon="6.92104" /><trkpt lat="46.6559" lon="6.92114" /><trkpt lat="46.65582" lon="6.92127" /><trkpt lat="46.65575" lon="6.92142" /><trkpt lat="46.65568" lon="6.92156" /><trkpt lat="46.65561" lon="6.92169" /><trkpt lat="46.65556" lon="6.92181" /><trkpt lat="46.65551" lon="6.92192" /><trkpt lat="46.65547" lon="6.92203" /><trkpt lat="46.65541" lon="6.9222" /><trkpt lat="46.65536" lon="6.92236" /><trkpt lat="46.65531" lon="6.9225" /><trkpt lat="46.65527" lon="6.92266" /><trkpt lat="46.65523" lon="6.92283" /><trkpt lat="46.65515" lon="6.92315" /><trkpt lat="46.65504" lon="6.9237" /><trkpt lat="46.65502" lon="6.92378" /><trkpt lat="46.6544" lon="6.92671" /><trkpt lat="46.65438" lon="6.92682" /><trkpt lat="46.65424" lon="6.92742" /><trkpt lat="46.65414" lon="6.92774" /><trkpt lat="46.65402" lon="6.92806" /><trkpt lat="46.65391" lon="6.9283" /><trkpt lat="46.65384" lon="6.92845" /><trkpt lat="46.65378" lon="6.92856" /><trkpt lat="46.65362" lon="6.92883" /><trkpt lat="46.65344" lon="6.92909" /><trkpt lat="46.65325" lon="6.92932" /><trkpt lat="46.65322" lon="6.92935" /><trkpt lat="46.65162" lon="6.93108" /><trkpt lat="46.65146" lon="6.93125" /><trkpt lat="46.65143" lon="6.93129" /><trkpt lat="46.65117" lon="6.93156" /><trkpt lat="46.6511" lon="6.93164" /><trkpt lat="46.65099" lon="6.93177" /><trkpt lat="46.65087" lon="6.93189" /><trkpt lat="46.65077" lon="6.932" /><trkpt lat="46.65067" lon="6.93213" /><trkpt lat="46.65057" lon="6.93225" /><trkpt lat="46.65049" lon="6.93235" /><trkpt lat="46.65041" lon="6.93245" /><trkpt lat="46.65033" lon="6.93257" /><trkpt lat="46.65025" lon="6.93269" /><trkpt lat="46.65016" lon="6.93283" /><trkpt lat="46.65009" lon="6.93294" /><trkpt lat="46.65002" lon="6.93308" /><trkpt lat="46.64994" lon="6.93322" /><trkpt lat="46.64987" lon="6.93336" /><trkpt lat="46.64979" lon="6.93352" /><trkpt lat="46.64972" lon="6.93367" /><trkpt lat="46.64967" lon="6.93381" /><trkpt lat="46.64962" lon="6.93394" /><trkpt lat="46.64956" lon="6.93408" /><trkpt lat="46.64951" lon="6.93425" /><trkpt lat="46.64944" lon="6.93445" /><trkpt lat="46.64938" lon="6.93464" /><trkpt lat="46.64933" lon="6.93482" /><trkpt lat="46.64928" lon="6.93501" /><trkpt lat="46.64922" lon="6.93524" /><trkpt lat="46.64917" lon="6.93545" /><trkpt lat="46.64912" lon="6.93568" /><trkpt lat="46.64909" lon="6.93581" /><trkpt lat="46.64907" lon="6.93594" /><trkpt lat="46.64904" lon="6.93608" /><trkpt lat="46.64901" lon="6.93624" /><trkpt lat="46.64898" lon="6.93646" /><trkpt lat="46.64895" lon="6.93671" /><trkpt lat="46.64889" lon="6.93713" /><trkpt lat="46.64852" lon="6.93994" /><trkpt lat="46.64849" lon="6.94019" /><trkpt lat="46.64847" lon="6.9404" /><trkpt lat="46.64846" lon="6.94053" /><trkpt lat="46.64846" lon="6.94067" /><trkpt lat="46.64845" lon="6.94081" /><trkpt lat="46.64846" lon="6.94096" /><trkpt lat="46.64846" lon="6.94109" /><trkpt lat="46.64847" lon="6.94123" /><trkpt lat="46.64848" lon="6.94136" /><trkpt lat="46.6485" lon="6.94149" /><trkpt lat="46.64851" lon="6.94162" /><trkpt lat="46.64854" lon="6.94175" /><trkpt lat="46.64856" lon="6.94188" /><trkpt lat="46.64859" lon="6.942" /><trkpt lat="46.64862" lon="6.94214" /><trkpt lat="46.64866" lon="6.94228" /><trkpt lat="46.64876" lon="6.94268" /><trkpt lat="46.64894" lon="6.94337" /><trkpt lat="46.649" lon="6.94364" /><trkpt lat="46.64904" lon="6.94377" /><trkpt lat="46.64907" lon="6.94392" /><trkpt lat="46.6491" lon="6.9441" /><trkpt lat="46.64913" lon="6.94424" /><trkpt lat="46.64914" lon="6.94437" /><trkpt lat="46.64916" lon="6.94451" /><trkpt lat="46.64917" lon="6.94466" /><trkpt lat="46.64918" lon="6.94479" /><trkpt lat="46.64918" lon="6.9449" /><trkpt lat="46.64918" lon="6.94501" /><trkpt lat="46.64918" lon="6.94514" /><trkpt lat="46.64918" lon="6.94527" /><trkpt lat="46.64917" lon="6.9454" /><trkpt lat="46.64916" lon="6.94553" /><trkpt lat="46.64915" lon="6.94567" /><trkpt lat="46.64913" lon="6.94581" /><trkpt lat="46.6491" lon="6.94598" /><trkpt lat="46.64908" lon="6.94612" /><trkpt lat="46.64905" lon="6.94626" /><trkpt lat="46.64903" lon="6.94639" /><trkpt lat="46.649" lon="6.94652" /><trkpt lat="46.64896" lon="6.94667" /><trkpt lat="46.64892" lon="6.9468" /><trkpt lat="46.64887" lon="6.94696" /><trkpt lat="46.64882" lon="6.9471" /><trkpt lat="46.64878" lon="6.94722" /><trkpt lat="46.64873" lon="6.94734" /><trkpt lat="46.64868" lon="6.94746" /><trkpt lat="46.64863" lon="6.94757" /><trkpt lat="46.64857" lon="6.94768" /><trkpt lat="46.64851" lon="6.9478" /><trkpt lat="46.64844" lon="6.94791" /><trkpt lat="46.64835" lon="6.94804" /><trkpt lat="46.64827" lon="6.94815" /><trkpt lat="46.6482" lon="6.94825" /><trkpt lat="46.6481" lon="6.94837" /><trkpt lat="46.64799" lon="6.9485" /><trkpt lat="46.64787" lon="6.94864" /><trkpt lat="46.64764" lon="6.9489" /><trkpt lat="46.64753" lon="6.94903" /><trkpt lat="46.64743" lon="6.94915" /><trkpt lat="46.64736" lon="6.94924" /><trkpt lat="46.64727" lon="6.94935" /><trkpt lat="46.6472" lon="6.94946" /><trkpt lat="46.64714" lon="6.94955" /><trkpt lat="46.64708" lon="6.94963" /><trkpt lat="46.64704" lon="6.94971" /><trkpt lat="46.64697" lon="6.94985" /><trkpt lat="46.64692" lon="6.94995" /><trkpt lat="46.64686" lon="6.95007" /><trkpt lat="46.6468" lon="6.95021" /><trkpt lat="46.64676" lon="6.95032" /><trkpt lat="46.64671" lon="6.95046" /><trkpt lat="46.64667" lon="6.95059" /><trkpt lat="46.64663" lon="6.95071" /><trkpt lat="46.6466" lon="6.95084" /><trkpt lat="46.64656" lon="6.95098" /><trkpt lat="46.64653" lon="6.95111" /><trkpt lat="46.6465" lon="6.95126" /><trkpt lat="46.64647" lon="6.95145" /><trkpt lat="46.64626" lon="6.95259" /><trkpt lat="46.64623" lon="6.95275" /><trkpt lat="46.6462" lon="6.9529" /><trkpt lat="46.64616" lon="6.95304" /><trkpt lat="46.64613" lon="6.95319" /><trkpt lat="46.64609" lon="6.95334" /><trkpt lat="46.64605" lon="6.95348" /><trkpt lat="46.646" lon="6.95361" /><trkpt lat="46.64595" lon="6.95376" /><trkpt lat="46.6459" lon="6.95393" /><trkpt lat="46.6458" lon="6.9542" /><trkpt lat="46.64572" lon="6.95445" /><trkpt lat="46.64567" lon="6.95459" /><trkpt lat="46.64562" lon="6.95473" /><trkpt lat="46.64558" lon="6.95488" /><trkpt lat="46.64555" lon="6.95501" /><trkpt lat="46.64552" lon="6.95513" /><trkpt lat="46.64549" lon="6.95525" /><trkpt lat="46.64547" lon="6.95536" /><trkpt lat="46.64545" lon="6.95545" /><trkpt lat="46.64543" lon="6.95559" /><trkpt lat="46.64542" lon="6.95572" /><trkpt lat="46.6454" lon="6.95586" /><trkpt lat="46.64539" lon="6.95601" /><trkpt lat="46.64538" lon="6.95618" /><trkpt lat="46.64537" lon="6.95636" /><trkpt lat="46.64535" lon="6.9568" /><trkpt lat="46.64534" lon="6.95702" /><trkpt lat="46.64532" lon="6.95718" /><trkpt lat="46.64531" lon="6.95736" /><trkpt lat="46.64529" lon="6.95749" /><trkpt lat="46.64527" lon="6.95761" /><trkpt lat="46.64525" lon="6.95774" /><trkpt lat="46.64522" lon="6.95788" /><trkpt lat="46.64519" lon="6.95801" /><trkpt lat="46.64516" lon="6.95813" /><trkpt lat="46.64513" lon="6.95824" /><trkpt lat="46.64509" lon="6.95838" /><trkpt lat="46.64505" lon="6.9585" /><trkpt lat="46.645" lon="6.95863" /><trkpt lat="46.64496" lon="6.95874" /><trkpt lat="46.64488" lon="6.95892" /><trkpt lat="46.6448" lon="6.95907" /><trkpt lat="46.64472" lon="6.95924" /><trkpt lat="46.6446" lon="6.95949" /><trkpt lat="46.64429" lon="6.9601" /><trkpt lat="46.64412" lon="6.96045" /><trkpt lat="46.64404" lon="6.96062" /><trkpt lat="46.64396" lon="6.96078" /><trkpt lat="46.6439" lon="6.96092" /><trkpt lat="46.64384" lon="6.96108" /><trkpt lat="46.64379" lon="6.96122" /><trkpt lat="46.64375" lon="6.96136" /><trkpt lat="46.64371" lon="6.9615" /><trkpt lat="46.64368" lon="6.96164" /><trkpt lat="46.64365" lon="6.96176" /><trkpt lat="46.64362" lon="6.96192" /><trkpt lat="46.64359" lon="6.96207" /><trkpt lat="46.64357" lon="6.96218" /><trkpt lat="46.64356" lon="6.96228" /><trkpt lat="46.64354" lon="6.96241" /><trkpt lat="46.64353" lon="6.96256" /><trkpt lat="46.64351" lon="6.96268" /><trkpt lat="46.64351" lon="6.9628" /><trkpt lat="46.6435" lon="6.96292" /><trkpt lat="46.64349" lon="6.96304" /><trkpt lat="46.64349" lon="6.96316" /><trkpt lat="46.64349" lon="6.96326" /><trkpt lat="46.64349" lon="6.96341" /><trkpt lat="46.64349" lon="6.96353" /><trkpt lat="46.6435" lon="6.96368" /><trkpt lat="46.64351" lon="6.9638" /><trkpt lat="46.64352" lon="6.96394" /><trkpt lat="46.64354" lon="6.96405" /><trkpt lat="46.64356" lon="6.96418" /><trkpt lat="46.64358" lon="6.96431" /><trkpt lat="46.64361" lon="6.96443" /><trkpt lat="46.64363" lon="6.96457" /><trkpt lat="46.64377" lon="6.96519" /><trkpt lat="46.64381" lon="6.9654" /><trkpt lat="46.64385" lon="6.96559" /><trkpt lat="46.64386" lon="6.96567" /><trkpt lat="46.64388" lon="6.96577" /><trkpt lat="46.6439" lon="6.96591" /><trkpt lat="46.64392" lon="6.96607" /><trkpt lat="46.64393" lon="6.96617" /><trkpt lat="46.64393" lon="6.96628" /><trkpt lat="46.64394" lon="6.9664" /><trkpt lat="46.64395" lon="6.96655" /><trkpt lat="46.64395" lon="6.96669" /><trkpt lat="46.64395" lon="6.96683" /><trkpt lat="46.64395" lon="6.96696" /><trkpt lat="46.64394" lon="6.96708" /><trkpt lat="46.64393" lon="6.96722" /><trkpt lat="46.64392" lon="6.96735" /><trkpt lat="46.64391" lon="6.96749" /><trkpt lat="46.64389" lon="6.96762" /><trkpt lat="46.64387" lon="6.96776" /><trkpt lat="46.64385" lon="6.96789" /><trkpt lat="46.64383" lon="6.96801" /><trkpt lat="46.6438" lon="6.96814" /><trkpt lat="46.64377" lon="6.96829" /><trkpt lat="46.64373" lon="6.96845" /><trkpt lat="46.64369" lon="6.96859" /><trkpt lat="46.64365" lon="6.96871" /><trkpt lat="46.64361" lon="6.96883" /><trkpt lat="46.64356" lon="6.96897" /><trkpt lat="46.6435" lon="6.96912" /><trkpt lat="46.64344" lon="6.96925" /><trkpt lat="46.64339" lon="6.96937" /><trkpt lat="46.64333" lon="6.96949" /><trkpt lat="46.64326" lon="6.96963" /><trkpt lat="46.64324" lon="6.96966" /><trkpt lat="46.64317" lon="6.96978" /><trkpt lat="46.64308" lon="6.96994" /><trkpt lat="46.64299" lon="6.97007" /><trkpt lat="46.6422" lon="6.97128" /><trkpt lat="46.64166" lon="6.97211" /><trkpt lat="46.64111" lon="6.97294" /><trkpt lat="46.64057" lon="6.97377" /><trkpt lat="46.64042" lon="6.974" /><trkpt lat="46.64018" lon="6.97436" /><trkpt lat="46.63998" lon="6.97465" /><trkpt lat="46.63993" lon="6.97472" /><trkpt lat="46.63972" lon="6.97504" /><trkpt lat="46.63949" lon="6.97537" /><trkpt lat="46.63942" lon="6.97547" /><trkpt lat="46.63934" lon="6.97558" /><trkpt lat="46.63926" lon="6.97568" /><trkpt lat="46.6392" lon="6.97574" /><trkpt lat="46.63915" lon="6.97581" /><trkpt lat="46.63903" lon="6.97594" /><trkpt lat="46.63896" lon="6.97601" /><trkpt lat="46.63889" lon="6.9761" /><trkpt lat="46.63872" lon="6.97627" /><trkpt lat="46.63856" lon="6.97644" /><trkpt lat="46.63845" lon="6.97657" /><trkpt lat="46.63837" lon="6.97666" /><trkpt lat="46.63829" lon="6.97675" /><trkpt lat="46.63818" lon="6.97688" /><trkpt lat="46.63808" lon="6.97701" /><trkpt lat="46.63799" lon="6.97712" /><trkpt lat="46.63791" lon="6.97722" /><trkpt lat="46.63605" lon="6.97958" /><trkpt lat="46.63594" lon="6.97972" /><trkpt lat="46.63584" lon="6.97983" /><trkpt lat="46.63576" lon="6.97993" /><trkpt lat="46.63569" lon="6.98001" /><trkpt lat="46.63562" lon="6.98009" /><trkpt lat="46.63553" lon="6.98018" /><trkpt lat="46.63543" lon="6.98026" /><trkpt lat="46.63536" lon="6.98032" /><trkpt lat="46.63528" lon="6.98038" /><trkpt lat="46.63519" lon="6.98045" /><trkpt lat="46.63509" lon="6.98051" /><trkpt lat="46.63499" lon="6.98057" /><trkpt lat="46.63491" lon="6.98061" /><trkpt lat="46.63484" lon="6.98064" /><trkpt lat="46.63474" lon="6.98068" /><trkpt lat="46.63467" lon="6.9807" /><trkpt lat="46.63456" lon="6.98073" /><trkpt lat="46.63449" lon="6.98075" /><trkpt lat="46.63439" lon="6.98077" /><trkpt lat="46.63433" lon="6.98078" /><trkpt lat="46.63424" lon="6.98079" /><trkpt lat="46.63416" lon="6.98079" /><trkpt lat="46.63406" lon="6.9808" /><trkpt lat="46.6339" lon="6.9808" /><trkpt lat="46.63371" lon="6.98079" /><trkpt lat="46.63288" lon="6.98077" /><trkpt lat="46.63179" lon="6.98073" /><trkpt lat="46.63053" lon="6.98069" /><trkpt lat="46.63042" lon="6.98069" /><trkpt lat="46.63032" lon="6.98069" /><trkpt lat="46.63022" lon="6.98069" /><trkpt lat="46.63013" lon="6.98069" /><trkpt lat="46.63003" lon="6.9807" /><trkpt lat="46.62994" lon="6.98071" /><trkpt lat="46.62986" lon="6.98072" /><trkpt lat="46.62978" lon="6.98073" /><trkpt lat="46.62971" lon="6.98075" /><trkpt lat="46.62964" lon="6.98076" /><trkpt lat="46.62957" lon="6.98079" /><trkpt lat="46.62949" lon="6.98082" /><trkpt lat="46.6294" lon="6.98085" /><trkpt lat="46.62932" lon="6.98089" /><trkpt lat="46.62924" lon="6.98093" /><trkpt lat="46.62918" lon="6.98096" /><trkpt lat="46.62913" lon="6.98099" /><trkpt lat="46.62907" lon="6.98103" /><trkpt lat="46.62901" lon="6.98107" /><trkpt lat="46.62899" lon="6.98108" /><trkpt lat="46.62897" lon="6.9811" /><trkpt lat="46.62892" lon="6.98113" /><trkpt lat="46.62887" lon="6.98118" /><trkpt lat="46.62879" lon="6.98123" /><trkpt lat="46.62872" lon="6.9813" /><trkpt lat="46.62865" lon="6.98136" /><trkpt lat="46.62858" lon="6.98144" /><trkpt lat="46.62851" lon="6.98151" /><trkpt lat="46.62843" lon="6.98158" /><trkpt lat="46.62834" lon="6.98169" /><trkpt lat="46.62731" lon="6.9828" /><trkpt lat="46.62704" lon="6.98309" /><trkpt lat="46.62627" lon="6.98393" /><trkpt lat="46.625" lon="6.9853" /><trkpt lat="46.62483" lon="6.98548" /><trkpt lat="46.62467" lon="6.98566" /><trkpt lat="46.62451" lon="6.98585" /><trkpt lat="46.62443" lon="6.98596" /><trkpt lat="46.62437" lon="6.98605" /><trkpt lat="46.62424" lon="6.98624" /><trkpt lat="46.62416" lon="6.98637" /><trkpt lat="46.62406" lon="6.98653" /><trkpt lat="46.62398" lon="6.98669" /><trkpt lat="46.62393" lon="6.98678" /><trkpt lat="46.62389" lon="6.98687" /><trkpt lat="46.62381" lon="6.98704" /><trkpt lat="46.62374" lon="6.98724" /><trkpt lat="46.6237" lon="6.98736" /><trkpt lat="46.62367" lon="6.98746" /><trkpt lat="46.62364" lon="6.98756" /><trkpt lat="46.6236" lon="6.9877" /><trkpt lat="46.62358" lon="6.98781" /><trkpt lat="46.62356" lon="6.98793" /><trkpt lat="46.62353" lon="6.98806" /><trkpt lat="46.62352" lon="6.98817" /><trkpt lat="46.62351" lon="6.98828" /><trkpt lat="46.6235" lon="6.98843" /><trkpt lat="46.62349" lon="6.98856" /><trkpt lat="46.62349" lon="6.9887" /><trkpt lat="46.62349" lon="6.98884" /><trkpt lat="46.62349" lon="6.98896" /><trkpt lat="46.6235" lon="6.98909" /><trkpt lat="46.62352" lon="6.98924" /><trkpt lat="46.62354" lon="6.98941" /><trkpt lat="46.62357" lon="6.98961" /><trkpt lat="46.62358" lon="6.98971" /><trkpt lat="46.6236" lon="6.98977" /><trkpt lat="46.62366" lon="6.99013" /><trkpt lat="46.6237" lon="6.99029" /><trkpt lat="46.62371" lon="6.99036" /><trkpt lat="46.62373" lon="6.99043" /><trkpt lat="46.62391" lon="6.99123" /><trkpt lat="46.62395" lon="6.9914" /><trkpt lat="46.62397" lon="6.99153" /><trkpt lat="46.62399" lon="6.99164" /><trkpt lat="46.62401" lon="6.99176" /><trkpt lat="46.62404" lon="6.99194" /><trkpt lat="46.62405" lon="6.99208" /><trkpt lat="46.62407" lon="6.99222" /><trkpt lat="46.62407" lon="6.9923" /><trkpt lat="46.62408" lon="6.99239" /><trkpt lat="46.62408" lon="6.99245" /><trkpt lat="46.62408" lon="6.99251" /><trkpt lat="46.62409" lon="6.99264" /><trkpt lat="46.62409" lon="6.99279" /><trkpt lat="46.6241" lon="6.99312" /><trkpt lat="46.62411" lon="6.99334" /><trkpt lat="46.62412" lon="6.99345" /><trkpt lat="46.62413" lon="6.99354" /><trkpt lat="46.62414" lon="6.99364" /><trkpt lat="46.62416" lon="6.99375" /><trkpt lat="46.62417" lon="6.99384" /><trkpt lat="46.62419" lon="6.99395" /><trkpt lat="46.62421" lon="6.99404" /><trkpt lat="46.62423" lon="6.99414" /><trkpt lat="46.62425" lon="6.99422" /><trkpt lat="46.62428" lon="6.99434" /><trkpt lat="46.62431" lon="6.99444" /><trkpt lat="46.62435" lon="6.99454" /><trkpt lat="46.62438" lon="6.99464" /><trkpt lat="46.62443" lon="6.99474" /><trkpt lat="46.62449" lon="6.99488" /><trkpt lat="46.62453" lon="6.99497" /><trkpt lat="46.62458" lon="6.99507" /><trkpt lat="46.62471" lon="6.99531" /><trkpt lat="46.62475" lon="6.99538" /><trkpt lat="46.6254" lon="6.99656" /><trkpt lat="46.62547" lon="6.9967" /><trkpt lat="46.62555" lon="6.99685" /><trkpt lat="46.62562" lon="6.99699" /><trkpt lat="46.62568" lon="6.99712" /><trkpt lat="46.62574" lon="6.99726" /><trkpt lat="46.62579" lon="6.9974" /><trkpt lat="46.62583" lon="6.99754" /><trkpt lat="46.62588" lon="6.99769" /><trkpt lat="46.62591" lon="6.99782" /><trkpt lat="46.62594" lon="6.99797" /><trkpt lat="46.62597" lon="6.99812" /><trkpt lat="46.62599" lon="6.99824" /><trkpt lat="46.626" lon="6.99832" /><trkpt lat="46.62602" lon="6.99848" /><trkpt lat="46.62603" lon="6.99861" /><trkpt lat="46.62604" lon="6.99876" /><trkpt lat="46.62605" lon="6.9989" /><trkpt lat="46.62605" lon="6.99904" /><trkpt lat="46.62605" lon="6.99917" /><trkpt lat="46.62604" lon="6.99933" /><trkpt lat="46.62603" lon="6.99945" /><trkpt lat="46.62602" lon="6.99959" /><trkpt lat="46.62601" lon="6.99973" /><trkpt lat="46.62599" lon="6.99988" /><trkpt lat="46.62596" lon="7.00005" /><trkpt lat="46.62593" lon="7.00022" /><trkpt lat="46.62569" lon="7.00145" /><trkpt lat="46.62567" lon="7.0016" /><trkpt lat="46.62564" lon="7.00174" /><trkpt lat="46.62561" lon="7.00198" /><trkpt lat="46.62559" lon="7.00213" /><trkpt lat="46.62558" lon="7.00227" /><trkpt lat="46.62557" lon="7.00242" /><trkpt lat="46.62556" lon="7.00257" /><trkpt lat="46.62555" lon="7.0027" /><trkpt lat="46.62554" lon="7.00284" /><trkpt lat="46.62554" lon="7.00299" /><trkpt lat="46.62554" lon="7.00313" /><trkpt lat="46.62554" lon="7.00328" /><trkpt lat="46.62554" lon="7.00341" /><trkpt lat="46.62554" lon="7.00355" /><trkpt lat="46.62555" lon="7.0037" /><trkpt lat="46.62556" lon="7.00391" /><trkpt lat="46.62558" lon="7.0043" /><trkpt lat="46.62559" lon="7.00448" /><trkpt lat="46.62559" lon="7.0046" /><trkpt lat="46.62559" lon="7.00475" /><trkpt lat="46.62559" lon="7.00489" /><trkpt lat="46.62559" lon="7.00504" /><trkpt lat="46.62558" lon="7.00519" /><trkpt lat="46.62557" lon="7.00532" /><trkpt lat="46.62556" lon="7.00546" /><trkpt lat="46.62555" lon="7.00558" /><trkpt lat="46.6255" lon="7.006" /><trkpt lat="46.62547" lon="7.00626" /><trkpt lat="46.62546" lon="7.00645" /><trkpt lat="46.62544" lon="7.00665" /><trkpt lat="46.62542" lon="7.00685" /><trkpt lat="46.62541" lon="7.00706" /><trkpt lat="46.6254" lon="7.00725" /><trkpt lat="46.62539" lon="7.00745" /><trkpt lat="46.62538" lon="7.00766" /><trkpt lat="46.62538" lon="7.00786" /><trkpt lat="46.62538" lon="7.00806" /><trkpt lat="46.62538" lon="7.00824" /><trkpt lat="46.62538" lon="7.00847" /><trkpt lat="46.62539" lon="7.00863" /><trkpt lat="46.6254" lon="7.00882" /><trkpt lat="46.62541" lon="7.00902" /><trkpt lat="46.62542" lon="7.00922" /><trkpt lat="46.62543" lon="7.00943" /><trkpt lat="46.62545" lon="7.00964" /><trkpt lat="46.62559" lon="7.01157" /><trkpt lat="46.6256" lon="7.01177" /><trkpt lat="46.62561" lon="7.01194" /><trkpt lat="46.62561" lon="7.01211" /><trkpt lat="46.62561" lon="7.01227" /><trkpt lat="46.62561" lon="7.01243" /><trkpt lat="46.6256" lon="7.01258" /><trkpt lat="46.62559" lon="7.01275" /><trkpt lat="46.62557" lon="7.01313" /><trkpt lat="46.62556" lon="7.01333" /><trkpt lat="46.62556" lon="7.01346" /><trkpt lat="46.62555" lon="7.01357" /><trkpt lat="46.62555" lon="7.01369" /><trkpt lat="46.62556" lon="7.0138" /><trkpt lat="46.62556" lon="7.01392" /><trkpt lat="46.62557" lon="7.01405" /><trkpt lat="46.62558" lon="7.01417" /><trkpt lat="46.62559" lon="7.01429" /><trkpt lat="46.62561" lon="7.01442" /><trkpt lat="46.62563" lon="7.01456" /><trkpt lat="46.62565" lon="7.0147" /><trkpt lat="46.62571" lon="7.01511" /><trkpt lat="46.62574" lon="7.0153" /><trkpt lat="46.62575" lon="7.01545" /><trkpt lat="46.62577" lon="7.01558" /><trkpt lat="46.62578" lon="7.01571" /><trkpt lat="46.62579" lon="7.01586" /><trkpt lat="46.6258" lon="7.016" /><trkpt lat="46.62581" lon="7.01615" /><trkpt lat="46.62586" lon="7.01694" /><trkpt lat="46.62587" lon="7.01708" /><trkpt lat="46.62588" lon="7.01719" /><trkpt lat="46.6259" lon="7.01735" /><trkpt lat="46.62592" lon="7.01749" /><trkpt lat="46.62594" lon="7.01763" /><trkpt lat="46.62596" lon="7.01771" /><trkpt lat="46.62599" lon="7.01786" /><trkpt lat="46.62602" lon="7.018" /><trkpt lat="46.62605" lon="7.01814" /><trkpt lat="46.62609" lon="7.01832" /><trkpt lat="46.62614" lon="7.01855" /><trkpt lat="46.6262" lon="7.01878" /><trkpt lat="46.6263" lon="7.0192" /><trkpt lat="46.62634" lon="7.0194" /><trkpt lat="46.62638" lon="7.01954" /><trkpt lat="46.62641" lon="7.01972" /><trkpt lat="46.62644" lon="7.01988" /><trkpt lat="46.62647" lon="7.02003" /><trkpt lat="46.62649" lon="7.02017" /><trkpt lat="46.6265" lon="7.02029" /><trkpt lat="46.62652" lon="7.02042" /><trkpt lat="46.62653" lon="7.02057" /><trkpt lat="46.62654" lon="7.02071" /><trkpt lat="46.62666" lon="7.02275" /><trkpt lat="46.62667" lon="7.02291" /><trkpt lat="46.62669" lon="7.02322" /><trkpt lat="46.6267" lon="7.02341" /><trkpt lat="46.62671" lon="7.02354" /><trkpt lat="46.62672" lon="7.02367" /><trkpt lat="46.62674" lon="7.02381" /><trkpt lat="46.62676" lon="7.02397" /><trkpt lat="46.62678" lon="7.0241" /><trkpt lat="46.6268" lon="7.02423" /><trkpt lat="46.62683" lon="7.02438" /><trkpt lat="46.62685" lon="7.02452" /><trkpt lat="46.62688" lon="7.0247" /><trkpt lat="46.62691" lon="7.02485" /><trkpt lat="46.62693" lon="7.02499" /><trkpt lat="46.62694" lon="7.02509" /><trkpt lat="46.62696" lon="7.02522" /><trkpt lat="46.62697" lon="7.02534" /><trkpt lat="46.62698" lon="7.02544" /><trkpt lat="46.62698" lon="7.02553" /><trkpt lat="46.62699" lon="7.02563" /><trkpt lat="46.62699" lon="7.02568" /><trkpt lat="46.62699" lon="7.02574" /><trkpt lat="46.62699" lon="7.02586" /><trkpt lat="46.62698" lon="7.02597" /><trkpt lat="46.62698" lon="7.02607" /><trkpt lat="46.62697" lon="7.02618" /><trkpt lat="46.62696" lon="7.02628" /><trkpt lat="46.62694" lon="7.02641" /><trkpt lat="46.62692" lon="7.02653" /><trkpt lat="46.6269" lon="7.02665" /><trkpt lat="46.62687" lon="7.02678" /><trkpt lat="46.62684" lon="7.0269" /><trkpt lat="46.62681" lon="7.02702" /><trkpt lat="46.62676" lon="7.02721" /><trkpt lat="46.62666" lon="7.02754" /><trkpt lat="46.62553" lon="7.03124" /><trkpt lat="46.62522" lon="7.03226" /><trkpt lat="46.62494" lon="7.03317" /><trkpt lat="46.62474" lon="7.03384" /><trkpt lat="46.62471" lon="7.03394" /><trkpt lat="46.62465" lon="7.03411" /><trkpt lat="46.62452" lon="7.03456" /><trkpt lat="46.62419" lon="7.03564" /><trkpt lat="46.62402" lon="7.03618" /><trkpt lat="46.62386" lon="7.03672" /><trkpt lat="46.62354" lon="7.03781" /><trkpt lat="46.62322" lon="7.0389" /><trkpt lat="46.62314" lon="7.03919" /><trkpt lat="46.62238" lon="7.04176" /><trkpt lat="46.6223" lon="7.04207" /><trkpt lat="46.62225" lon="7.04226" /><trkpt lat="46.62221" lon="7.04242" /><trkpt lat="46.62218" lon="7.04255" /><trkpt lat="46.62214" lon="7.04271" /><trkpt lat="46.62211" lon="7.04287" /><trkpt lat="46.62207" lon="7.0431" /><trkpt lat="46.62203" lon="7.04328" /><trkpt lat="46.62201" lon="7.04342" /><trkpt lat="46.62201" lon="7.04344" /><trkpt lat="46.62198" lon="7.04359" /><trkpt lat="46.62195" lon="7.04378" /><trkpt lat="46.62193" lon="7.04396" /><trkpt lat="46.62187" lon="7.04438" /><trkpt lat="46.6218" lon="7.04487" /><trkpt lat="46.62178" lon="7.04504" /><trkpt lat="46.62175" lon="7.04521" /><trkpt lat="46.62173" lon="7.04536" /><trkpt lat="46.62171" lon="7.04549" /><trkpt lat="46.62167" lon="7.04574" /><trkpt lat="46.62164" lon="7.04589" /><trkpt lat="46.6216" lon="7.04606" /><trkpt lat="46.62155" lon="7.04628" /><trkpt lat="46.62134" lon="7.04731" /><trkpt lat="46.62125" lon="7.04774" /><trkpt lat="46.62116" lon="7.04812" /><trkpt lat="46.62113" lon="7.04827" /><trkpt lat="46.62109" lon="7.04842" /><trkpt lat="46.62105" lon="7.04861" /><trkpt lat="46.62101" lon="7.04876" /><trkpt lat="46.62097" lon="7.0489" /><trkpt lat="46.62093" lon="7.04904" /><trkpt lat="46.62088" lon="7.04917" /><trkpt lat="46.62084" lon="7.04931" /><trkpt lat="46.62079" lon="7.04944" /><trkpt lat="46.62074" lon="7.04957" /><trkpt lat="46.62064" lon="7.04981" /><trkpt lat="46.62055" lon="7.05003" /><trkpt lat="46.62049" lon="7.05016" /><trkpt lat="46.62043" lon="7.05028" /><trkpt lat="46.62036" lon="7.05043" /><trkpt lat="46.6203" lon="7.05055" /><trkpt lat="46.62024" lon="7.05068" /><trkpt lat="46.62015" lon="7.05085" /><trkpt lat="46.62011" lon="7.05094" /><trkpt lat="46.62007" lon="7.05104" /><trkpt lat="46.62002" lon="7.05114" /><trkpt lat="46.61995" lon="7.0513" /><trkpt lat="46.61994" lon="7.05135" /><trkpt lat="46.6199" lon="7.05145" /><trkpt lat="46.61984" lon="7.0516" /><trkpt lat="46.61975" lon="7.05187" /><trkpt lat="46.61968" lon="7.05207" /><trkpt lat="46.61962" lon="7.05226" /><trkpt lat="46.61955" lon="7.05245" /><trkpt lat="46.61932" lon="7.05308" /><trkpt lat="46.61929" lon="7.05314" /><trkpt lat="46.61921" lon="7.05334" /><trkpt lat="46.61915" lon="7.05348" /><trkpt lat="46.6191" lon="7.05358" /><trkpt lat="46.61909" lon="7.05362" /><trkpt lat="46.61906" lon="7.05367" /><trkpt lat="46.61903" lon="7.05372" /><trkpt lat="46.61897" lon="7.05383" /><trkpt lat="46.61892" lon="7.05394" /><trkpt lat="46.61884" lon="7.05405" /><trkpt lat="46.61878" lon="7.05416" /><trkpt lat="46.61871" lon="7.05425" /><trkpt lat="46.61865" lon="7.05432" /><trkpt lat="46.61859" lon="7.05439" /><trkpt lat="46.61851" lon="7.05446" /><trkpt lat="46.61846" lon="7.05451" /><trkpt lat="46.61842" lon="7.05455" /><trkpt lat="46.61837" lon="7.05459" /><trkpt lat="46.61832" lon="7.05463" /><trkpt lat="46.61821" lon="7.0547" /><trkpt lat="46.61814" lon="7.05474" /><trkpt lat="46.61808" lon="7.05477" /><trkpt lat="46.61803" lon="7.0548" /><trkpt lat="46.61799" lon="7.05482" /><trkpt lat="46.61794" lon="7.05484" /><trkpt lat="46.61781" lon="7.05489" /><trkpt lat="46.61773" lon="7.05492" /><trkpt lat="46.61765" lon="7.05495" /><trkpt lat="46.6176" lon="7.05496" /><trkpt lat="46.61754" lon="7.05497" /><trkpt lat="46.61747" lon="7.05499" /><trkpt lat="46.6174" lon="7.055" /><trkpt lat="46.61732" lon="7.05501" /><trkpt lat="46.61725" lon="7.05501" /><trkpt lat="46.61717" lon="7.05502" /><trkpt lat="46.6171" lon="7.05501" /><trkpt lat="46.61704" lon="7.05501" /><trkpt lat="46.61695" lon="7.05501" /><trkpt lat="46.61682" lon="7.055" /><trkpt lat="46.61673" lon="7.05499" /><trkpt lat="46.6166" lon="7.05499" /><trkpt lat="46.61648" lon="7.055" /><trkpt lat="46.61637" lon="7.05501" /><trkpt lat="46.61631" lon="7.05502" /><trkpt lat="46.61625" lon="7.05503" /><trkpt lat="46.61621" lon="7.05504" /><trkpt lat="46.61616" lon="7.05505" /><trkpt lat="46.61609" lon="7.05507" /><trkpt lat="46.61605" lon="7.05508" /><trkpt lat="46.616" lon="7.0551" /><trkpt lat="46.61595" lon="7.05512" /><trkpt lat="46.61591" lon="7.05514" /><trkpt lat="46.61586" lon="7.05516" /><trkpt lat="46.61583" lon="7.05517" /><trkpt lat="46.61578" lon="7.0552" /><trkpt lat="46.61573" lon="7.05522" /><trkpt lat="46.61569" lon="7.05524" /><trkpt lat="46.61565" lon="7.05527" /><trkpt lat="46.6156" lon="7.0553" /><trkpt lat="46.61557" lon="7.05532" /><trkpt lat="46.61553" lon="7.05534" /><trkpt lat="46.61549" lon="7.05538" /><trkpt lat="46.61547" lon="7.05539" /><trkpt lat="46.61543" lon="7.05542" /><trkpt lat="46.61539" lon="7.05546" /><trkpt lat="46.61535" lon="7.05549" /><trkpt lat="46.61532" lon="7.05552" /><trkpt lat="46.61529" lon="7.05555" /><trkpt lat="46.61526" lon="7.05558" /><trkpt lat="46.61522" lon="7.05562" /><trkpt lat="46.61475" lon="7.05612" /><trkpt lat="46.61472" lon="7.05616" /><trkpt lat="46.6147" lon="7.05618" /><trkpt lat="46.61468" lon="7.0562" /><trkpt lat="46.61463" lon="7.05626" /><trkpt lat="46.61455" lon="7.05634" /><trkpt lat="46.6145" lon="7.05639" /><trkpt lat="46.61449" lon="7.0564" /><trkpt lat="46.6144" lon="7.05648" /><trkpt lat="46.61435" lon="7.05653" /><trkpt lat="46.61433" lon="7.05654" /><trkpt lat="46.61432" lon="7.05655" /><trkpt lat="46.61429" lon="7.05658" /><trkpt lat="46.61427" lon="7.0566" /><trkpt lat="46.61422" lon="7.05663" /><trkpt lat="46.61417" lon="7.05667" /><trkpt lat="46.6141" lon="7.05673" /><trkpt lat="46.61395" lon="7.05683" /><trkpt lat="46.61379" lon="7.05695" /><trkpt lat="46.61365" lon="7.05705" /><trkpt lat="46.61357" lon="7.0571" /><trkpt lat="46.6135" lon="7.05716" /><trkpt lat="46.61342" lon="7.05721" /><trkpt lat="46.61334" lon="7.05726" /><trkpt lat="46.61324" lon="7.05734" /><trkpt lat="46.61295" lon="7.05754" /><trkpt lat="46.6129" lon="7.05758" /><trkpt lat="46.61286" lon="7.0576" /><trkpt lat="46.61282" lon="7.05763" /><trkpt lat="46.61252" lon="7.05785" /><trkpt lat="46.61203" lon="7.05819" /><trkpt lat="46.61148" lon="7.05857" /><trkpt lat="46.61087" lon="7.05901" /><trkpt lat="46.61083" lon="7.05904" /><trkpt lat="46.6108" lon="7.05905" /><trkpt lat="46.61032" lon="7.05939" /><trkpt lat="46.60826" lon="7.06083" /><trkpt lat="46.60731" lon="7.0615" /><trkpt lat="46.60717" lon="7.06158" /><trkpt lat="46.60713" lon="7.06159" /><trkpt lat="46.60701" lon="7.06163" /><trkpt lat="46.60694" lon="7.06165" /><trkpt lat="46.60681" lon="7.06166" /><trkpt lat="46.60671" lon="7.06166" /><trkpt lat="46.6066" lon="7.06165" /><trkpt lat="46.60653" lon="7.06163" /><trkpt lat="46.60651" lon="7.06162" /><trkpt lat="46.60639" lon="7.06158" /><trkpt lat="46.60626" lon="7.06152" /><trkpt lat="46.60577" lon="7.06127" /><trkpt lat="46.60522" lon="7.061" /><trkpt lat="46.60498" lon="7.06088" /><trkpt lat="46.60474" lon="7.06077" /><trkpt lat="46.60366" lon="7.06038" /><trkpt lat="46.60339" lon="7.06029" /><trkpt lat="46.60315" lon="7.0602" /><trkpt lat="46.60236" lon="7.05995" /><trkpt lat="46.60142" lon="7.05968" /><trkpt lat="46.60128" lon="7.05964" /><trkpt lat="46.60115" lon="7.05961" /><trkpt lat="46.60029" lon="7.05941" /><trkpt lat="46.59953" lon="7.05923" /><trkpt lat="46.59934" lon="7.05919" /><trkpt lat="46.59916" lon="7.05915" /><trkpt lat="46.59903" lon="7.05913" /><trkpt lat="46.59891" lon="7.05911" /><trkpt lat="46.59878" lon="7.0591" /><trkpt lat="46.59865" lon="7.05908" /><trkpt lat="46.59849" lon="7.05907" /><trkpt lat="46.59839" lon="7.05906" /><trkpt lat="46.59821" lon="7.05906" /><trkpt lat="46.59805" lon="7.05905" /><trkpt lat="46.5979" lon="7.05906" /><trkpt lat="46.59775" lon="7.05906" /><trkpt lat="46.5976" lon="7.05907" /><trkpt lat="46.59733" lon="7.0591" /><trkpt lat="46.59723" lon="7.05911" /><trkpt lat="46.59705" lon="7.05914" /><trkpt lat="46.5968" lon="7.05918" /><trkpt lat="46.59666" lon="7.05921" /><trkpt lat="46.59652" lon="7.05925" /><trkpt lat="46.59627" lon="7.05931" /><trkpt lat="46.59499" lon="7.05967" /><trkpt lat="46.59473" lon="7.05974" /><trkpt lat="46.59421" lon="7.05988" /><trkpt lat="46.59378" lon="7.06005" /><trkpt lat="46.59358" lon="7.06016" /><trkpt lat="46.58983" lon="7.06231" /><trkpt lat="46.58966" lon="7.06242" /><trkpt lat="46.58962" lon="7.06244" /><trkpt lat="46.58953" lon="7.0625" /><trkpt lat="46.58952" lon="7.06251" /><trkpt lat="46.58938" lon="7.0626" /><trkpt lat="46.5889" lon="7.06298" /><trkpt lat="46.58706" lon="7.06445" /><trkpt lat="46.58692" lon="7.06456" /><trkpt lat="46.58675" lon="7.06472" /><trkpt lat="46.58654" lon="7.06496" /><trkpt lat="46.58641" lon="7.06517" /><trkpt lat="46.58626" lon="7.06546" /><trkpt lat="46.58619" lon="7.06564" /><trkpt lat="46.58616" lon="7.06573" /><trkpt lat="46.58613" lon="7.06581" /><trkpt lat="46.58605" lon="7.06614" /><trkpt lat="46.5853" lon="7.07007" /><trkpt lat="46.58527" lon="7.07022" /><trkpt lat="46.58524" lon="7.07034" /><trkpt lat="46.58521" lon="7.07045" /><trkpt lat="46.58517" lon="7.07057" /><trkpt lat="46.58513" lon="7.07068" /><trkpt lat="46.5851" lon="7.07076" /><trkpt lat="46.58506" lon="7.07084" /><trkpt lat="46.58499" lon="7.07097" /><trkpt lat="46.58494" lon="7.07106" /><trkpt lat="46.58489" lon="7.07115" /><trkpt lat="46.58483" lon="7.07123" /><trkpt lat="46.58478" lon="7.07131" /><trkpt lat="46.58474" lon="7.07135" /><trkpt lat="46.58468" lon="7.07143" /><trkpt lat="46.58444" lon="7.07168" /><trkpt lat="46.58391" lon="7.0722" /><trkpt lat="46.58383" lon="7.07228" /><trkpt lat="46.58321" lon="7.07291" /><trkpt lat="46.58293" lon="7.07319" /><trkpt lat="46.58277" lon="7.07335" /><trkpt lat="46.58277" lon="7.07335" /></trkseg></trk></gpx>