<gpx version="1.1" creator="Trainlog.me"><trk><name>Trip Path</name><trkseg><trkpt lat="47.36766" lon="7.16594" /><trkpt lat="47.3673" lon="7.1676" /><trkpt lat="47.36722" lon="7.16797" /><trkpt lat="47.36716" lon="7.16818" /><trkpt lat="47.36712" lon="7.16832" /><trkpt lat="47.36707" lon="7.16845" /><trkpt lat="47.36701" lon="7.16861" /><trkpt lat="47.36694" lon="7.16878" /><trkpt lat="47.36684" lon="7.16901" /><trkpt lat="47.36677" lon="7.16914" /><trkpt lat="47.36666" lon="7.16935" /><trkpt lat="47.36655" lon="7.16954" /><trkpt lat="47.36646" lon="7.1697" /><trkpt lat="47.36629" lon="7.16995" /><trkpt lat="47.36619" lon="7.17007" /><trkpt lat="47.36611" lon="7.17017" /><trkpt lat="47.36599" lon="7.1703" /><trkpt lat="47.36581" lon="7.17049" /><trkpt lat="47.3657" lon="7.17059" /><trkpt lat="47.36556" lon="7.17071" /><trkpt lat="47.36547" lon="7.17077" /><trkpt lat="47.36528" lon="7.1709" /><trkpt lat="47.36513" lon="7.17099" /><trkpt lat="47.36478" lon="7.17116" /><trkpt lat="47.36452" lon="7.17128" /><trkpt lat="47.36374" lon="7.17163" /><trkpt lat="47.36293" lon="7.17194" /><trkpt lat="47.36217" lon="7.17204" /><trkpt lat="47.36139" lon="7.17213" /><trkpt lat="47.36088" lon="7.17226" /><trkpt lat="47.36037" lon="7.17248" /><trkpt lat="47.35907" lon="7.17331" /><trkpt lat="47.35781" lon="7.17408" /><trkpt lat="47.35578" lon="7.17538" /><trkpt lat="47.35533" lon="7.17564" /><trkpt lat="47.3549" lon="7.17585" /><trkpt lat="47.3546" lon="7.17596" /><trkpt lat="47.35428" lon="7.17603" /><trkpt lat="47.3538" lon="7.17609" /><trkpt lat="47.35357" lon="7.17607" /><trkpt lat="47.35337" lon="7.17605" /><trkpt lat="47.35299" lon="7.17599" /><trkpt lat="47.35266" lon="7.17589" /><trkpt lat="47.35234" lon="7.17576" /><trkpt lat="47.35163" lon="7.17559" /><trkpt lat="47.35157" lon="7.17558" /><trkpt lat="47.35137" lon="7.17557" /><trkpt lat="47.35118" lon="7.17558" /><trkpt lat="47.35095" lon="7.17561" /><trkpt lat="47.35072" lon="7.17567" /><trkpt lat="47.35035" lon="7.17583" /><trkpt lat="47.35004" lon="7.17602" /><trkpt lat="47.3497" lon="7.17631" /><trkpt lat="47.34936" lon="7.17668" /><trkpt lat="47.34907" lon="7.17708" /><trkpt lat="47.34879" lon="7.17755" /><trkpt lat="47.34596" lon="7.18334" /><trkpt lat="47.34" lon="7.19799" /><trkpt lat="47.33654" lon="7.20605" /><trkpt lat="47.33628" lon="7.20672" /><trkpt lat="47.33612" lon="7.20715" /><trkpt lat="47.33555" lon="7.20882" /><trkpt lat="47.33533" lon="7.20943" /><trkpt lat="47.33504" lon="7.21026" /><trkpt lat="47.33461" lon="7.21148" /><trkpt lat="47.33451" lon="7.2118" /><trkpt lat="47.33439" lon="7.21221" /><trkpt lat="47.33415" lon="7.2131" /><trkpt lat="47.33401" lon="7.21368" /><trkpt lat="47.33388" lon="7.21421" /><trkpt lat="47.33382" lon="7.21453" /><trkpt lat="47.33374" lon="7.21499" /><trkpt lat="47.3337" lon="7.21542" /><trkpt lat="47.33368" lon="7.21593" /><trkpt lat="47.33368" lon="7.21628" /><trkpt lat="47.3337" lon="7.21661" /><trkpt lat="47.33374" lon="7.21717" /><trkpt lat="47.33385" lon="7.21819" /><trkpt lat="47.33459" lon="7.2256" /><trkpt lat="47.3346" lon="7.22566" /><trkpt lat="47.33538" lon="7.23343" /><trkpt lat="47.33568" lon="7.23643" /><trkpt lat="47.33605" lon="7.24016" /><trkpt lat="47.33608" lon="7.24043" /><trkpt lat="47.33647" lon="7.24432" /><trkpt lat="47.33651" lon="7.24479" /><trkpt lat="47.33654" lon="7.24511" /><trkpt lat="47.33654" lon="7.24528" /><trkpt lat="47.33655" lon="7.24542" /><trkpt lat="47.33655" lon="7.24556" /><trkpt lat="47.33657" lon="7.24648" /><trkpt lat="47.33658" lon="7.24687" /><trkpt lat="47.33659" lon="7.24785" /><trkpt lat="47.3366" lon="7.24993" /><trkpt lat="47.3366" lon="7.25015" /><trkpt lat="47.33661" lon="7.25036" /><trkpt lat="47.33664" lon="7.25086" /><trkpt lat="47.33664" lon="7.25106" /><trkpt lat="47.33665" lon="7.25125" /><trkpt lat="47.33667" lon="7.25607" /><trkpt lat="47.3367" lon="7.2607" /><trkpt lat="47.33676" lon="7.2709" /><trkpt lat="47.3368" lon="7.27878" /><trkpt lat="47.3368" lon="7.27891" /><trkpt lat="47.3368" lon="7.27902" /><trkpt lat="47.3368" lon="7.27917" /><trkpt lat="47.3368" lon="7.27933" /><trkpt lat="47.33679" lon="7.2796" /><trkpt lat="47.33678" lon="7.2799" /><trkpt lat="47.33676" lon="7.28007" /><trkpt lat="47.33675" lon="7.2802" /><trkpt lat="47.33673" lon="7.28041" /><trkpt lat="47.3367" lon="7.28058" /><trkpt lat="47.33668" lon="7.28075" /><trkpt lat="47.33664" lon="7.28096" /><trkpt lat="47.3366" lon="7.28117" /><trkpt lat="47.33655" lon="7.28137" /><trkpt lat="47.33648" lon="7.28164" /><trkpt lat="47.33644" lon="7.28178" /><trkpt lat="47.3364" lon="7.28192" /><trkpt lat="47.33631" lon="7.28218" /><trkpt lat="47.33624" lon="7.28239" /><trkpt lat="47.33621" lon="7.28245" /><trkpt lat="47.33617" lon="7.28255" /><trkpt lat="47.33613" lon="7.28268" /><trkpt lat="47.33604" lon="7.28288" /><trkpt lat="47.33578" lon="7.28352" /><trkpt lat="47.33572" lon="7.28368" /><trkpt lat="47.33565" lon="7.28384" /><trkpt lat="47.3356" lon="7.28399" /><trkpt lat="47.33555" lon="7.28415" /><trkpt lat="47.3355" lon="7.28431" /><trkpt lat="47.33545" lon="7.28447" /><trkpt lat="47.33541" lon="7.28462" /><trkpt lat="47.33534" lon="7.28486" /><trkpt lat="47.33529" lon="7.2851" /><trkpt lat="47.33526" lon="7.28525" /><trkpt lat="47.33522" lon="7.28541" /><trkpt lat="47.3352" lon="7.28556" /><trkpt lat="47.33517" lon="7.28571" /><trkpt lat="47.33515" lon="7.28587" /><trkpt lat="47.33513" lon="7.28604" /><trkpt lat="47.3351" lon="7.28626" /><trkpt lat="47.33509" lon="7.28643" /><trkpt lat="47.33508" lon="7.28658" /><trkpt lat="47.33507" lon="7.28673" /><trkpt lat="47.33506" lon="7.28691" /><trkpt lat="47.33506" lon="7.28705" /><trkpt lat="47.33505" lon="7.28719" /><trkpt lat="47.33506" lon="7.28731" /><trkpt lat="47.33506" lon="7.28744" /><trkpt lat="47.33507" lon="7.2877" /><trkpt lat="47.33508" lon="7.2879" /><trkpt lat="47.33508" lon="7.2881" /><trkpt lat="47.33513" lon="7.28893" /><trkpt lat="47.33514" lon="7.28906" /><trkpt lat="47.33515" lon="7.28932" /><trkpt lat="47.33517" lon="7.28978" /><trkpt lat="47.33519" lon="7.29063" /><trkpt lat="47.33523" lon="7.29185" /><trkpt lat="47.33527" lon="7.29325" /><trkpt lat="47.33528" lon="7.29361" /><trkpt lat="47.33529" lon="7.29389" /><trkpt lat="47.33531" lon="7.29528" /><trkpt lat="47.33532" lon="7.29591" /><trkpt lat="47.33533" lon="7.29622" /><trkpt lat="47.33534" lon="7.29653" /><trkpt lat="47.33536" lon="7.29681" /><trkpt lat="47.33537" lon="7.297" /><trkpt lat="47.33539" lon="7.29722" /><trkpt lat="47.33541" lon="7.29744" /><trkpt lat="47.33542" lon="7.29761" /><trkpt lat="47.33544" lon="7.2978" /><trkpt lat="47.33546" lon="7.29797" /><trkpt lat="47.33549" lon="7.29814" /><trkpt lat="47.33552" lon="7.29836" /><trkpt lat="47.33555" lon="7.29857" /><trkpt lat="47.33558" lon="7.29875" /><trkpt lat="47.33561" lon="7.29895" /><trkpt lat="47.33565" lon="7.29914" /><trkpt lat="47.3357" lon="7.29943" /><trkpt lat="47.33575" lon="7.29966" /><trkpt lat="47.33582" lon="7.29997" /><trkpt lat="47.33589" lon="7.30024" /><trkpt lat="47.33596" lon="7.30051" /><trkpt lat="47.33608" lon="7.30091" /><trkpt lat="47.33622" lon="7.30138" /><trkpt lat="47.33634" lon="7.30173" /><trkpt lat="47.33643" lon="7.30196" /><trkpt lat="47.33656" lon="7.3023" /><trkpt lat="47.3367" lon="7.30265" /><trkpt lat="47.33698" lon="7.30338" /><trkpt lat="47.33726" lon="7.30408" /><trkpt lat="47.33784" lon="7.30557" /><trkpt lat="47.33871" lon="7.30779" /><trkpt lat="47.33894" lon="7.30838" /><trkpt lat="47.34143" lon="7.31472" /><trkpt lat="47.34149" lon="7.31486" /><trkpt lat="47.34196" lon="7.3161" /><trkpt lat="47.34244" lon="7.31735" /><trkpt lat="47.34272" lon="7.31805" /><trkpt lat="47.34281" lon="7.31826" /><trkpt lat="47.343" lon="7.3187" /><trkpt lat="47.34323" lon="7.31922" /><trkpt lat="47.34401" lon="7.32085" /><trkpt lat="47.34455" lon="7.32191" /><trkpt lat="47.34515" lon="7.323" /><trkpt lat="47.34561" lon="7.32376" /><trkpt lat="47.34658" lon="7.3253" /><trkpt lat="47.3487" lon="7.32828" /><trkpt lat="47.35016" lon="7.33032" /><trkpt lat="47.35352" lon="7.33501" /><trkpt lat="47.35641" lon="7.33905" /><trkpt lat="47.35708" lon="7.33999" /><trkpt lat="47.35726" lon="7.34025" /><trkpt lat="47.35742" lon="7.3405" /><trkpt lat="47.35776" lon="7.341" /><trkpt lat="47.35869" lon="7.34239" /><trkpt lat="47.35904" lon="7.34291" /><trkpt lat="47.35988" lon="7.34416" /><trkpt lat="47.36034" lon="7.34486" /><trkpt lat="47.36045" lon="7.34503" /><trkpt lat="47.36054" lon="7.34517" /><trkpt lat="47.36062" lon="7.34531" /><trkpt lat="47.36069" lon="7.34545" /><trkpt lat="47.36076" lon="7.34558" /><trkpt lat="47.36081" lon="7.34571" /><trkpt lat="47.36086" lon="7.34581" /><trkpt lat="47.3609" lon="7.34593" /><trkpt lat="47.36095" lon="7.34604" /><trkpt lat="47.36099" lon="7.34617" /><trkpt lat="47.36103" lon="7.34628" /><trkpt lat="47.36106" lon="7.3464" /><trkpt lat="47.3611" lon="7.34652" /><trkpt lat="47.36113" lon="7.34664" /><trkpt lat="47.36154" lon="7.34813" /><trkpt lat="47.36158" lon="7.34825" /><trkpt lat="47.36161" lon="7.34837" /><trkpt lat="47.36164" lon="7.3485" /><trkpt lat="47.36166" lon="7.34863" /><trkpt lat="47.36169" lon="7.34877" /><trkpt lat="47.36194" lon="7.35013" /><trkpt lat="47.36196" lon="7.35019" /><trkpt lat="47.36196" lon="7.35019" /></trkseg></trk></gpx>