<gpx version="1.1" creator="Trainlog.me"><trk><name>Trip Path</name><trkseg><trkpt lat="45.44132" lon="12.32061" /><trkpt lat="45.44196" lon="12.31947" /><trkpt lat="45.44166" lon="12.32008" /><trkpt lat="45.44311" lon="12.31752" /><trkpt lat="45.44327" lon="12.31725" /><trkpt lat="45.44355" lon="12.31682" /><trkpt lat="45.44364" lon="12.31667" /><trkpt lat="45.44382" lon="12.31642" /><trkpt lat="45.44405" lon="12.3161" /><trkpt lat="45.44419" lon="12.31591" /><trkpt lat="45.44446" lon="12.31554" /><trkpt lat="45.44469" lon="12.31522" /><trkpt lat="45.44513" lon="12.31444" /><trkpt lat="45.44609" lon="12.31274" /><trkpt lat="45.44647" lon="12.31207" /><trkpt lat="45.44713" lon="12.3109" /><trkpt lat="45.44726" lon="12.31069" /><trkpt lat="45.44785" lon="12.30965" /><trkpt lat="45.44789" lon="12.30957" /><trkpt lat="45.44867" lon="12.30818" /><trkpt lat="45.44883" lon="12.30786" /><trkpt lat="45.44897" lon="12.30754" /><trkpt lat="45.44904" lon="12.30739" /><trkpt lat="45.44915" lon="12.30715" /><trkpt lat="45.4495" lon="12.30654" /><trkpt lat="45.4497" lon="12.30618" /><trkpt lat="45.44983" lon="12.30597" /><trkpt lat="45.45013" lon="12.30542" /><trkpt lat="45.4504" lon="12.30495" /><trkpt lat="45.45084" lon="12.30415" /><trkpt lat="45.45127" lon="12.30339" /><trkpt lat="45.45174" lon="12.30257" /><trkpt lat="45.45247" lon="12.30125" /><trkpt lat="45.4547" lon="12.2973" /><trkpt lat="45.45675" lon="12.29366" /><trkpt lat="45.45758" lon="12.29218" /><trkpt lat="45.4603" lon="12.28734" /><trkpt lat="45.46195" lon="12.28442" /><trkpt lat="45.46266" lon="12.28315" /><trkpt lat="45.46423" lon="12.28037" /><trkpt lat="45.46473" lon="12.27948" /><trkpt lat="45.46523" lon="12.27856" /><trkpt lat="45.46585" lon="12.27737" /><trkpt lat="45.46638" lon="12.27632" /><trkpt lat="45.46679" lon="12.27544" /><trkpt lat="45.46706" lon="12.27484" /><trkpt lat="45.46726" lon="12.27438" /><trkpt lat="45.46751" lon="12.27379" /><trkpt lat="45.46774" lon="12.2732" /><trkpt lat="45.46802" lon="12.27241" /><trkpt lat="45.46832" lon="12.27154" /><trkpt lat="45.46868" lon="12.27038" /><trkpt lat="45.469" lon="12.26924" /><trkpt lat="45.46914" lon="12.26869" /><trkpt lat="45.46934" lon="12.26783" /><trkpt lat="45.46953" lon="12.26693" /><trkpt lat="45.46969" lon="12.26609" /><trkpt lat="45.46976" lon="12.26566" /><trkpt lat="45.46993" lon="12.26463" /><trkpt lat="45.47011" lon="12.26354" /><trkpt lat="45.47021" lon="12.26291" /><trkpt lat="45.47029" lon="12.26249" /><trkpt lat="45.47038" lon="12.26196" /><trkpt lat="45.47052" lon="12.2613" /><trkpt lat="45.47069" lon="12.26062" /><trkpt lat="45.47091" lon="12.25984" /><trkpt lat="45.47114" lon="12.25908" /><trkpt lat="45.47147" lon="12.25817" /><trkpt lat="45.47164" lon="12.25776" /><trkpt lat="45.47184" lon="12.25729" /><trkpt lat="45.47205" lon="12.25683" /><trkpt lat="45.47232" lon="12.25628" /><trkpt lat="45.47254" lon="12.25588" /><trkpt lat="45.47276" lon="12.25547" /><trkpt lat="45.47305" lon="12.25499" /><trkpt lat="45.47334" lon="12.25455" /><trkpt lat="45.47371" lon="12.25402" /><trkpt lat="45.47389" lon="12.25377" /><trkpt lat="45.47405" lon="12.25355" /><trkpt lat="45.4744" lon="12.2531" /><trkpt lat="45.47471" lon="12.25273" /><trkpt lat="45.47484" lon="12.25258" /><trkpt lat="45.47515" lon="12.25221" /><trkpt lat="45.47548" lon="12.25181" /><trkpt lat="45.47582" lon="12.25137" /><trkpt lat="45.47614" lon="12.25093" /><trkpt lat="45.47645" lon="12.25048" /><trkpt lat="45.47674" lon="12.25001" /><trkpt lat="45.47713" lon="12.24934" /><trkpt lat="45.47738" lon="12.24887" /><trkpt lat="45.47773" lon="12.24815" /><trkpt lat="45.47788" lon="12.2478" /><trkpt lat="45.47802" lon="12.24745" /><trkpt lat="45.47821" lon="12.24694" /><trkpt lat="45.47835" lon="12.24651" /><trkpt lat="45.47848" lon="12.24603" /><trkpt lat="45.47863" lon="12.24549" /><trkpt lat="45.47879" lon="12.24483" /><trkpt lat="45.47884" lon="12.2446" /><trkpt lat="45.47911" lon="12.24353" /><trkpt lat="45.47926" lon="12.24291" /><trkpt lat="45.47938" lon="12.24235" /><trkpt lat="45.47992" lon="12.23966" /><trkpt lat="45.48004" lon="12.23906" /><trkpt lat="45.48009" lon="12.23874" /><trkpt lat="45.48026" lon="12.23811" /><trkpt lat="45.48033" lon="12.23777" /><trkpt lat="45.48049" lon="12.23697" /><trkpt lat="45.48066" lon="12.23623" /><trkpt lat="45.48077" lon="12.23578" /><trkpt lat="45.4813" lon="12.23359" /><trkpt lat="45.4816" lon="12.23237" /><trkpt lat="45.48172" lon="12.23188" /><trkpt lat="45.48205" lon="12.23059" /><trkpt lat="45.48263" lon="12.22848" /><trkpt lat="45.48277" lon="12.22799" /><trkpt lat="45.48294" lon="12.22724" /><trkpt lat="45.48305" lon="12.22684" /><trkpt lat="45.4833" lon="12.22568" /><trkpt lat="45.48353" lon="12.2248" /><trkpt lat="45.48364" lon="12.22427" /><trkpt lat="45.48373" lon="12.22374" /><trkpt lat="45.48381" lon="12.22322" /><trkpt lat="45.48386" lon="12.22279" /><trkpt lat="45.48389" lon="12.2224" /><trkpt lat="45.48391" lon="12.22199" /><trkpt lat="45.48392" lon="12.22173" /><trkpt lat="45.48393" lon="12.22146" /><trkpt lat="45.48392" lon="12.22112" /><trkpt lat="45.48392" lon="12.22082" /><trkpt lat="45.4839" lon="12.22036" /><trkpt lat="45.48386" lon="12.21986" /><trkpt lat="45.48377" lon="12.21902" /><trkpt lat="45.48373" lon="12.21837" /><trkpt lat="45.48361" lon="12.21667" /><trkpt lat="45.48358" lon="12.21623" /><trkpt lat="45.48355" lon="12.21594" /><trkpt lat="45.48351" lon="12.21556" /><trkpt lat="45.48343" lon="12.21486" /><trkpt lat="45.48334" lon="12.2141" /><trkpt lat="45.48325" lon="12.21339" /><trkpt lat="45.4832" lon="12.21294" /><trkpt lat="45.48306" lon="12.21208" /><trkpt lat="45.48298" lon="12.21164" /><trkpt lat="45.48289" lon="12.21119" /><trkpt lat="45.4827" lon="12.21039" /><trkpt lat="45.48203" lon="12.20751" /><trkpt lat="45.48199" lon="12.20735" /><trkpt lat="45.48185" lon="12.20677" /><trkpt lat="45.48182" lon="12.20661" /><trkpt lat="45.48168" lon="12.20588" /><trkpt lat="45.4815" lon="12.20511" /><trkpt lat="45.48128" lon="12.2039" /><trkpt lat="45.48112" lon="12.20322" /><trkpt lat="45.48096" lon="12.20241" /><trkpt lat="45.48079" lon="12.20167" /><trkpt lat="45.48055" lon="12.20042" /><trkpt lat="45.48041" lon="12.19981" /><trkpt lat="45.47996" lon="12.1979" /><trkpt lat="45.47964" lon="12.19645" /><trkpt lat="45.47935" lon="12.19507" /><trkpt lat="45.4792" lon="12.1944" /><trkpt lat="45.47873" lon="12.19205" /><trkpt lat="45.47848" lon="12.19076" /><trkpt lat="45.47822" lon="12.18947" /><trkpt lat="45.47779" lon="12.18745" /><trkpt lat="45.47736" lon="12.18548" /><trkpt lat="45.47707" lon="12.18425" /><trkpt lat="45.47672" lon="12.18275" /><trkpt lat="45.4754" lon="12.17684" /><trkpt lat="45.47488" lon="12.17441" /><trkpt lat="45.47408" lon="12.17064" /><trkpt lat="45.47305" lon="12.16547" /><trkpt lat="45.47154" lon="12.15839" /><trkpt lat="45.47097" lon="12.15571" /><trkpt lat="45.47085" lon="12.15516" /><trkpt lat="45.46891" lon="12.14612" /><trkpt lat="45.46648" lon="12.13484" /><trkpt lat="45.4664" lon="12.13446" /><trkpt lat="45.46638" lon="12.13434" /><trkpt lat="45.46364" lon="12.12159" /><trkpt lat="45.46298" lon="12.11841" /><trkpt lat="45.46293" lon="12.11815" /><trkpt lat="45.462" lon="12.11395" /><trkpt lat="45.46188" lon="12.11339" /><trkpt lat="45.46101" lon="12.10932" /><trkpt lat="45.45868" lon="12.09754" /><trkpt lat="45.4585" lon="12.09666" /><trkpt lat="45.45715" lon="12.08965" /><trkpt lat="45.45615" lon="12.08461" /><trkpt lat="45.45459" lon="12.07674" /><trkpt lat="45.45377" lon="12.07262" /><trkpt lat="45.45316" lon="12.06952" /><trkpt lat="45.45125" lon="12.06011" /><trkpt lat="45.45084" lon="12.05804" /><trkpt lat="45.45057" lon="12.05671" /><trkpt lat="45.4488" lon="12.04779" /><trkpt lat="45.44727" lon="12.04004" /><trkpt lat="45.44714" lon="12.03943" /><trkpt lat="45.44684" lon="12.03792" /><trkpt lat="45.44679" lon="12.03764" /><trkpt lat="45.44639" lon="12.03564" /><trkpt lat="45.44403" lon="12.02385" /><trkpt lat="45.44389" lon="12.02314" /><trkpt lat="45.44377" lon="12.0226" /><trkpt lat="45.44259" lon="12.0166" /><trkpt lat="45.44255" lon="12.01641" /><trkpt lat="45.44155" lon="12.01136" /><trkpt lat="45.43968" lon="12.00164" /><trkpt lat="45.43956" lon="12.00099" /><trkpt lat="45.43918" lon="11.99902" /><trkpt lat="45.43774" lon="11.99159" /><trkpt lat="45.43746" lon="11.9901" /><trkpt lat="45.43679" lon="11.98667" /><trkpt lat="45.43598" lon="11.98243" /><trkpt lat="45.43585" lon="11.98178" /><trkpt lat="45.43446" lon="11.97455" /><trkpt lat="45.43324" lon="11.96826" /><trkpt lat="45.43321" lon="11.9681" /><trkpt lat="45.43234" lon="11.96356" /><trkpt lat="45.43223" lon="11.96299" /><trkpt lat="45.43204" lon="11.96202" /><trkpt lat="45.43138" lon="11.9586" /><trkpt lat="45.43087" lon="11.95591" /><trkpt lat="45.43033" lon="11.95283" /><trkpt lat="45.42975" lon="11.9498" /><trkpt lat="45.4297" lon="11.9496" /><trkpt lat="45.42947" lon="11.94838" /><trkpt lat="45.42913" lon="11.94666" /><trkpt lat="45.429" lon="11.946" /><trkpt lat="45.42806" lon="11.94145" /><trkpt lat="45.42728" lon="11.9375" /><trkpt lat="45.42663" lon="11.93414" /><trkpt lat="45.42611" lon="11.93138" /><trkpt lat="45.42563" lon="11.92861" /><trkpt lat="45.42536" lon="11.92725" /><trkpt lat="45.42501" lon="11.92558" /><trkpt lat="45.42489" lon="11.925" /><trkpt lat="45.42451" lon="11.92318" /><trkpt lat="45.4237" lon="11.91893" /><trkpt lat="45.42347" lon="11.9177" /><trkpt lat="45.42293" lon="11.91496" /><trkpt lat="45.42271" lon="11.91384" /><trkpt lat="45.42261" lon="11.91327" /><trkpt lat="45.42253" lon="11.91283" /><trkpt lat="45.42239" lon="11.91204" /><trkpt lat="45.42219" lon="11.9111" /><trkpt lat="45.42203" lon="11.91027" /><trkpt lat="45.42199" lon="11.91009" /><trkpt lat="45.42151" lon="11.90772" /><trkpt lat="45.42131" lon="11.90672" /><trkpt lat="45.42116" lon="11.90602" /><trkpt lat="45.42108" lon="11.90569" /><trkpt lat="45.4209" lon="11.90489" /><trkpt lat="45.42078" lon="11.9043" /><trkpt lat="45.4206" lon="11.90348" /><trkpt lat="45.42043" lon="11.90271" /><trkpt lat="45.42026" lon="11.90196" /><trkpt lat="45.41995" lon="11.90038" /><trkpt lat="45.41981" lon="11.89955" /><trkpt lat="45.41953" lon="11.8979" /><trkpt lat="45.41932" lon="11.89681" /><trkpt lat="45.41919" lon="11.89614" /><trkpt lat="45.41918" lon="11.89604" /><trkpt lat="45.41905" lon="11.89538" /><trkpt lat="45.41871" lon="11.89366" /><trkpt lat="45.41814" lon="11.89074" /><trkpt lat="45.41805" lon="11.89033" /><trkpt lat="45.41769" lon="11.88841" /><trkpt lat="45.41755" lon="11.88768" /><trkpt lat="45.41746" lon="11.88722" /><trkpt lat="45.41743" lon="11.88704" /><trkpt lat="45.41741" lon="11.88684" /><trkpt lat="45.41739" lon="11.88664" /><trkpt lat="45.41737" lon="11.88643" /><trkpt lat="45.41736" lon="11.88621" /><trkpt lat="45.41735" lon="11.886" /><trkpt lat="45.41736" lon="11.88547" /><trkpt lat="45.41737" lon="11.88494" /><trkpt lat="45.41737" lon="11.88461" /><trkpt lat="45.41737" lon="11.88439" /><trkpt lat="45.41737" lon="11.8843" /><trkpt lat="45.41736" lon="11.88411" /><trkpt lat="45.41735" lon="11.884" /><trkpt lat="45.41735" lon="11.88376" /><trkpt lat="45.41736" lon="11.88329" /><trkpt lat="45.41737" lon="11.8828" /><trkpt lat="45.41738" lon="11.88257" /><trkpt lat="45.4174" lon="11.8823" /><trkpt lat="45.41744" lon="11.88197" /><trkpt lat="45.41751" lon="11.88154" /><trkpt lat="45.41767" lon="11.88055" /><trkpt lat="45.41786" lon="11.87941" /><trkpt lat="45.41803" lon="11.87833" /><trkpt lat="45.41815" lon="11.87741" /><trkpt lat="45.4182" lon="11.87706" /><trkpt lat="45.41828" lon="11.87657" /><trkpt lat="45.41834" lon="11.87627" /><trkpt lat="45.4184" lon="11.87598" /><trkpt lat="45.41844" lon="11.87581" /><trkpt lat="45.41848" lon="11.87569" /><trkpt lat="45.41851" lon="11.87558" /><trkpt lat="45.41855" lon="11.87547" /><trkpt lat="45.41861" lon="11.87524" /><trkpt lat="45.41867" lon="11.87501" /><trkpt lat="45.41876" lon="11.87476" /><trkpt lat="45.41908" lon="11.87396" /><trkpt lat="45.41914" lon="11.8738" /><trkpt lat="45.4192" lon="11.87366" /><trkpt lat="45.41926" lon="11.87353" /><trkpt lat="45.41934" lon="11.87336" /><trkpt lat="45.41945" lon="11.87315" /><trkpt lat="45.41957" lon="11.87289" /><trkpt lat="45.41982" lon="11.8723" /><trkpt lat="45.42087" lon="11.86978" /><trkpt lat="45.42187" lon="11.86741" /><trkpt lat="45.42304" lon="11.86466" /><trkpt lat="45.42368" lon="11.86315" /><trkpt lat="45.42516" lon="11.85966" /><trkpt lat="45.42534" lon="11.85924" /><trkpt lat="45.42558" lon="11.85868" /><trkpt lat="45.4272" lon="11.85485" /><trkpt lat="45.4272" lon="11.85485" /><trkpt lat="45.42777" lon="11.8535" /><trkpt lat="45.42994" lon="11.84839" /><trkpt lat="45.43242" lon="11.84253" /><trkpt lat="45.43636" lon="11.83324" /><trkpt lat="45.43658" lon="11.83272" /><trkpt lat="45.43706" lon="11.83158" /><trkpt lat="45.43813" lon="11.82905" /><trkpt lat="45.43837" lon="11.82848" /><trkpt lat="45.44017" lon="11.82422" /><trkpt lat="45.44032" lon="11.82385" /><trkpt lat="45.4404" lon="11.82365" /><trkpt lat="45.44048" lon="11.82344" /><trkpt lat="45.44064" lon="11.82302" /><trkpt lat="45.4408" lon="11.8226" /><trkpt lat="45.44095" lon="11.82216" /><trkpt lat="45.44154" lon="11.82048" /><trkpt lat="45.44235" lon="11.81817" /><trkpt lat="45.44555" lon="11.80903" /><trkpt lat="45.44799" lon="11.80205" /><trkpt lat="45.44956" lon="11.79757" /><trkpt lat="45.45357" lon="11.78611" /><trkpt lat="45.45379" lon="11.78547" /><trkpt lat="45.45629" lon="11.77831" /><trkpt lat="45.45635" lon="11.77814" /><trkpt lat="45.45745" lon="11.77499" /><trkpt lat="45.45758" lon="11.77464" /><trkpt lat="45.45786" lon="11.77383" /><trkpt lat="45.45811" lon="11.7731" /><trkpt lat="45.45931" lon="11.76967" /><trkpt lat="45.46025" lon="11.76698" /><trkpt lat="45.46039" lon="11.7666" /><trkpt lat="45.46057" lon="11.76613" /><trkpt lat="45.46072" lon="11.76576" /><trkpt lat="45.46087" lon="11.76542" /><trkpt lat="45.46119" lon="11.7647" /><trkpt lat="45.46181" lon="11.76337" /><trkpt lat="45.46541" lon="11.75568" /><trkpt lat="45.46555" lon="11.75537" /><trkpt lat="45.46621" lon="11.75397" /><trkpt lat="45.46645" lon="11.75344" /><trkpt lat="45.46681" lon="11.75268" /><trkpt lat="45.47178" lon="11.74205" /><trkpt lat="45.47296" lon="11.73952" /><trkpt lat="45.47321" lon="11.73899" /><trkpt lat="45.47678" lon="11.73135" /><trkpt lat="45.47811" lon="11.72851" /><trkpt lat="45.47827" lon="11.72816" /><trkpt lat="45.48069" lon="11.72297" /><trkpt lat="45.48165" lon="11.72088" /><trkpt lat="45.48173" lon="11.72072" /><trkpt lat="45.48267" lon="11.71858" /><trkpt lat="45.48414" lon="11.71535" /><trkpt lat="45.48495" lon="11.71368" /><trkpt lat="45.48636" lon="11.71075" /><trkpt lat="45.48665" lon="11.71013" /><trkpt lat="45.4872" lon="11.70899" /><trkpt lat="45.48837" lon="11.70655" /><trkpt lat="45.48934" lon="11.70452" /><trkpt lat="45.48968" lon="11.7038" /><trkpt lat="45.49014" lon="11.70278" /><trkpt lat="45.49051" lon="11.70192" /><trkpt lat="45.49078" lon="11.70128" /><trkpt lat="45.4911" lon="11.70053" /><trkpt lat="45.49138" lon="11.69997" /><trkpt lat="45.49164" lon="11.69934" /><trkpt lat="45.49306" lon="11.69597" /><trkpt lat="45.49629" lon="11.68836" /><trkpt lat="45.50027" lon="11.67896" /><trkpt lat="45.50051" lon="11.6784" /><trkpt lat="45.50094" lon="11.67739" /><trkpt lat="45.50558" lon="11.66643" /><trkpt lat="45.5076" lon="11.66164" /><trkpt lat="45.50784" lon="11.66109" /><trkpt lat="45.51022" lon="11.65546" /><trkpt lat="45.51492" lon="11.64453" /><trkpt lat="45.51523" lon="11.64379" /><trkpt lat="45.51554" lon="11.64309" /><trkpt lat="45.51557" lon="11.64302" /><trkpt lat="45.51586" lon="11.64233" /><trkpt lat="45.5159" lon="11.64225" /><trkpt lat="45.5184" lon="11.63643" /><trkpt lat="45.51871" lon="11.6357" /><trkpt lat="45.51922" lon="11.63452" /><trkpt lat="45.51961" lon="11.6336" /><trkpt lat="45.52163" lon="11.6289" /><trkpt lat="45.52431" lon="11.62266" /><trkpt lat="45.52714" lon="11.61607" /><trkpt lat="45.52757" lon="11.61506" /><trkpt lat="45.52899" lon="11.61175" /><trkpt lat="45.52982" lon="11.60981" /><trkpt lat="45.53366" lon="11.60087" /><trkpt lat="45.53451" lon="11.59888" /><trkpt lat="45.53484" lon="11.5981" /><trkpt lat="45.535" lon="11.59772" /><trkpt lat="45.53514" lon="11.59732" /><trkpt lat="45.53532" lon="11.5968" /><trkpt lat="45.53546" lon="11.59636" /><trkpt lat="45.53553" lon="11.59614" /><trkpt lat="45.53559" lon="11.59592" /><trkpt lat="45.53571" lon="11.59544" /><trkpt lat="45.53582" lon="11.59499" /><trkpt lat="45.53648" lon="11.59202" /><trkpt lat="45.53715" lon="11.58902" /><trkpt lat="45.53986" lon="11.57682" /><trkpt lat="45.5404" lon="11.57442" /><trkpt lat="45.54053" lon="11.5738" /><trkpt lat="45.54186" lon="11.5678" /><trkpt lat="45.54198" lon="11.56721" /><trkpt lat="45.54207" lon="11.56671" /><trkpt lat="45.54214" lon="11.56627" /><trkpt lat="45.54219" lon="11.56585" /><trkpt lat="45.54224" lon="11.56545" /><trkpt lat="45.54227" lon="11.56507" /><trkpt lat="45.54229" lon="11.56479" /><trkpt lat="45.5423" lon="11.56449" /><trkpt lat="45.54231" lon="11.56422" /><trkpt lat="45.54231" lon="11.56396" /><trkpt lat="45.54232" lon="11.56356" /><trkpt lat="45.54231" lon="11.56329" /><trkpt lat="45.5423" lon="11.56303" /><trkpt lat="45.54228" lon="11.56258" /><trkpt lat="45.54224" lon="11.56211" /><trkpt lat="45.5422" lon="11.56163" /><trkpt lat="45.54213" lon="11.56106" /><trkpt lat="45.54173" lon="11.55763" /><trkpt lat="45.54163" lon="11.55672" /><trkpt lat="45.54159" lon="11.55639" /><trkpt lat="45.54148" lon="11.55548" /><trkpt lat="45.54144" lon="11.55506" /><trkpt lat="45.54124" lon="11.55343" /><trkpt lat="45.54124" lon="11.55342" /><trkpt lat="45.54116" lon="11.55264" /><trkpt lat="45.54115" lon="11.55251" /><trkpt lat="45.54112" lon="11.55227" /><trkpt lat="45.54111" lon="11.5521" /><trkpt lat="45.54108" lon="11.55172" /><trkpt lat="45.54107" lon="11.55153" /><trkpt lat="45.54106" lon="11.55106" /><trkpt lat="45.54106" lon="11.5505" /><trkpt lat="45.54106" lon="11.55004" /><trkpt lat="45.54106" lon="11.54933" /><trkpt lat="45.54107" lon="11.54788" /><trkpt lat="45.54107" lon="11.54725" /><trkpt lat="45.54108" lon="11.54597" /><trkpt lat="45.54108" lon="11.54592" /><trkpt lat="45.54108" lon="11.54552" /><trkpt lat="45.54108" lon="11.5454" /><trkpt lat="45.54108" lon="11.54492" /><trkpt lat="45.54108" lon="11.5448" /><trkpt lat="45.54109" lon="11.54444" /><trkpt lat="45.54109" lon="11.5431" /><trkpt lat="45.54109" lon="11.54255" /><trkpt lat="45.54109" lon="11.5423" /><trkpt lat="45.5411" lon="11.54126" /><trkpt lat="45.54111" lon="11.54076" /><trkpt lat="45.54111" lon="11.539" /><trkpt lat="45.54111" lon="11.53831" /><trkpt lat="45.54111" lon="11.53826" /><trkpt lat="45.54111" lon="11.53775" /><trkpt lat="45.54112" lon="11.53715" /><trkpt lat="45.54112" lon="11.53655" /><trkpt lat="45.54112" lon="11.53644" /><trkpt lat="45.54112" lon="11.53552" /><trkpt lat="45.54112" lon="11.53531" /><trkpt lat="45.54112" lon="11.53483" /><trkpt lat="45.54112" lon="11.5348" /><trkpt lat="45.54111" lon="11.53441" /><trkpt lat="45.54107" lon="11.53321" /><trkpt lat="45.54103" lon="11.5325" /><trkpt lat="45.54097" lon="11.5315" /><trkpt lat="45.54095" lon="11.53113" /><trkpt lat="45.54095" lon="11.53103" /><trkpt lat="45.54091" lon="11.53033" /><trkpt lat="45.54079" lon="11.52762" /><trkpt lat="45.54075" lon="11.52681" /><trkpt lat="45.54071" lon="11.52638" /><trkpt lat="45.54067" lon="11.52596" /><trkpt lat="45.54059" lon="11.52548" /><trkpt lat="45.54051" lon="11.52502" /><trkpt lat="45.5404" lon="11.52456" /><trkpt lat="45.54032" lon="11.52424" /><trkpt lat="45.54026" lon="11.52402" /><trkpt lat="45.54022" lon="11.52386" /><trkpt lat="45.54019" lon="11.52375" /><trkpt lat="45.54007" lon="11.5234" /><trkpt lat="45.5399" lon="11.52293" /><trkpt lat="45.53968" lon="11.52242" /><trkpt lat="45.53944" lon="11.52191" /><trkpt lat="45.53757" lon="11.51832" /><trkpt lat="45.53563" lon="11.51462" /><trkpt lat="45.53453" lon="11.51252" /><trkpt lat="45.5338" lon="11.5111" /><trkpt lat="45.53307" lon="11.50971" /><trkpt lat="45.53292" lon="11.50944" /><trkpt lat="45.53254" lon="11.50871" /><trkpt lat="45.53134" lon="11.50641" /><trkpt lat="45.53099" lon="11.50574" /><trkpt lat="45.53074" lon="11.50527" /><trkpt lat="45.5307" lon="11.50518" /><trkpt lat="45.52995" lon="11.50377" /><trkpt lat="45.52624" lon="11.49667" /><trkpt lat="45.52579" lon="11.49582" /><trkpt lat="45.52493" lon="11.49417" /><trkpt lat="45.52362" lon="11.49169" /><trkpt lat="45.5234" lon="11.49126" /><trkpt lat="45.52296" lon="11.49039" /><trkpt lat="45.52262" lon="11.48965" /><trkpt lat="45.52253" lon="11.48943" /><trkpt lat="45.52246" lon="11.48925" /><trkpt lat="45.52222" lon="11.48861" /><trkpt lat="45.52195" lon="11.48772" /><trkpt lat="45.52158" lon="11.48646" /><trkpt lat="45.52145" lon="11.48598" /><trkpt lat="45.52127" lon="11.4854" /><trkpt lat="45.52103" lon="11.48459" /><trkpt lat="45.52022" lon="11.48182" /><trkpt lat="45.51942" lon="11.47908" /><trkpt lat="45.51653" lon="11.46924" /><trkpt lat="45.51566" lon="11.46628" /><trkpt lat="45.5149" lon="11.46369" /><trkpt lat="45.51449" lon="11.46227" /><trkpt lat="45.51429" lon="11.46162" /><trkpt lat="45.51366" lon="11.4595" /><trkpt lat="45.51352" lon="11.45902" /><trkpt lat="45.51331" lon="11.45827" /><trkpt lat="45.51321" lon="11.45796" /><trkpt lat="45.51314" lon="11.45772" /><trkpt lat="45.51309" lon="11.45758" /><trkpt lat="45.51301" lon="11.45734" /><trkpt lat="45.5128" lon="11.45677" /><trkpt lat="45.51262" lon="11.45633" /><trkpt lat="45.51245" lon="11.45594" /><trkpt lat="45.51227" lon="11.45558" /><trkpt lat="45.51208" lon="11.45521" /><trkpt lat="45.51193" lon="11.45494" /><trkpt lat="45.51175" lon="11.45464" /><trkpt lat="45.51166" lon="11.45449" /><trkpt lat="45.51156" lon="11.45433" /><trkpt lat="45.51132" lon="11.45398" /><trkpt lat="45.51115" lon="11.45374" /><trkpt lat="45.51101" lon="11.45356" /><trkpt lat="45.51076" lon="11.45324" /><trkpt lat="45.5105" lon="11.45294" /><trkpt lat="45.51022" lon="11.45264" /><trkpt lat="45.50987" lon="11.45231" /><trkpt lat="45.50942" lon="11.45193" /><trkpt lat="45.5092" lon="11.45175" /><trkpt lat="45.50829" lon="11.45103" /><trkpt lat="45.50824" lon="11.451" /><trkpt lat="45.50794" lon="11.45076" /><trkpt lat="45.5073" lon="11.45025" /><trkpt lat="45.50692" lon="11.44994" /><trkpt lat="45.50682" lon="11.44987" /><trkpt lat="45.50636" lon="11.44952" /><trkpt lat="45.50493" lon="11.44838" /><trkpt lat="45.50306" lon="11.44692" /><trkpt lat="45.50079" lon="11.44513" /><trkpt lat="45.49984" lon="11.44439" /><trkpt lat="45.49857" lon="11.44336" /><trkpt lat="45.49775" lon="11.44272" /><trkpt lat="45.4969" lon="11.44205" /><trkpt lat="45.49639" lon="11.44164" /><trkpt lat="45.4958" lon="11.44118" /><trkpt lat="45.49364" lon="11.43912" /><trkpt lat="45.49009" lon="11.43578" /><trkpt lat="45.48827" lon="11.43404" /><trkpt lat="45.4881" lon="11.43387" /><trkpt lat="45.48792" lon="11.43367" /><trkpt lat="45.48767" lon="11.4334" /><trkpt lat="45.48733" lon="11.43302" /><trkpt lat="45.48665" lon="11.43231" /><trkpt lat="45.48605" lon="11.43169" /><trkpt lat="45.48569" lon="11.43131" /><trkpt lat="45.4856" lon="11.43123" /><trkpt lat="45.48292" lon="11.42877" /><trkpt lat="45.4829" lon="11.42875" /><trkpt lat="45.48192" lon="11.42781" /><trkpt lat="45.48116" lon="11.42707" /><trkpt lat="45.4804" lon="11.42632" /><trkpt lat="45.4799" lon="11.42586" /><trkpt lat="45.47952" lon="11.42553" /><trkpt lat="45.47926" lon="11.42533" /><trkpt lat="45.47889" lon="11.42505" /><trkpt lat="45.47816" lon="11.42449" /><trkpt lat="45.47714" lon="11.42381" /><trkpt lat="45.47661" lon="11.42345" /><trkpt lat="45.47444" lon="11.42197" /><trkpt lat="45.47337" lon="11.42125" /><trkpt lat="45.47262" lon="11.42073" /><trkpt lat="45.47191" lon="11.42025" /><trkpt lat="45.46956" lon="11.41868" /><trkpt lat="45.46822" lon="11.41778" /><trkpt lat="45.46703" lon="11.41696" /><trkpt lat="45.46594" lon="11.41612" /><trkpt lat="45.4648" lon="11.4152" /><trkpt lat="45.46435" lon="11.41482" /><trkpt lat="45.46384" lon="11.41436" /><trkpt lat="45.46293" lon="11.4135" /><trkpt lat="45.46215" lon="11.41267" /><trkpt lat="45.46087" lon="11.41113" /><trkpt lat="45.46033" lon="11.41039" /><trkpt lat="45.45925" lon="11.40867" /><trkpt lat="45.45851" lon="11.4074" /><trkpt lat="45.45818" lon="11.40681" /><trkpt lat="45.45779" lon="11.40606" /><trkpt lat="45.4574" lon="11.40521" /><trkpt lat="45.45711" lon="11.40456" /><trkpt lat="45.45703" lon="11.40436" /><trkpt lat="45.45667" lon="11.40335" /><trkpt lat="45.45634" lon="11.4024" /><trkpt lat="45.45601" lon="11.40136" /><trkpt lat="45.45584" lon="11.40077" /><trkpt lat="45.45496" lon="11.39764" /><trkpt lat="45.45483" lon="11.39722" /><trkpt lat="45.4546" lon="11.3965" /><trkpt lat="45.45436" lon="11.3958" /><trkpt lat="45.45429" lon="11.39561" /><trkpt lat="45.45424" lon="11.39546" /><trkpt lat="45.45413" lon="11.39507" /><trkpt lat="45.45385" lon="11.39408" /><trkpt lat="45.45377" lon="11.39383" /><trkpt lat="45.45351" lon="11.39304" /><trkpt lat="45.45326" lon="11.39237" /><trkpt lat="45.45293" lon="11.39164" /><trkpt lat="45.4525" lon="11.39082" /><trkpt lat="45.45214" lon="11.39024" /><trkpt lat="45.45181" lon="11.38978" /><trkpt lat="45.45147" lon="11.38935" /><trkpt lat="45.45027" lon="11.38794" /><trkpt lat="45.44996" lon="11.38757" /><trkpt lat="45.44955" lon="11.38709" /><trkpt lat="45.44914" lon="11.38661" /><trkpt lat="45.44819" lon="11.38554" /><trkpt lat="45.44763" lon="11.38488" /><trkpt lat="45.44688" lon="11.38412" /><trkpt lat="45.44678" lon="11.384" /><trkpt lat="45.4453" lon="11.38229" /><trkpt lat="45.44283" lon="11.37947" /><trkpt lat="45.44195" lon="11.37842" /><trkpt lat="45.43986" lon="11.37594" /><trkpt lat="45.43847" lon="11.37432" /><trkpt lat="45.43641" lon="11.37194" /><trkpt lat="45.43266" lon="11.36759" /><trkpt lat="45.4291" lon="11.36348" /><trkpt lat="45.42617" lon="11.36007" /><trkpt lat="45.42299" lon="11.3564" /><trkpt lat="45.42025" lon="11.35322" /><trkpt lat="45.41812" lon="11.35075" /><trkpt lat="45.41566" lon="11.3479" /><trkpt lat="45.41423" lon="11.34624" /><trkpt lat="45.41324" lon="11.34508" /><trkpt lat="45.41293" lon="11.34471" /><trkpt lat="45.41274" lon="11.34446" /><trkpt lat="45.41251" lon="11.34419" /><trkpt lat="45.41221" lon="11.34371" /><trkpt lat="45.41193" lon="11.34327" /><trkpt lat="45.41176" lon="11.34294" /><trkpt lat="45.4115" lon="11.34245" /><trkpt lat="45.4112" lon="11.34177" /><trkpt lat="45.41091" lon="11.34107" /><trkpt lat="45.41068" lon="11.34044" /><trkpt lat="45.41049" lon="11.33982" /><trkpt lat="45.41036" lon="11.33933" /><trkpt lat="45.41021" lon="11.33868" /><trkpt lat="45.41005" lon="11.33787" /><trkpt lat="45.40991" lon="11.33693" /><trkpt lat="45.4097" lon="11.33514" /><trkpt lat="45.40922" lon="11.33088" /><trkpt lat="45.40893" lon="11.32842" /><trkpt lat="45.40833" lon="11.32321" /><trkpt lat="45.40792" lon="11.31959" /><trkpt lat="45.40767" lon="11.3174" /><trkpt lat="45.40751" lon="11.31605" /><trkpt lat="45.40687" lon="11.31049" /><trkpt lat="45.40656" lon="11.30779" /><trkpt lat="45.40655" lon="11.30769" /><trkpt lat="45.40621" lon="11.30476" /><trkpt lat="45.40554" lon="11.29895" /><trkpt lat="45.40512" lon="11.29532" /><trkpt lat="45.40423" lon="11.28733" /><trkpt lat="45.40375" lon="11.28312" /><trkpt lat="45.40367" lon="11.28245" /><trkpt lat="45.40352" lon="11.28118" /><trkpt lat="45.40342" lon="11.28028" /><trkpt lat="45.40336" lon="11.27979" /><trkpt lat="45.40309" lon="11.27754" /><trkpt lat="45.40301" lon="11.27691" /><trkpt lat="45.40293" lon="11.27625" /><trkpt lat="45.40273" lon="11.27452" /><trkpt lat="45.40258" lon="11.27321" /><trkpt lat="45.40237" lon="11.27127" /><trkpt lat="45.40214" lon="11.26916" /><trkpt lat="45.40202" lon="11.26821" /><trkpt lat="45.40201" lon="11.26808" /><trkpt lat="45.40196" lon="11.2677" /><trkpt lat="45.40165" lon="11.26501" /><trkpt lat="45.40155" lon="11.2639" /><trkpt lat="45.40151" lon="11.26334" /><trkpt lat="45.40148" lon="11.26279" /><trkpt lat="45.40148" lon="11.26263" /><trkpt lat="45.40148" lon="11.2618" /><trkpt lat="45.40148" lon="11.26096" /><trkpt lat="45.40151" lon="11.26012" /><trkpt lat="45.40154" lon="11.25927" /><trkpt lat="45.40157" lon="11.25843" /><trkpt lat="45.40158" lon="11.25806" /><trkpt lat="45.40162" lon="11.25676" /><trkpt lat="45.40167" lon="11.25604" /><trkpt lat="45.40176" lon="11.25521" /><trkpt lat="45.40186" lon="11.25446" /><trkpt lat="45.40207" lon="11.25324" /><trkpt lat="45.40211" lon="11.25302" /><trkpt lat="45.40279" lon="11.2494" /><trkpt lat="45.40334" lon="11.24634" /><trkpt lat="45.40359" lon="11.24492" /><trkpt lat="45.40442" lon="11.24056" /><trkpt lat="45.40596" lon="11.2321" /><trkpt lat="45.40689" lon="11.22708" /><trkpt lat="45.40785" lon="11.22166" /><trkpt lat="45.40787" lon="11.22153" /><trkpt lat="45.40852" lon="11.21822" /><trkpt lat="45.40874" lon="11.217" /><trkpt lat="45.40902" lon="11.21539" /><trkpt lat="45.40903" lon="11.21533" /><trkpt lat="45.40982" lon="11.21087" /><trkpt lat="45.40991" lon="11.21036" /><trkpt lat="45.41068" lon="11.20589" /><trkpt lat="45.41145" lon="11.20189" /><trkpt lat="45.41252" lon="11.19609" /><trkpt lat="45.41325" lon="11.19218" /><trkpt lat="45.41346" lon="11.19077" /><trkpt lat="45.4136" lon="11.18935" /><trkpt lat="45.41365" lon="11.18792" /><trkpt lat="45.41385" lon="11.1791" /><trkpt lat="45.41393" lon="11.17549" /><trkpt lat="45.41395" lon="11.1735" /><trkpt lat="45.41401" lon="11.17193" /><trkpt lat="45.41406" lon="11.16982" /><trkpt lat="45.41409" lon="11.16868" /><trkpt lat="45.41421" lon="11.16426" /><trkpt lat="45.41426" lon="11.16301" /><trkpt lat="45.41433" lon="11.16202" /><trkpt lat="45.41463" lon="11.15878" /><trkpt lat="45.41466" lon="11.15821" /><trkpt lat="45.41473" lon="11.15731" /><trkpt lat="45.41478" lon="11.15664" /><trkpt lat="45.41509" lon="11.15309" /><trkpt lat="45.41527" lon="11.15101" /><trkpt lat="45.41547" lon="11.14871" /><trkpt lat="45.41573" lon="11.14571" /><trkpt lat="45.41587" lon="11.14408" /><trkpt lat="45.41589" lon="11.14386" /><trkpt lat="45.41596" lon="11.14303" /><trkpt lat="45.41602" lon="11.14238" /><trkpt lat="45.41603" lon="11.14225" /><trkpt lat="45.41644" lon="11.13749" /><trkpt lat="45.41686" lon="11.13293" /><trkpt lat="45.41693" lon="11.13214" /><trkpt lat="45.41728" lon="11.12802" /><trkpt lat="45.41734" lon="11.12729" /><trkpt lat="45.4177" lon="11.12286" /><trkpt lat="45.41812" lon="11.11818" /><trkpt lat="45.41826" lon="11.11666" /><trkpt lat="45.41839" lon="11.11532" /><trkpt lat="45.41842" lon="11.11503" /><trkpt lat="45.41862" lon="11.11339" /><trkpt lat="45.41873" lon="11.11245" /><trkpt lat="45.41884" lon="11.11152" /><trkpt lat="45.41906" lon="11.10969" /><trkpt lat="45.41926" lon="11.10805" /><trkpt lat="45.41946" lon="11.10645" /><trkpt lat="45.41963" lon="11.105" /><trkpt lat="45.41978" lon="11.10375" /><trkpt lat="45.41997" lon="11.10216" /><trkpt lat="45.42018" lon="11.10041" /><trkpt lat="45.42023" lon="11.09992" /><trkpt lat="45.42026" lon="11.09974" /><trkpt lat="45.42031" lon="11.09926" /><trkpt lat="45.42032" lon="11.09916" /><trkpt lat="45.42036" lon="11.09888" /><trkpt lat="45.42048" lon="11.09782" /><trkpt lat="45.42061" lon="11.09672" /><trkpt lat="45.42074" lon="11.09566" /><trkpt lat="45.42105" lon="11.0931" /><trkpt lat="45.42135" lon="11.09054" /><trkpt lat="45.42152" lon="11.08921" /><trkpt lat="45.42155" lon="11.0889" /><trkpt lat="45.4217" lon="11.08766" /><trkpt lat="45.42184" lon="11.08652" /><trkpt lat="45.4221" lon="11.08435" /><trkpt lat="45.42213" lon="11.08414" /><trkpt lat="45.4222" lon="11.08353" /><trkpt lat="45.42225" lon="11.08312" /><trkpt lat="45.42227" lon="11.08291" /><trkpt lat="45.42228" lon="11.08284" /><trkpt lat="45.42229" lon="11.08273" /><trkpt lat="45.42248" lon="11.08109" /><trkpt lat="45.42261" lon="11.08002" /><trkpt lat="45.42274" lon="11.07895" /><trkpt lat="45.42298" lon="11.07699" /><trkpt lat="45.42316" lon="11.07544" /><trkpt lat="45.42328" lon="11.07444" /><trkpt lat="45.42343" lon="11.07321" /><trkpt lat="45.42355" lon="11.07215" /><trkpt lat="45.42362" lon="11.07158" /><trkpt lat="45.42369" lon="11.07095" /><trkpt lat="45.42389" lon="11.06935" /><trkpt lat="45.42404" lon="11.06808" /><trkpt lat="45.42415" lon="11.0672" /><trkpt lat="45.42428" lon="11.06606" /><trkpt lat="45.42431" lon="11.06585" /><trkpt lat="45.42448" lon="11.06441" /><trkpt lat="45.42461" lon="11.06328" /><trkpt lat="45.42473" lon="11.06229" /><trkpt lat="45.42502" lon="11.06019" /><trkpt lat="45.42522" lon="11.05899" /><trkpt lat="45.42526" lon="11.05871" /><trkpt lat="45.42531" lon="11.05835" /><trkpt lat="45.42549" lon="11.05685" /><trkpt lat="45.42565" lon="11.05547" /><trkpt lat="45.42582" lon="11.05405" /><trkpt lat="45.42588" lon="11.05357" /><trkpt lat="45.42593" lon="11.05311" /><trkpt lat="45.42599" lon="11.05273" /><trkpt lat="45.42609" lon="11.05214" /><trkpt lat="45.4262" lon="11.05161" /><trkpt lat="45.42631" lon="11.05111" /><trkpt lat="45.42644" lon="11.05063" /><trkpt lat="45.4266" lon="11.05017" /><trkpt lat="45.42669" lon="11.04992" /><trkpt lat="45.42679" lon="11.04969" /><trkpt lat="45.42705" lon="11.0491" /><trkpt lat="45.42734" lon="11.04853" /><trkpt lat="45.42772" lon="11.04789" /><trkpt lat="45.42793" lon="11.04756" /><trkpt lat="45.42815" lon="11.04725" /><trkpt lat="45.4286" lon="11.04667" /><trkpt lat="45.42897" lon="11.04626" /><trkpt lat="45.42933" lon="11.04591" /><trkpt lat="45.4296" lon="11.04567" /><trkpt lat="45.42991" lon="11.04541" /><trkpt lat="45.43023" lon="11.04515" /><trkpt lat="45.43053" lon="11.04494" /><trkpt lat="45.43087" lon="11.04467" /><trkpt lat="45.43101" lon="11.04457" /><trkpt lat="45.43143" lon="11.0442" /><trkpt lat="45.43182" lon="11.04381" /><trkpt lat="45.43208" lon="11.04352" /><trkpt lat="45.43221" lon="11.04337" /><trkpt lat="45.43234" lon="11.04322" /><trkpt lat="45.43259" lon="11.04289" /><trkpt lat="45.43286" lon="11.0425" /><trkpt lat="45.43323" lon="11.04192" /><trkpt lat="45.43352" lon="11.04141" /><trkpt lat="45.43374" lon="11.04101" /><trkpt lat="45.4338" lon="11.04089" /><trkpt lat="45.43388" lon="11.04071" /><trkpt lat="45.43396" lon="11.04054" /><trkpt lat="45.43412" lon="11.04018" /><trkpt lat="45.43433" lon="11.03964" /><trkpt lat="45.43452" lon="11.0391" /><trkpt lat="45.4348" lon="11.03822" /><trkpt lat="45.43499" lon="11.03745" /><trkpt lat="45.4352" lon="11.03644" /><trkpt lat="45.43539" lon="11.03545" /><trkpt lat="45.43565" lon="11.03408" /><trkpt lat="45.43586" lon="11.03304" /><trkpt lat="45.43603" lon="11.03214" /><trkpt lat="45.43624" lon="11.03122" /><trkpt lat="45.43645" lon="11.03015" /><trkpt lat="45.43654" lon="11.02961" /><trkpt lat="45.43661" lon="11.02907" /><trkpt lat="45.43666" lon="11.02852" /><trkpt lat="45.43668" lon="11.02803" /><trkpt lat="45.43669" lon="11.02748" /><trkpt lat="45.43666" lon="11.02692" /><trkpt lat="45.43662" lon="11.02637" /><trkpt lat="45.43653" lon="11.02566" /><trkpt lat="45.4364" lon="11.02503" /><trkpt lat="45.43558" lon="11.01944" /><trkpt lat="45.43524" lon="11.0171" /><trkpt lat="45.43508" lon="11.01598" /><trkpt lat="45.43497" lon="11.0152" /><trkpt lat="45.43491" lon="11.01481" /><trkpt lat="45.43488" lon="11.01462" /><trkpt lat="45.4348" lon="11.01409" /><trkpt lat="45.4347" lon="11.0134" /><trkpt lat="45.43463" lon="11.01306" /><trkpt lat="45.43456" lon="11.01273" /><trkpt lat="45.43445" lon="11.01233" /><trkpt lat="45.43433" lon="11.01198" /><trkpt lat="45.4342" lon="11.01165" /><trkpt lat="45.43408" lon="11.01136" /><trkpt lat="45.43397" lon="11.01114" /><trkpt lat="45.43387" lon="11.01094" /><trkpt lat="45.43356" lon="11.01043" /><trkpt lat="45.43333" lon="11.01011" /><trkpt lat="45.43318" lon="11.00993" /><trkpt lat="45.43307" lon="11.00979" /><trkpt lat="45.43297" lon="11.00968" /><trkpt lat="45.43279" lon="11.00947" /><trkpt lat="45.43253" lon="11.0092" /><trkpt lat="45.43234" lon="11.00898" /><trkpt lat="45.43221" lon="11.00884" /><trkpt lat="45.43209" lon="11.0087" /><trkpt lat="45.43184" lon="11.00843" /><trkpt lat="45.43164" lon="11.00821" /><trkpt lat="45.43116" lon="11.00767" /><trkpt lat="45.43092" lon="11.00741" /><trkpt lat="45.43082" lon="11.0073" /><trkpt lat="45.43035" lon="11.00679" /><trkpt lat="45.42989" lon="11.00627" /><trkpt lat="45.42938" lon="11.00571" /><trkpt lat="45.42865" lon="11.0049" /><trkpt lat="45.42843" lon="11.00466" /><trkpt lat="45.42817" lon="11.00438" /><trkpt lat="45.42791" lon="11.00408" /><trkpt lat="45.42736" lon="11.00346" /><trkpt lat="45.42713" lon="11.00319" /><trkpt lat="45.42688" lon="11.00284" /><trkpt lat="45.42666" lon="11.00248" /><trkpt lat="45.42657" lon="11.00231" /><trkpt lat="45.42649" lon="11.00216" /><trkpt lat="45.42641" lon="11.00199" /><trkpt lat="45.4263" lon="11.00168" /><trkpt lat="45.4262" lon="11.00136" /><trkpt lat="45.4261" lon="11.001" /><trkpt lat="45.42603" lon="11.00069" /><trkpt lat="45.42599" lon="11.00041" /><trkpt lat="45.42594" lon="11.00003" /><trkpt lat="45.42592" lon="10.99967" /><trkpt lat="45.42592" lon="10.99919" /><trkpt lat="45.42596" lon="10.99867" /><trkpt lat="45.42602" lon="10.99823" /><trkpt lat="45.42611" lon="10.99779" /><trkpt lat="45.42619" lon="10.99749" /><trkpt lat="45.42628" lon="10.99718" /><trkpt lat="45.4264" lon="10.99689" /><trkpt lat="45.42651" lon="10.99663" /><trkpt lat="45.42659" lon="10.99644" /><trkpt lat="45.42675" lon="10.99611" /><trkpt lat="45.42763" lon="10.99426" /><trkpt lat="45.42788" lon="10.99384" /><trkpt lat="45.42796" lon="10.99367" /><trkpt lat="45.42814" lon="10.99329" /><trkpt lat="45.42829" lon="10.9929" /><trkpt lat="45.42846" lon="10.99254" /><trkpt lat="45.42859" lon="10.99225" /><trkpt lat="45.42869" lon="10.99201" /><trkpt lat="45.42879" lon="10.99176" /><trkpt lat="45.42888" lon="10.99151" /><trkpt lat="45.42896" lon="10.99125" /><trkpt lat="45.42904" lon="10.99098" /><trkpt lat="45.4291" lon="10.99073" /><trkpt lat="45.42916" lon="10.99047" /><trkpt lat="45.42921" lon="10.99018" /><trkpt lat="45.42924" lon="10.98996" /><trkpt lat="45.42928" lon="10.9897" /><trkpt lat="45.4293" lon="10.98955" /><trkpt lat="45.42932" lon="10.98927" /><trkpt lat="45.42933" lon="10.98908" /><trkpt lat="45.42933" lon="10.98887" /><trkpt lat="45.42933" lon="10.98869" /><trkpt lat="45.4293" lon="10.98737" /><trkpt lat="45.42924" lon="10.98676" /><trkpt lat="45.42922" lon="10.98667" /><trkpt lat="45.42919" lon="10.9864" /><trkpt lat="45.42918" lon="10.98627" /><trkpt lat="45.42915" lon="10.98613" /><trkpt lat="45.4291" lon="10.98589" /><trkpt lat="45.42903" lon="10.98563" /><trkpt lat="45.42899" lon="10.98542" /><trkpt lat="45.42897" lon="10.9853" /><trkpt lat="45.42894" lon="10.98511" /><trkpt lat="45.42891" lon="10.98495" /><trkpt lat="45.42889" lon="10.98484" /><trkpt lat="45.42837" lon="10.98223" /><trkpt lat="45.42796" lon="10.98005" /><trkpt lat="45.4277" lon="10.9787" /><trkpt lat="45.42745" lon="10.97752" /><trkpt lat="45.42735" lon="10.97705" /><trkpt lat="45.42725" lon="10.97634" /><trkpt lat="45.42721" lon="10.97604" /><trkpt lat="45.42717" lon="10.97573" /><trkpt lat="45.42689" lon="10.97448" /><trkpt lat="45.42665" lon="10.9734" /><trkpt lat="45.4264" lon="10.97226" /><trkpt lat="45.42616" lon="10.9712" /><trkpt lat="45.42592" lon="10.9701" /><trkpt lat="45.42585" lon="10.96981" /><trkpt lat="45.42581" lon="10.96953" /><trkpt lat="45.42576" lon="10.96926" /><trkpt lat="45.42573" lon="10.96902" /><trkpt lat="45.4257" lon="10.96875" /><trkpt lat="45.42567" lon="10.96844" /><trkpt lat="45.42565" lon="10.96814" /><trkpt lat="45.42564" lon="10.96784" /><trkpt lat="45.42563" lon="10.96756" /><trkpt lat="45.42564" lon="10.9673" /><trkpt lat="45.42565" lon="10.96701" /><trkpt lat="45.42566" lon="10.96671" /><trkpt lat="45.42569" lon="10.96643" /><trkpt lat="45.42572" lon="10.96615" /><trkpt lat="45.42576" lon="10.96589" /><trkpt lat="45.42579" lon="10.96566" /><trkpt lat="45.42585" lon="10.96537" /><trkpt lat="45.4259" lon="10.96511" /><trkpt lat="45.42596" lon="10.96484" /><trkpt lat="45.42603" lon="10.96454" /><trkpt lat="45.42615" lon="10.964" /><trkpt lat="45.42635" lon="10.96314" /><trkpt lat="45.42647" lon="10.96252" /><trkpt lat="45.42653" lon="10.96219" /><trkpt lat="45.42661" lon="10.96171" /><trkpt lat="45.42666" lon="10.96137" /><trkpt lat="45.42674" lon="10.96085" /><trkpt lat="45.42681" lon="10.96031" /><trkpt lat="45.42684" lon="10.95996" /><trkpt lat="45.42687" lon="10.95967" /><trkpt lat="45.4269" lon="10.95934" /><trkpt lat="45.42692" lon="10.95904" /><trkpt lat="45.42694" lon="10.95871" /><trkpt lat="45.42696" lon="10.95837" /><trkpt lat="45.42697" lon="10.95807" /><trkpt lat="45.42698" lon="10.95779" /><trkpt lat="45.42699" lon="10.95751" /><trkpt lat="45.42699" lon="10.95721" /><trkpt lat="45.42699" lon="10.95692" /><trkpt lat="45.427" lon="10.95548" /><trkpt lat="45.42701" lon="10.95446" /><trkpt lat="45.42701" lon="10.95342" /><trkpt lat="45.42701" lon="10.95265" /><trkpt lat="45.42702" lon="10.95112" /><trkpt lat="45.42703" lon="10.94947" /><trkpt lat="45.42703" lon="10.94815" /><trkpt lat="45.42704" lon="10.94668" /><trkpt lat="45.42704" lon="10.94574" /><trkpt lat="45.42704" lon="10.94538" /><trkpt lat="45.42704" lon="10.94456" /><trkpt lat="45.42704" lon="10.94314" /><trkpt lat="45.42704" lon="10.94252" /><trkpt lat="45.42705" lon="10.94183" /><trkpt lat="45.42705" lon="10.94062" /><trkpt lat="45.42705" lon="10.93998" /><trkpt lat="45.42706" lon="10.93923" /><trkpt lat="45.42706" lon="10.93847" /><trkpt lat="45.42707" lon="10.93811" /><trkpt lat="45.42707" lon="10.93725" /><trkpt lat="45.4271" lon="10.93489" /><trkpt lat="45.4271" lon="10.93343" /><trkpt lat="45.42711" lon="10.93155" /><trkpt lat="45.42712" lon="10.93113" /><trkpt lat="45.42713" lon="10.92859" /><trkpt lat="45.42713" lon="10.92696" /><trkpt lat="45.42714" lon="10.92541" /><trkpt lat="45.42715" lon="10.9228" /><trkpt lat="45.42716" lon="10.92061" /><trkpt lat="45.42717" lon="10.91911" /><trkpt lat="45.42717" lon="10.91858" /><trkpt lat="45.42718" lon="10.91687" /><trkpt lat="45.42718" lon="10.91672" /><trkpt lat="45.42719" lon="10.91497" /><trkpt lat="45.42719" lon="10.91438" /><trkpt lat="45.42719" lon="10.91435" /><trkpt lat="45.42719" lon="10.91285" /><trkpt lat="45.4272" lon="10.91206" /><trkpt lat="45.4272" lon="10.91181" /><trkpt lat="45.4272" lon="10.91172" /><trkpt lat="45.4272" lon="10.91124" /><trkpt lat="45.42721" lon="10.91056" /><trkpt lat="45.42722" lon="10.909" /><trkpt lat="45.42722" lon="10.90845" /><trkpt lat="45.42722" lon="10.90772" /><trkpt lat="45.42722" lon="10.90718" /><trkpt lat="45.42723" lon="10.90569" /><trkpt lat="45.42723" lon="10.90389" /><trkpt lat="45.42724" lon="10.90279" /><trkpt lat="45.42724" lon="10.90133" /><trkpt lat="45.42724" lon="10.90073" /><trkpt lat="45.42725" lon="10.89839" /><trkpt lat="45.42726" lon="10.89696" /><trkpt lat="45.42727" lon="10.8939" /><trkpt lat="45.42728" lon="10.89128" /><trkpt lat="45.42729" lon="10.89077" /><trkpt lat="45.42729" lon="10.89014" /><trkpt lat="45.42729" lon="10.88922" /><trkpt lat="45.42733" lon="10.88709" /><trkpt lat="45.42734" lon="10.88644" /><trkpt lat="45.42735" lon="10.8851" /><trkpt lat="45.42735" lon="10.88411" /><trkpt lat="45.42735" lon="10.88402" /><trkpt lat="45.42735" lon="10.88214" /><trkpt lat="45.42737" lon="10.87607" /><trkpt lat="45.42738" lon="10.87437" /><trkpt lat="45.42739" lon="10.87164" /><trkpt lat="45.42739" lon="10.87036" /><trkpt lat="45.42739" lon="10.86969" /><trkpt lat="45.42741" lon="10.86213" /><trkpt lat="45.42742" lon="10.85907" /><trkpt lat="45.42744" lon="10.85645" /><trkpt lat="45.42745" lon="10.85459" /><trkpt lat="45.42746" lon="10.85231" /><trkpt lat="45.42746" lon="10.85221" /><trkpt lat="45.42746" lon="10.85158" /><trkpt lat="45.42744" lon="10.8511" /><trkpt lat="45.4274" lon="10.8504" /><trkpt lat="45.42735" lon="10.84985" /><trkpt lat="45.42728" lon="10.84927" /><trkpt lat="45.4272" lon="10.84876" /><trkpt lat="45.42708" lon="10.84814" /><trkpt lat="45.42694" lon="10.84745" /><trkpt lat="45.42689" lon="10.84721" /><trkpt lat="45.4267" lon="10.84632" /><trkpt lat="45.4265" lon="10.84536" /><trkpt lat="45.42632" lon="10.84442" /><trkpt lat="45.42615" lon="10.84356" /><trkpt lat="45.42603" lon="10.84293" /><trkpt lat="45.42597" lon="10.84264" /><trkpt lat="45.42568" lon="10.84118" /><trkpt lat="45.42559" lon="10.84072" /><trkpt lat="45.42543" lon="10.83983" /><trkpt lat="45.42521" lon="10.83864" /><trkpt lat="45.42507" lon="10.83787" /><trkpt lat="45.42492" lon="10.8371" /><trkpt lat="45.42474" lon="10.8362" /><trkpt lat="45.42452" lon="10.83513" /><trkpt lat="45.42444" lon="10.83457" /><trkpt lat="45.42428" lon="10.83378" /><trkpt lat="45.42385" lon="10.83172" /><trkpt lat="45.42362" lon="10.83073" /><trkpt lat="45.42347" lon="10.8301" /><trkpt lat="45.42318" lon="10.82889" /><trkpt lat="45.42306" lon="10.82835" /><trkpt lat="45.42277" lon="10.82696" /><trkpt lat="45.42273" lon="10.82675" /><trkpt lat="45.42191" lon="10.82275" /><trkpt lat="45.42163" lon="10.82123" /><trkpt lat="45.42158" lon="10.82074" /><trkpt lat="45.42155" lon="10.82052" /><trkpt lat="45.42146" lon="10.81971" /><trkpt lat="45.4214" lon="10.81881" /><trkpt lat="45.42135" lon="10.81794" /><trkpt lat="45.42135" lon="10.81676" /><trkpt lat="45.42144" lon="10.81539" /><trkpt lat="45.42161" lon="10.81395" /><trkpt lat="45.42206" lon="10.81132" /><trkpt lat="45.42251" lon="10.80811" /><trkpt lat="45.42274" lon="10.80643" /><trkpt lat="45.42337" lon="10.8017" /><trkpt lat="45.42417" lon="10.79633" /><trkpt lat="45.42509" lon="10.79095" /><trkpt lat="45.42569" lon="10.78767" /><trkpt lat="45.42582" lon="10.78689" /><trkpt lat="45.42594" lon="10.78622" /><trkpt lat="45.42652" lon="10.78296" /><trkpt lat="45.42726" lon="10.77824" /><trkpt lat="45.42792" lon="10.77481" /><trkpt lat="45.42794" lon="10.77467" /><trkpt lat="45.42832" lon="10.77203" /><trkpt lat="45.42968" lon="10.76456" /><trkpt lat="45.4297" lon="10.76442" /><trkpt lat="45.43021" lon="10.76136" /><trkpt lat="45.43038" lon="10.76041" /><trkpt lat="45.43054" lon="10.75952" /><trkpt lat="45.43064" lon="10.75908" /><trkpt lat="45.43077" lon="10.75856" /><trkpt lat="45.43096" lon="10.7578" /><trkpt lat="45.43295" lon="10.75004" /><trkpt lat="45.43407" lon="10.74562" /><trkpt lat="45.43515" lon="10.74141" /><trkpt lat="45.43672" lon="10.73527" /><trkpt lat="45.43746" lon="10.73231" /><trkpt lat="45.43751" lon="10.73214" /><trkpt lat="45.43766" lon="10.73152" /><trkpt lat="45.43857" lon="10.72796" /><trkpt lat="45.43895" lon="10.72649" /><trkpt lat="45.44071" lon="10.71957" /><trkpt lat="45.44086" lon="10.71899" /><trkpt lat="45.44113" lon="10.71794" /><trkpt lat="45.44129" lon="10.71732" /><trkpt lat="45.44134" lon="10.71712" /><trkpt lat="45.44188" lon="10.71502" /><trkpt lat="45.44203" lon="10.7143" /><trkpt lat="45.44214" lon="10.71347" /><trkpt lat="45.44219" lon="10.71276" /><trkpt lat="45.44221" lon="10.7123" /><trkpt lat="45.44221" lon="10.71188" /><trkpt lat="45.44219" lon="10.71146" /><trkpt lat="45.44217" lon="10.71095" /><trkpt lat="45.44212" lon="10.7104" /><trkpt lat="45.44204" lon="10.70983" /><trkpt lat="45.44196" lon="10.70931" /><trkpt lat="45.44191" lon="10.70901" /><trkpt lat="45.44184" lon="10.70864" /><trkpt lat="45.44174" lon="10.70827" /><trkpt lat="45.44166" lon="10.70796" /><trkpt lat="45.44151" lon="10.70747" /><trkpt lat="45.44132" lon="10.70691" /><trkpt lat="45.44119" lon="10.70657" /><trkpt lat="45.44103" lon="10.70624" /><trkpt lat="45.44084" lon="10.70583" /><trkpt lat="45.44062" lon="10.7054" /><trkpt lat="45.44037" lon="10.70501" /><trkpt lat="45.43999" lon="10.70448" /><trkpt lat="45.43848" lon="10.70249" /><trkpt lat="45.43813" lon="10.70203" /><trkpt lat="45.43753" lon="10.70123" /><trkpt lat="45.43744" lon="10.70112" /><trkpt lat="45.43668" lon="10.7001" /><trkpt lat="45.43639" lon="10.69967" /><trkpt lat="45.43616" lon="10.69925" /><trkpt lat="45.43596" lon="10.69883" /><trkpt lat="45.43572" lon="10.69823" /><trkpt lat="45.43553" lon="10.69762" /><trkpt lat="45.43536" lon="10.69695" /><trkpt lat="45.43525" lon="10.69641" /><trkpt lat="45.43516" lon="10.69586" /><trkpt lat="45.43511" lon="10.69544" /><trkpt lat="45.43507" lon="10.69502" /><trkpt lat="45.43504" lon="10.69451" /><trkpt lat="45.43504" lon="10.69398" /><trkpt lat="45.43505" lon="10.69345" /><trkpt lat="45.4351" lon="10.69289" /><trkpt lat="45.43515" lon="10.6924" /><trkpt lat="45.43521" lon="10.69198" /><trkpt lat="45.43529" lon="10.69156" /><trkpt lat="45.43544" lon="10.69094" /><trkpt lat="45.43552" lon="10.69067" /><trkpt lat="45.4356" lon="10.6904" /><trkpt lat="45.43575" lon="10.68996" /><trkpt lat="45.43597" lon="10.68941" /><trkpt lat="45.43645" lon="10.68824" /><trkpt lat="45.4369" lon="10.68716" /><trkpt lat="45.43735" lon="10.68607" /><trkpt lat="45.43776" lon="10.68511" /><trkpt lat="45.4381" lon="10.68425" /><trkpt lat="45.43841" lon="10.68343" /><trkpt lat="45.4387" lon="10.68261" /><trkpt lat="45.43931" lon="10.68073" /><trkpt lat="45.43951" lon="10.68015" /><trkpt lat="45.44024" lon="10.67794" /><trkpt lat="45.44041" lon="10.67745" /><trkpt lat="45.44065" lon="10.67672" /><trkpt lat="45.44081" lon="10.67626" /><trkpt lat="45.44105" lon="10.67553" /><trkpt lat="45.4414" lon="10.6744" /><trkpt lat="45.44148" lon="10.67414" /><trkpt lat="45.44156" lon="10.67382" /><trkpt lat="45.44166" lon="10.67337" /><trkpt lat="45.44173" lon="10.67305" /><trkpt lat="45.44181" lon="10.67264" /><trkpt lat="45.44191" lon="10.67205" /><trkpt lat="45.44195" lon="10.67171" /><trkpt lat="45.442" lon="10.67133" /><trkpt lat="45.44206" lon="10.67061" /><trkpt lat="45.44209" lon="10.67019" /><trkpt lat="45.4421" lon="10.66976" /><trkpt lat="45.4421" lon="10.6691" /><trkpt lat="45.44209" lon="10.66862" /><trkpt lat="45.44207" lon="10.66817" /><trkpt lat="45.44205" lon="10.66783" /><trkpt lat="45.44202" lon="10.66752" /><trkpt lat="45.44198" lon="10.66715" /><trkpt lat="45.44176" lon="10.66502" /><trkpt lat="45.44151" lon="10.66267" /><trkpt lat="45.44126" lon="10.66026" /><trkpt lat="45.44105" lon="10.65807" /><trkpt lat="45.44072" lon="10.65491" /><trkpt lat="45.4407" lon="10.65474" /><trkpt lat="45.44028" lon="10.65062" /><trkpt lat="45.43983" lon="10.64627" /><trkpt lat="45.43941" lon="10.6421" /><trkpt lat="45.43921" lon="10.64018" /><trkpt lat="45.43919" lon="10.64004" /><trkpt lat="45.43879" lon="10.63608" /><trkpt lat="45.43818" lon="10.63029" /><trkpt lat="45.43774" lon="10.62592" /><trkpt lat="45.43727" lon="10.62142" /><trkpt lat="45.43687" lon="10.6175" /><trkpt lat="45.43652" lon="10.61405" /><trkpt lat="45.43613" lon="10.61025" /><trkpt lat="45.43583" lon="10.60737" /><trkpt lat="45.43563" lon="10.60543" /><trkpt lat="45.43556" lon="10.60483" /><trkpt lat="45.43551" lon="10.60424" /><trkpt lat="45.43548" lon="10.60382" /><trkpt lat="45.43546" lon="10.60339" /><trkpt lat="45.43545" lon="10.60295" /><trkpt lat="45.43545" lon="10.60233" /><trkpt lat="45.43548" lon="10.60173" /><trkpt lat="45.4355" lon="10.60139" /><trkpt lat="45.43553" lon="10.60101" /><trkpt lat="45.43562" lon="10.60024" /><trkpt lat="45.43569" lon="10.59979" /><trkpt lat="45.43577" lon="10.59935" /><trkpt lat="45.4359" lon="10.59874" /><trkpt lat="45.43598" lon="10.59843" /><trkpt lat="45.43606" lon="10.59813" /><trkpt lat="45.4362" lon="10.59765" /><trkpt lat="45.43629" lon="10.59736" /><trkpt lat="45.43639" lon="10.59707" /><trkpt lat="45.43649" lon="10.59678" /><trkpt lat="45.4366" lon="10.59651" /><trkpt lat="45.43682" lon="10.59597" /><trkpt lat="45.4373" lon="10.59487" /><trkpt lat="45.43805" lon="10.59315" /><trkpt lat="45.43883" lon="10.59136" /><trkpt lat="45.43958" lon="10.58961" /><trkpt lat="45.44072" lon="10.58699" /><trkpt lat="45.44202" lon="10.584" /><trkpt lat="45.44495" lon="10.57727" /><trkpt lat="45.44521" lon="10.57663" /><trkpt lat="45.44785" lon="10.57055" /><trkpt lat="45.44885" lon="10.56835" /><trkpt lat="45.45001" lon="10.56565" /><trkpt lat="45.45211" lon="10.56077" /><trkpt lat="45.45429" lon="10.55573" /><trkpt lat="45.45518" lon="10.55368" /><trkpt lat="45.45596" lon="10.55189" /><trkpt lat="45.45751" lon="10.54832" /><trkpt lat="45.45763" lon="10.54803" /><trkpt lat="45.45809" lon="10.54699" /><trkpt lat="45.45834" lon="10.5464" /><trkpt lat="45.4586" lon="10.54581" /><trkpt lat="45.45932" lon="10.54413" /><trkpt lat="45.45939" lon="10.54396" /><trkpt lat="45.45959" lon="10.54351" /><trkpt lat="45.46055" lon="10.54127" /><trkpt lat="45.4612" lon="10.53979" /><trkpt lat="45.46151" lon="10.539" /><trkpt lat="45.46267" lon="10.53634" /><trkpt lat="45.4635" lon="10.53444" /><trkpt lat="45.46376" lon="10.53388" /><trkpt lat="45.46405" lon="10.53321" /><trkpt lat="45.46462" lon="10.53191" /><trkpt lat="45.46504" lon="10.53094" /><trkpt lat="45.46678" lon="10.52694" /><trkpt lat="45.46714" lon="10.52604" /><trkpt lat="45.46741" lon="10.52528" /><trkpt lat="45.46756" lon="10.52479" /><trkpt lat="45.4677" lon="10.5243" /><trkpt lat="45.46788" lon="10.52359" /><trkpt lat="45.46804" lon="10.52288" /><trkpt lat="45.46823" lon="10.52154" /><trkpt lat="45.46829" lon="10.52084" /><trkpt lat="45.46833" lon="10.5199" /><trkpt lat="45.46834" lon="10.51917" /><trkpt lat="45.46831" lon="10.51838" /><trkpt lat="45.46828" lon="10.51781" /><trkpt lat="45.46823" lon="10.51723" /><trkpt lat="45.46819" lon="10.51692" /><trkpt lat="45.46815" lon="10.51654" /><trkpt lat="45.46806" lon="10.51595" /><trkpt lat="45.46797" lon="10.51545" /><trkpt lat="45.46787" lon="10.51497" /><trkpt lat="45.46771" lon="10.51435" /><trkpt lat="45.46753" lon="10.51374" /><trkpt lat="45.46745" lon="10.51348" /><trkpt lat="45.46735" lon="10.51317" /><trkpt lat="45.4672" lon="10.51275" /><trkpt lat="45.46633" lon="10.51056" /><trkpt lat="45.46555" lon="10.50857" /><trkpt lat="45.46392" lon="10.50448" /><trkpt lat="45.46121" lon="10.49768" /><trkpt lat="45.46067" lon="10.49636" /><trkpt lat="45.46018" lon="10.49513" /><trkpt lat="45.45979" lon="10.49416" /><trkpt lat="45.45925" lon="10.49276" /><trkpt lat="45.45831" lon="10.49048" /><trkpt lat="45.45802" lon="10.48972" /><trkpt lat="45.45786" lon="10.4893" /><trkpt lat="45.4577" lon="10.48883" /><trkpt lat="45.45754" lon="10.48824" /><trkpt lat="45.45739" lon="10.48766" /><trkpt lat="45.4572" lon="10.48677" /><trkpt lat="45.45708" lon="10.48605" /><trkpt lat="45.457" lon="10.48543" /><trkpt lat="45.45696" lon="10.48491" /><trkpt lat="45.45693" lon="10.48444" /><trkpt lat="45.45692" lon="10.48401" /><trkpt lat="45.45692" lon="10.48347" /><trkpt lat="45.45695" lon="10.48269" /><trkpt lat="45.45699" lon="10.48213" /><trkpt lat="45.45702" lon="10.48178" /><trkpt lat="45.45707" lon="10.4814" /><trkpt lat="45.45711" lon="10.48108" /><trkpt lat="45.45722" lon="10.4804" /><trkpt lat="45.45732" lon="10.47992" /><trkpt lat="45.45743" lon="10.47938" /><trkpt lat="45.45777" lon="10.47808" /><trkpt lat="45.45848" lon="10.47554" /><trkpt lat="45.45894" lon="10.47392" /><trkpt lat="45.4594" lon="10.47231" /><trkpt lat="45.46007" lon="10.46992" /><trkpt lat="45.4603" lon="10.46908" /><trkpt lat="45.46035" lon="10.46891" /><trkpt lat="45.46148" lon="10.46487" /><trkpt lat="45.46258" lon="10.46091" /><trkpt lat="45.46266" lon="10.4606" /><trkpt lat="45.46316" lon="10.45881" /><trkpt lat="45.46319" lon="10.4587" /><trkpt lat="45.4645" lon="10.45401" /><trkpt lat="45.46512" lon="10.45182" /><trkpt lat="45.46515" lon="10.45172" /><trkpt lat="45.4654" lon="10.45083" /><trkpt lat="45.46618" lon="10.44802" /><trkpt lat="45.46775" lon="10.44235" /><trkpt lat="45.46822" lon="10.44069" /><trkpt lat="45.46825" lon="10.44057" /><trkpt lat="45.46896" lon="10.43803" /><trkpt lat="45.4702" lon="10.43359" /><trkpt lat="45.47026" lon="10.43338" /><trkpt lat="45.47136" lon="10.42948" /><trkpt lat="45.47222" lon="10.42639" /><trkpt lat="45.4732" lon="10.42286" /><trkpt lat="45.47347" lon="10.42189" /><trkpt lat="45.47361" lon="10.42138" /><trkpt lat="45.47372" lon="10.42089" /><trkpt lat="45.47389" lon="10.42006" /><trkpt lat="45.47401" lon="10.41927" /><trkpt lat="45.4741" lon="10.41858" /><trkpt lat="45.47414" lon="10.41792" /><trkpt lat="45.47418" lon="10.41703" /><trkpt lat="45.47417" lon="10.41625" /><trkpt lat="45.47414" lon="10.41557" /><trkpt lat="45.47402" lon="10.41316" /><trkpt lat="45.4739" lon="10.41101" /><trkpt lat="45.47389" lon="10.41091" /><trkpt lat="45.47388" lon="10.41066" /><trkpt lat="45.47383" lon="10.4097" /><trkpt lat="45.47379" lon="10.40905" /><trkpt lat="45.47365" lon="10.40642" /><trkpt lat="45.47362" lon="10.40579" /><trkpt lat="45.47354" lon="10.40441" /><trkpt lat="45.47347" lon="10.40309" /><trkpt lat="45.47343" lon="10.4023" /><trkpt lat="45.47339" lon="10.40166" /><trkpt lat="45.47339" lon="10.40153" /><trkpt lat="45.47331" lon="10.40012" /><trkpt lat="45.47319" lon="10.39796" /><trkpt lat="45.47302" lon="10.3949" /><trkpt lat="45.47298" lon="10.39411" /><trkpt lat="45.47294" lon="10.39337" /><trkpt lat="45.4729" lon="10.39259" /><trkpt lat="45.47286" lon="10.39184" /><trkpt lat="45.47282" lon="10.39107" /><trkpt lat="45.47278" lon="10.39042" /><trkpt lat="45.47275" lon="10.38979" /><trkpt lat="45.47273" lon="10.38878" /><trkpt lat="45.47273" lon="10.38802" /><trkpt lat="45.47275" lon="10.38738" /><trkpt lat="45.47277" lon="10.38668" /><trkpt lat="45.47281" lon="10.38602" /><trkpt lat="45.47288" lon="10.38519" /><trkpt lat="45.47291" lon="10.38481" /><trkpt lat="45.47295" lon="10.38446" /><trkpt lat="45.47304" lon="10.38369" /><trkpt lat="45.47315" lon="10.38296" /><trkpt lat="45.47328" lon="10.3822" /><trkpt lat="45.47343" lon="10.38147" /><trkpt lat="45.47351" lon="10.38105" /><trkpt lat="45.47358" lon="10.38073" /><trkpt lat="45.47375" lon="10.38001" /><trkpt lat="45.47393" lon="10.37929" /><trkpt lat="45.47415" lon="10.37856" /><trkpt lat="45.47435" lon="10.37789" /><trkpt lat="45.47458" lon="10.37719" /><trkpt lat="45.47483" lon="10.37651" /><trkpt lat="45.47508" lon="10.37584" /><trkpt lat="45.47546" lon="10.37493" /><trkpt lat="45.47579" lon="10.37417" /><trkpt lat="45.47624" lon="10.37313" /><trkpt lat="45.47633" lon="10.37292" /><trkpt lat="45.47646" lon="10.37264" /><trkpt lat="45.47716" lon="10.371" /><trkpt lat="45.47911" lon="10.36651" /><trkpt lat="45.48032" lon="10.36372" /><trkpt lat="45.48123" lon="10.3616" /><trkpt lat="45.48124" lon="10.36158" /><trkpt lat="45.48126" lon="10.36154" /><trkpt lat="45.48129" lon="10.36148" /><trkpt lat="45.48277" lon="10.35805" /><trkpt lat="45.48302" lon="10.35748" /><trkpt lat="45.48472" lon="10.35357" /><trkpt lat="45.48672" lon="10.34893" /><trkpt lat="45.48738" lon="10.34739" /><trkpt lat="45.4906" lon="10.33996" /><trkpt lat="45.49184" lon="10.3371" /><trkpt lat="45.49207" lon="10.33657" /><trkpt lat="45.49429" lon="10.33143" /><trkpt lat="45.49543" lon="10.32881" /><trkpt lat="45.49632" lon="10.32671" /><trkpt lat="45.49654" lon="10.32622" /><trkpt lat="45.49657" lon="10.32615" /><trkpt lat="45.49659" lon="10.3261" /><trkpt lat="45.4972" lon="10.32469" /><trkpt lat="45.49872" lon="10.3212" /><trkpt lat="45.49882" lon="10.32096" /><trkpt lat="45.499" lon="10.32043" /><trkpt lat="45.49947" lon="10.31936" /><trkpt lat="45.50013" lon="10.31784" /><trkpt lat="45.50028" lon="10.3175" /><trkpt lat="45.50107" lon="10.31565" /><trkpt lat="45.50174" lon="10.3141" /><trkpt lat="45.50254" lon="10.31226" /><trkpt lat="45.50318" lon="10.31078" /><trkpt lat="45.50373" lon="10.30953" /><trkpt lat="45.50432" lon="10.30817" /><trkpt lat="45.50435" lon="10.30808" /><trkpt lat="45.50463" lon="10.30744" /><trkpt lat="45.50563" lon="10.30514" /><trkpt lat="45.50624" lon="10.30373" /><trkpt lat="45.50686" lon="10.30231" /><trkpt lat="45.50735" lon="10.30116" /><trkpt lat="45.50855" lon="10.29838" /><trkpt lat="45.50863" lon="10.29818" /><trkpt lat="45.5099" lon="10.29528" /><trkpt lat="45.51363" lon="10.28665" /><trkpt lat="45.51942" lon="10.27324" /><trkpt lat="45.51944" lon="10.27318" /><trkpt lat="45.5197" lon="10.27259" /><trkpt lat="45.52312" lon="10.26467" /><trkpt lat="45.52318" lon="10.26453" /><trkpt lat="45.52582" lon="10.25842" /><trkpt lat="45.5266" lon="10.25663" /><trkpt lat="45.52679" lon="10.25619" /><trkpt lat="45.52699" lon="10.25573" /><trkpt lat="45.52718" lon="10.25527" /><trkpt lat="45.52736" lon="10.25483" /><trkpt lat="45.5275" lon="10.25447" /><trkpt lat="45.52766" lon="10.25404" /><trkpt lat="45.52777" lon="10.25373" /><trkpt lat="45.52788" lon="10.25341" /><trkpt lat="45.52804" lon="10.2529" /><trkpt lat="45.5282" lon="10.25232" /><trkpt lat="45.52832" lon="10.25189" /><trkpt lat="45.52848" lon="10.25122" /><trkpt lat="45.52864" lon="10.25045" /><trkpt lat="45.52876" lon="10.2498" /><trkpt lat="45.52884" lon="10.24931" /><trkpt lat="45.52895" lon="10.24858" /><trkpt lat="45.52903" lon="10.24773" /><trkpt lat="45.52908" lon="10.24713" /><trkpt lat="45.52911" lon="10.24655" /><trkpt lat="45.52913" lon="10.24618" /><trkpt lat="45.52916" lon="10.24532" /><trkpt lat="45.5292" lon="10.24428" /><trkpt lat="45.52926" lon="10.24237" /><trkpt lat="45.52932" lon="10.24045" /><trkpt lat="45.52935" lon="10.23968" /><trkpt lat="45.52938" lon="10.23859" /><trkpt lat="45.52944" lon="10.23703" /><trkpt lat="45.52955" lon="10.2338" /><trkpt lat="45.52956" lon="10.2336" /><trkpt lat="45.52976" lon="10.22745" /><trkpt lat="45.52977" lon="10.22713" /><trkpt lat="45.52977" lon="10.22697" /><trkpt lat="45.52978" lon="10.22678" /><trkpt lat="45.52982" lon="10.22574" /><trkpt lat="45.52982" lon="10.22565" /><trkpt lat="45.52983" lon="10.22549" /><trkpt lat="45.52984" lon="10.22508" /><trkpt lat="45.52986" lon="10.22439" /><trkpt lat="45.52988" lon="10.22403" /><trkpt lat="45.5299" lon="10.22378" /><trkpt lat="45.52991" lon="10.22357" /><trkpt lat="45.52994" lon="10.22322" /><trkpt lat="45.53001" lon="10.22268" /><trkpt lat="45.53009" lon="10.22211" /><trkpt lat="45.53019" lon="10.22153" /><trkpt lat="45.53026" lon="10.22109" /><trkpt lat="45.53041" lon="10.22049" /><trkpt lat="45.53052" lon="10.22006" /><trkpt lat="45.5306" lon="10.21972" /><trkpt lat="45.53085" lon="10.21874" /><trkpt lat="45.53122" lon="10.21722" /><trkpt lat="45.53128" lon="10.21697" /><trkpt lat="45.53156" lon="10.21581" /><trkpt lat="45.53228" lon="10.21281" /><trkpt lat="45.53266" lon="10.21132" /><trkpt lat="45.53301" lon="10.20989" /><trkpt lat="45.5331" lon="10.20962" /><trkpt lat="45.53318" lon="10.20935" /><trkpt lat="45.53326" lon="10.20899" /><trkpt lat="45.53338" lon="10.20846" /><trkpt lat="45.53348" lon="10.20792" /><trkpt lat="45.53356" lon="10.20737" /><trkpt lat="45.53362" lon="10.20697" /><trkpt lat="45.53366" lon="10.20647" /><trkpt lat="45.53373" lon="10.20554" /><trkpt lat="45.53377" lon="10.20451" /><trkpt lat="45.53386" lon="10.20329" /><trkpt lat="45.53399" lon="10.20136" /><trkpt lat="45.53401" lon="10.20107" /><trkpt lat="45.53411" lon="10.19973" /><trkpt lat="45.53426" lon="10.19752" /><trkpt lat="45.53451" lon="10.19407" /><trkpt lat="45.53472" lon="10.19108" /><trkpt lat="45.53494" lon="10.18793" /><trkpt lat="45.53528" lon="10.18313" /><trkpt lat="45.53538" lon="10.18165" /><trkpt lat="45.53545" lon="10.18057" /><trkpt lat="45.53546" lon="10.18045" /><trkpt lat="45.53551" lon="10.17974" /><trkpt lat="45.53559" lon="10.17866" /><trkpt lat="45.53563" lon="10.17822" /><trkpt lat="45.53567" lon="10.17782" /><trkpt lat="45.53573" lon="10.17739" /><trkpt lat="45.53578" lon="10.17703" /><trkpt lat="45.53589" lon="10.17652" /><trkpt lat="45.536" lon="10.17604" /><trkpt lat="45.53606" lon="10.1758" /><trkpt lat="45.53613" lon="10.17557" /><trkpt lat="45.53626" lon="10.17515" /><trkpt lat="45.53652" lon="10.17439" /><trkpt lat="45.53656" lon="10.17427" /><trkpt lat="45.53688" lon="10.17338" /><trkpt lat="45.53831" lon="10.16939" /><trkpt lat="45.53836" lon="10.16925" /><trkpt lat="45.5387" lon="10.16831" /><trkpt lat="45.5392" lon="10.16693" /><trkpt lat="45.53929" lon="10.16666" /><trkpt lat="45.53967" lon="10.1656" /><trkpt lat="45.53998" lon="10.16472" /><trkpt lat="45.54098" lon="10.16196" /><trkpt lat="45.54159" lon="10.16023" /><trkpt lat="45.54165" lon="10.16007" /><trkpt lat="45.54182" lon="10.15963" /><trkpt lat="45.54209" lon="10.15886" /><trkpt lat="45.5423" lon="10.15827" /><trkpt lat="45.54246" lon="10.15774" /><trkpt lat="45.54336" lon="10.15466" /><trkpt lat="45.54408" lon="10.15269" /><trkpt lat="45.54467" lon="10.15102" /><trkpt lat="45.54477" lon="10.15075" /><trkpt lat="45.54498" lon="10.15019" /><trkpt lat="45.54505" lon="10.15001" /><trkpt lat="45.54642" lon="10.14625" /><trkpt lat="45.54686" lon="10.14502" /><trkpt lat="45.54729" lon="10.14376" /><trkpt lat="45.54748" lon="10.14307" /><trkpt lat="45.54767" lon="10.14239" /><trkpt lat="45.54774" lon="10.14213" /><trkpt lat="45.54796" lon="10.14125" /><trkpt lat="45.5482" lon="10.14014" /><trkpt lat="45.54835" lon="10.13934" /><trkpt lat="45.54849" lon="10.13849" /><trkpt lat="45.54864" lon="10.13709" /><trkpt lat="45.54877" lon="10.13528" /><trkpt lat="45.54881" lon="10.13385" /><trkpt lat="45.54879" lon="10.13267" /><trkpt lat="45.54878" lon="10.13232" /><trkpt lat="45.54877" lon="10.13193" /><trkpt lat="45.54875" lon="10.13156" /><trkpt lat="45.54862" lon="10.12877" /><trkpt lat="45.5486" lon="10.12836" /><trkpt lat="45.54794" lon="10.11857" /><trkpt lat="45.54792" lon="10.11821" /><trkpt lat="45.54791" lon="10.11794" /><trkpt lat="45.54787" lon="10.11723" /><trkpt lat="45.54787" lon="10.117" /><trkpt lat="45.54786" lon="10.1167" /><trkpt lat="45.54785" lon="10.1165" /><trkpt lat="45.54783" lon="10.11302" /><trkpt lat="45.54782" lon="10.1126" /><trkpt lat="45.5478" lon="10.11149" /><trkpt lat="45.54771" lon="10.10965" /><trkpt lat="45.54771" lon="10.10955" /><trkpt lat="45.54667" lon="10.08907" /><trkpt lat="45.54666" lon="10.08885" /><trkpt lat="45.54661" lon="10.08799" /><trkpt lat="45.54654" lon="10.08713" /><trkpt lat="45.54641" lon="10.08596" /><trkpt lat="45.54623" lon="10.08464" /><trkpt lat="45.54592" lon="10.08309" /><trkpt lat="45.54563" lon="10.0821" /><trkpt lat="45.54553" lon="10.08172" /><trkpt lat="45.54544" lon="10.08146" /><trkpt lat="45.54536" lon="10.08122" /><trkpt lat="45.54527" lon="10.08097" /><trkpt lat="45.54514" lon="10.08061" /><trkpt lat="45.54503" lon="10.0803" /><trkpt lat="45.54495" lon="10.0801" /><trkpt lat="45.54486" lon="10.0799" /><trkpt lat="45.54479" lon="10.07975" /><trkpt lat="45.54468" lon="10.07953" /><trkpt lat="45.5446" lon="10.07937" /><trkpt lat="45.54446" lon="10.0791" /><trkpt lat="45.54423" lon="10.07864" /><trkpt lat="45.54414" lon="10.07848" /><trkpt lat="45.54355" lon="10.07748" /><trkpt lat="45.54281" lon="10.07622" /><trkpt lat="45.54265" lon="10.07597" /><trkpt lat="45.54026" lon="10.07239" /><trkpt lat="45.53969" lon="10.07153" /><trkpt lat="45.53915" lon="10.07071" /><trkpt lat="45.53612" lon="10.06601" /><trkpt lat="45.53426" lon="10.06281" /><trkpt lat="45.53363" lon="10.06162" /><trkpt lat="45.5327" lon="10.05954" /><trkpt lat="45.53186" lon="10.05741" /><trkpt lat="45.53161" lon="10.05674" /><trkpt lat="45.53138" lon="10.05613" /><trkpt lat="45.53128" lon="10.05585" /><trkpt lat="45.53113" lon="10.05543" /><trkpt lat="45.53095" lon="10.05492" /><trkpt lat="45.53085" lon="10.05461" /><trkpt lat="45.53071" lon="10.05417" /><trkpt lat="45.53053" lon="10.05362" /><trkpt lat="45.53043" lon="10.05327" /><trkpt lat="45.53028" lon="10.05274" /><trkpt lat="45.53014" lon="10.05226" /><trkpt lat="45.53001" lon="10.05179" /><trkpt lat="45.52993" lon="10.05149" /><trkpt lat="45.52973" lon="10.05075" /><trkpt lat="45.52963" lon="10.05036" /><trkpt lat="45.52945" lon="10.04965" /><trkpt lat="45.5291" lon="10.04827" /><trkpt lat="45.52897" lon="10.04774" /><trkpt lat="45.52758" lon="10.04216" /><trkpt lat="45.52678" lon="10.03899" /><trkpt lat="45.52642" lon="10.0376" /><trkpt lat="45.52626" lon="10.03699" /><trkpt lat="45.52604" lon="10.03611" /><trkpt lat="45.52577" lon="10.03502" /><trkpt lat="45.52514" lon="10.03253" /><trkpt lat="45.52492" lon="10.03165" /><trkpt lat="45.52457" lon="10.03022" /><trkpt lat="45.52445" lon="10.02975" /><trkpt lat="45.52436" lon="10.02936" /><trkpt lat="45.52426" lon="10.02889" /><trkpt lat="45.52416" lon="10.02845" /><trkpt lat="45.52409" lon="10.02809" /><trkpt lat="45.52403" lon="10.02776" /><trkpt lat="45.52395" lon="10.02734" /><trkpt lat="45.52385" lon="10.02683" /><trkpt lat="45.52375" lon="10.0262" /><trkpt lat="45.52362" lon="10.02544" /><trkpt lat="45.52352" lon="10.02478" /><trkpt lat="45.52343" lon="10.02415" /><trkpt lat="45.52331" lon="10.02317" /><trkpt lat="45.52325" lon="10.02269" /><trkpt lat="45.52318" lon="10.02206" /><trkpt lat="45.52311" lon="10.02135" /><trkpt lat="45.52304" lon="10.0206" /><trkpt lat="45.52298" lon="10.01976" /><trkpt lat="45.52294" lon="10.01922" /><trkpt lat="45.5229" lon="10.01847" /><trkpt lat="45.52286" lon="10.01772" /><trkpt lat="45.52283" lon="10.01682" /><trkpt lat="45.52282" lon="10.01619" /><trkpt lat="45.52281" lon="10.01528" /><trkpt lat="45.52279" lon="10.01344" /><trkpt lat="45.52279" lon="10.01099" /><trkpt lat="45.52277" lon="10.00973" /><trkpt lat="45.52273" lon="10.00657" /><trkpt lat="45.52273" lon="10.00017" /><trkpt lat="45.52277" lon="9.99466" /><trkpt lat="45.52289" lon="9.98793" /><trkpt lat="45.52291" lon="9.98485" /><trkpt lat="45.52292" lon="9.98178" /><trkpt lat="45.52285" lon="9.97833" /><trkpt lat="45.52263" lon="9.97426" /><trkpt lat="45.52222" lon="9.96907" /><trkpt lat="45.52141" lon="9.96061" /><trkpt lat="45.52095" lon="9.95687" /><trkpt lat="45.52082" lon="9.95562" /><trkpt lat="45.52069" lon="9.95409" /><trkpt lat="45.51993" lon="9.94708" /><trkpt lat="45.51975" lon="9.94556" /><trkpt lat="45.51929" lon="9.94222" /><trkpt lat="45.5189" lon="9.93977" /><trkpt lat="45.51845" lon="9.9372" /><trkpt lat="45.51752" lon="9.93206" /><trkpt lat="45.51644" lon="9.92633" /><trkpt lat="45.51513" lon="9.91999" /><trkpt lat="45.51417" lon="9.91602" /><trkpt lat="45.51278" lon="9.91104" /><trkpt lat="45.51161" lon="9.90752" /><trkpt lat="45.51101" lon="9.90536" /><trkpt lat="45.5076" lon="9.89435" /><trkpt lat="45.50538" lon="9.88741" /><trkpt lat="45.50304" lon="9.87978" /><trkpt lat="45.50204" lon="9.87648" /><trkpt lat="45.50145" lon="9.8746" /><trkpt lat="45.4995" lon="9.86844" /><trkpt lat="45.49816" lon="9.86393" /><trkpt lat="45.49798" lon="9.86333" /><trkpt lat="45.49772" lon="9.86233" /><trkpt lat="45.49743" lon="9.86116" /><trkpt lat="45.49646" lon="9.85685" /><trkpt lat="45.49612" lon="9.85501" /><trkpt lat="45.49558" lon="9.85163" /><trkpt lat="45.495" lon="9.84677" /><trkpt lat="45.49478" lon="9.84377" /><trkpt lat="45.49474" lon="9.84314" /><trkpt lat="45.4947" lon="9.84232" /><trkpt lat="45.49463" lon="9.84035" /><trkpt lat="45.49461" lon="9.83934" /><trkpt lat="45.49459" lon="9.8382" /><trkpt lat="45.49462" lon="9.83533" /><trkpt lat="45.4947" lon="9.83246" /><trkpt lat="45.49476" lon="9.83" /><trkpt lat="45.49504" lon="9.82014" /><trkpt lat="45.49511" lon="9.81693" /><trkpt lat="45.49514" lon="9.81379" /><trkpt lat="45.49509" lon="9.81145" /><trkpt lat="45.49495" lon="9.80863" /><trkpt lat="45.49475" lon="9.80588" /><trkpt lat="45.49449" lon="9.80333" /><trkpt lat="45.49413" lon="9.80061" /><trkpt lat="45.49375" lon="9.79828" /><trkpt lat="45.49338" lon="9.79631" /><trkpt lat="45.49283" lon="9.7938" /><trkpt lat="45.49232" lon="9.79156" /><trkpt lat="45.49169" lon="9.78909" /><trkpt lat="45.49099" lon="9.7865" /><trkpt lat="45.49018" lon="9.78344" /><trkpt lat="45.48961" lon="9.78103" /><trkpt lat="45.48921" lon="9.77914" /><trkpt lat="45.48885" lon="9.77721" /><trkpt lat="45.4884" lon="9.7746" /><trkpt lat="45.48807" lon="9.7723" /><trkpt lat="45.48785" lon="9.77049" /><trkpt lat="45.48763" lon="9.76826" /><trkpt lat="45.48746" lon="9.76609" /><trkpt lat="45.48736" lon="9.76439" /><trkpt lat="45.4873" lon="9.76263" /><trkpt lat="45.48725" lon="9.76099" /><trkpt lat="45.48727" lon="9.75931" /><trkpt lat="45.48733" lon="9.75689" /><trkpt lat="45.48745" lon="9.7542" /><trkpt lat="45.48762" lon="9.7517" /><trkpt lat="45.4878" lon="9.74969" /><trkpt lat="45.48802" lon="9.74781" /><trkpt lat="45.48826" lon="9.74605" /><trkpt lat="45.48861" lon="9.74377" /><trkpt lat="45.48889" lon="9.74211" /><trkpt lat="45.48925" lon="9.74022" /><trkpt lat="45.48963" lon="9.73847" /><trkpt lat="45.49014" lon="9.73633" /><trkpt lat="45.49057" lon="9.73471" /><trkpt lat="45.49113" lon="9.73274" /><trkpt lat="45.49163" lon="9.73104" /><trkpt lat="45.49211" lon="9.72964" /><trkpt lat="45.49266" lon="9.72809" /><trkpt lat="45.49311" lon="9.72688" /><trkpt lat="45.49325" lon="9.72648" /><trkpt lat="45.49382" lon="9.72504" /><trkpt lat="45.49439" lon="9.72369" /><trkpt lat="45.49502" lon="9.72225" /><trkpt lat="45.49647" lon="9.71902" /><trkpt lat="45.4974" lon="9.71698" /><trkpt lat="45.4977" lon="9.71633" /><trkpt lat="45.50079" lon="9.70972" /><trkpt lat="45.50179" lon="9.70747" /><trkpt lat="45.5033" lon="9.704" /><trkpt lat="45.50407" lon="9.70222" /><trkpt lat="45.50486" lon="9.7002" /><trkpt lat="45.50562" lon="9.69806" /><trkpt lat="45.50622" lon="9.69619" /><trkpt lat="45.50689" lon="9.69374" /><trkpt lat="45.50749" lon="9.69166" /><trkpt lat="45.50802" lon="9.68943" /><trkpt lat="45.50846" lon="9.68729" /><trkpt lat="45.50881" lon="9.6855" /><trkpt lat="45.5092" lon="9.68325" /><trkpt lat="45.50954" lon="9.68094" /><trkpt lat="45.50979" lon="9.67891" /><trkpt lat="45.51001" lon="9.67668" /><trkpt lat="45.51017" lon="9.67468" /><trkpt lat="45.51028" lon="9.67288" /><trkpt lat="45.51036" lon="9.67109" /><trkpt lat="45.5104" lon="9.66935" /><trkpt lat="45.51042" lon="9.66755" /><trkpt lat="45.51042" lon="9.66521" /><trkpt lat="45.51044" lon="9.66154" /><trkpt lat="45.51047" lon="9.6566" /><trkpt lat="45.5105" lon="9.65404" /><trkpt lat="45.51049" lon="9.65118" /><trkpt lat="45.51049" lon="9.6496" /><trkpt lat="45.51049" lon="9.64833" /><trkpt lat="45.51049" lon="9.64341" /><trkpt lat="45.51046" lon="9.64237" /><trkpt lat="45.51045" lon="9.64221" /><trkpt lat="45.51045" lon="9.6422" /><trkpt lat="45.51045" lon="9.64211" /><trkpt lat="45.51045" lon="9.64202" /><trkpt lat="45.51042" lon="9.64124" /><trkpt lat="45.51032" lon="9.63929" /><trkpt lat="45.51017" lon="9.63713" /><trkpt lat="45.50999" lon="9.63527" /><trkpt lat="45.50974" lon="9.63306" /><trkpt lat="45.50936" lon="9.63039" /><trkpt lat="45.50922" lon="9.62951" /><trkpt lat="45.50893" lon="9.62788" /><trkpt lat="45.50679" lon="9.6166" /><trkpt lat="45.50574" lon="9.61107" /><trkpt lat="45.50505" lon="9.60698" /><trkpt lat="45.5048" lon="9.60523" /><trkpt lat="45.50464" lon="9.60399" /><trkpt lat="45.50452" lon="9.60288" /><trkpt lat="45.50446" lon="9.60239" /><trkpt lat="45.50424" lon="9.59998" /><trkpt lat="45.50411" lon="9.5981" /><trkpt lat="45.50402" lon="9.59631" /><trkpt lat="45.50396" lon="9.5948" /><trkpt lat="45.50392" lon="9.59307" /><trkpt lat="45.50392" lon="9.59134" /><trkpt lat="45.50395" lon="9.58965" /><trkpt lat="45.50404" lon="9.58749" /><trkpt lat="45.50413" lon="9.58596" /><trkpt lat="45.50426" lon="9.58422" /><trkpt lat="45.50448" lon="9.58186" /><trkpt lat="45.50467" lon="9.58011" /><trkpt lat="45.50488" lon="9.57839" /><trkpt lat="45.50515" lon="9.57659" /><trkpt lat="45.50683" lon="9.56669" /><trkpt lat="45.50687" lon="9.56647" /><trkpt lat="45.50748" lon="9.5629" /><trkpt lat="45.50861" lon="9.55624" /><trkpt lat="45.50867" lon="9.55589" /><trkpt lat="45.50953" lon="9.5508" /><trkpt lat="45.5098" lon="9.54924" /><trkpt lat="45.51029" lon="9.54633" /><trkpt lat="45.51065" lon="9.54413" /><trkpt lat="45.51076" lon="9.54328" /><trkpt lat="45.51094" lon="9.54204" /><trkpt lat="45.51112" lon="9.54036" /><trkpt lat="45.51126" lon="9.5389" /><trkpt lat="45.51131" lon="9.53821" /><trkpt lat="45.51139" lon="9.53704" /><trkpt lat="45.51145" lon="9.53576" /><trkpt lat="45.51148" lon="9.53461" /><trkpt lat="45.51149" lon="9.53281" /><trkpt lat="45.51148" lon="9.53177" /><trkpt lat="45.51145" lon="9.53041" /><trkpt lat="45.51142" lon="9.52972" /><trkpt lat="45.51138" lon="9.52896" /><trkpt lat="45.51136" lon="9.52861" /><trkpt lat="45.5113" lon="9.52778" /><trkpt lat="45.51124" lon="9.52698" /><trkpt lat="45.51114" lon="9.5259" /><trkpt lat="45.51102" lon="9.52478" /><trkpt lat="45.51093" lon="9.52398" /><trkpt lat="45.51083" lon="9.52319" /><trkpt lat="45.51068" lon="9.52219" /><trkpt lat="45.51047" lon="9.52088" /><trkpt lat="45.51023" lon="9.51957" /><trkpt lat="45.50995" lon="9.51797" /><trkpt lat="45.50972" lon="9.51673" /><trkpt lat="45.50919" lon="9.51383" /><trkpt lat="45.50764" lon="9.50522" /><trkpt lat="45.50736" lon="9.5036" /><trkpt lat="45.50726" lon="9.503" /><trkpt lat="45.50714" lon="9.50227" /><trkpt lat="45.50703" lon="9.50155" /><trkpt lat="45.50693" lon="9.50082" /><trkpt lat="45.50682" lon="9.49992" /><trkpt lat="45.50671" lon="9.49904" /><trkpt lat="45.50658" lon="9.49766" /><trkpt lat="45.50653" lon="9.49707" /><trkpt lat="45.50646" lon="9.4962" /><trkpt lat="45.50644" lon="9.4959" /><trkpt lat="45.50642" lon="9.49563" /><trkpt lat="45.50639" lon="9.49501" /><trkpt lat="45.50636" lon="9.49433" /><trkpt lat="45.50633" lon="9.49376" /><trkpt lat="45.50632" lon="9.49318" /><trkpt lat="45.5063" lon="9.49242" /><trkpt lat="45.50629" lon="9.49162" /><trkpt lat="45.50629" lon="9.49113" /><trkpt lat="45.5063" lon="9.48923" /><trkpt lat="45.50637" lon="9.48749" /><trkpt lat="45.50647" lon="9.48578" /><trkpt lat="45.50661" lon="9.48405" /><trkpt lat="45.50699" lon="9.47958" /><trkpt lat="45.50709" lon="9.47852" /><trkpt lat="45.50718" lon="9.47736" /><trkpt lat="45.50736" lon="9.47522" /><trkpt lat="45.50753" lon="9.47334" /><trkpt lat="45.50768" lon="9.47147" /><trkpt lat="45.50778" lon="9.47036" /><trkpt lat="45.50786" lon="9.46918" /><trkpt lat="45.50796" lon="9.46719" /><trkpt lat="45.50802" lon="9.46567" /><trkpt lat="45.50805" lon="9.46382" /><trkpt lat="45.50806" lon="9.46278" /><trkpt lat="45.50805" lon="9.4619" /><trkpt lat="45.50804" lon="9.461" /><trkpt lat="45.50803" lon="9.46035" /><trkpt lat="45.50797" lon="9.45884" /><trkpt lat="45.50794" lon="9.45814" /><trkpt lat="45.5079" lon="9.45743" /><trkpt lat="45.50787" lon="9.45673" /><trkpt lat="45.50783" lon="9.45605" /><trkpt lat="45.50777" lon="9.45531" /><trkpt lat="45.50772" lon="9.45474" /><trkpt lat="45.50763" lon="9.45375" /><trkpt lat="45.50759" lon="9.45328" /><trkpt lat="45.50749" lon="9.45228" /><trkpt lat="45.50736" lon="9.45109" /><trkpt lat="45.50726" lon="9.45029" /><trkpt lat="45.50715" lon="9.44946" /><trkpt lat="45.5071" lon="9.4491" /><trkpt lat="45.50701" lon="9.44853" /><trkpt lat="45.50683" lon="9.44735" /><trkpt lat="45.50669" lon="9.44645" /><trkpt lat="45.50647" lon="9.44515" /><trkpt lat="45.50588" lon="9.44181" /><trkpt lat="45.50546" lon="9.43942" /><trkpt lat="45.50508" lon="9.43725" /><trkpt lat="45.50454" lon="9.43416" /><trkpt lat="45.50416" lon="9.43205" /><trkpt lat="45.50381" lon="9.43003" /><trkpt lat="45.50341" lon="9.42778" /><trkpt lat="45.50267" lon="9.42365" /><trkpt lat="45.50219" lon="9.42093" /><trkpt lat="45.50146" lon="9.41674" /><trkpt lat="45.50079" lon="9.4123" /><trkpt lat="45.50071" lon="9.41171" /><trkpt lat="45.50028" lon="9.4088" /><trkpt lat="45.50011" lon="9.40766" /><trkpt lat="45.50004" lon="9.40721" /><trkpt lat="45.49996" lon="9.40676" /><trkpt lat="45.49981" lon="9.40586" /><trkpt lat="45.49841" lon="9.39816" /><trkpt lat="45.49818" lon="9.39692" /><trkpt lat="45.49789" lon="9.39535" /><trkpt lat="45.49731" lon="9.39241" /><trkpt lat="45.49718" lon="9.39174" /><trkpt lat="45.49694" lon="9.39053" /><trkpt lat="45.4965" lon="9.3883" /><trkpt lat="45.49561" lon="9.38381" /><trkpt lat="45.49476" lon="9.37945" /><trkpt lat="45.49432" lon="9.37716" /><trkpt lat="45.49406" lon="9.37578" /><trkpt lat="45.49376" lon="9.37418" /><trkpt lat="45.4934" lon="9.37188" /><trkpt lat="45.49304" lon="9.36938" /><trkpt lat="45.49282" lon="9.36761" /><trkpt lat="45.49258" lon="9.36594" /><trkpt lat="45.49213" lon="9.36304" /><trkpt lat="45.49183" lon="9.36126" /><trkpt lat="45.49108" lon="9.35723" /><trkpt lat="45.49032" lon="9.35322" /><trkpt lat="45.4894" lon="9.34834" /><trkpt lat="45.48888" lon="9.34555" /><trkpt lat="45.48823" lon="9.34207" /><trkpt lat="45.48812" lon="9.34154" /><trkpt lat="45.48801" lon="9.34094" /><trkpt lat="45.48757" lon="9.33863" /><trkpt lat="45.48749" lon="9.33821" /><trkpt lat="45.48699" lon="9.3355" /><trkpt lat="45.4867" lon="9.334" /><trkpt lat="45.48648" lon="9.3328" /><trkpt lat="45.48642" lon="9.33245" /><trkpt lat="45.4862" lon="9.33126" /><trkpt lat="45.48581" lon="9.32906" /><trkpt lat="45.48532" lon="9.32628" /><trkpt lat="45.48481" lon="9.32326" /><trkpt lat="45.48432" lon="9.32049" /><trkpt lat="45.48416" lon="9.3196" /><trkpt lat="45.4837" lon="9.31694" /><trkpt lat="45.48359" lon="9.31636" /><trkpt lat="45.48343" lon="9.31571" /><trkpt lat="45.48323" lon="9.31462" /><trkpt lat="45.48305" lon="9.31358" /><trkpt lat="45.4828" lon="9.31218" /><trkpt lat="45.48263" lon="9.31123" /><trkpt lat="45.4824" lon="9.30985" /><trkpt lat="45.48201" lon="9.30738" /><trkpt lat="45.48182" lon="9.30619" /><trkpt lat="45.48163" lon="9.30502" /><trkpt lat="45.48143" lon="9.30384" /><trkpt lat="45.48122" lon="9.30264" /><trkpt lat="45.481" lon="9.30146" /><trkpt lat="45.48086" lon="9.30066" /><trkpt lat="45.48076" lon="9.30006" /><trkpt lat="45.48064" lon="9.29941" /><trkpt lat="45.48044" lon="9.29825" /><trkpt lat="45.48025" lon="9.29712" /><trkpt lat="45.48006" lon="9.29598" /><trkpt lat="45.47987" lon="9.2948" /><trkpt lat="45.47969" lon="9.29368" /><trkpt lat="45.47949" lon="9.29251" /><trkpt lat="45.4793" lon="9.29135" /><trkpt lat="45.47912" lon="9.29021" /><trkpt lat="45.47894" lon="9.28906" /><trkpt lat="45.47874" lon="9.28794" /><trkpt lat="45.47848" lon="9.28659" /><trkpt lat="45.47831" lon="9.28571" /><trkpt lat="45.4781" lon="9.28459" /><trkpt lat="45.47789" lon="9.28349" /><trkpt lat="45.47767" lon="9.28235" /><trkpt lat="45.47744" lon="9.2812" /><trkpt lat="45.47723" lon="9.28006" /><trkpt lat="45.477" lon="9.27889" /><trkpt lat="45.47678" lon="9.27776" /><trkpt lat="45.47656" lon="9.27663" /><trkpt lat="45.47634" lon="9.2755" /><trkpt lat="45.47612" lon="9.27434" /><trkpt lat="45.4759" lon="9.27319" /><trkpt lat="45.47568" lon="9.27205" /><trkpt lat="45.47547" lon="9.27094" /><trkpt lat="45.47539" lon="9.27048" /><trkpt lat="45.47528" lon="9.26984" /><trkpt lat="45.47511" lon="9.26874" /><trkpt lat="45.47493" lon="9.26762" /><trkpt lat="45.47475" lon="9.2665" /><trkpt lat="45.47423" lon="9.26317" /><trkpt lat="45.4736" lon="9.25927" /><trkpt lat="45.47324" lon="9.25707" /><trkpt lat="45.47299" lon="9.25555" /><trkpt lat="45.47286" lon="9.25492" /><trkpt lat="45.47261" lon="9.25356" /><trkpt lat="45.47233" lon="9.25216" /><trkpt lat="45.47204" lon="9.25066" /><trkpt lat="45.4718" lon="9.2495" /><trkpt lat="45.47158" lon="9.24835" /><trkpt lat="45.47154" lon="9.24812" /><trkpt lat="45.4715" lon="9.2479" /><trkpt lat="45.47147" lon="9.24768" /><trkpt lat="45.47144" lon="9.24746" /><trkpt lat="45.47141" lon="9.24723" /><trkpt lat="45.47139" lon="9.247" /><trkpt lat="45.47138" lon="9.24675" /><trkpt lat="45.47137" lon="9.24652" /><trkpt lat="45.47136" lon="9.24627" /><trkpt lat="45.47136" lon="9.24603" /><trkpt lat="45.47136" lon="9.24578" /><trkpt lat="45.47136" lon="9.24566" /><trkpt lat="45.47137" lon="9.24546" /><trkpt lat="45.47137" lon="9.24538" /><trkpt lat="45.47138" lon="9.24524" /><trkpt lat="45.47139" lon="9.24512" /><trkpt lat="45.4714" lon="9.24503" /><trkpt lat="45.47143" lon="9.24479" /><trkpt lat="45.47146" lon="9.24454" /><trkpt lat="45.4715" lon="9.24428" /><trkpt lat="45.47153" lon="9.24407" /><trkpt lat="45.47158" lon="9.24385" /><trkpt lat="45.47163" lon="9.2436" /><trkpt lat="45.4717" lon="9.24331" /><trkpt lat="45.47176" lon="9.24309" /><trkpt lat="45.47183" lon="9.24285" /><trkpt lat="45.4719" lon="9.24262" /><trkpt lat="45.47199" lon="9.24238" /><trkpt lat="45.47207" lon="9.24216" /><trkpt lat="45.47213" lon="9.242" /><trkpt lat="45.47219" lon="9.24188" /><trkpt lat="45.47224" lon="9.24176" /><trkpt lat="45.47234" lon="9.24156" /><trkpt lat="45.47244" lon="9.24137" /><trkpt lat="45.47253" lon="9.24121" /><trkpt lat="45.47263" lon="9.24104" /><trkpt lat="45.47273" lon="9.24088" /><trkpt lat="45.47283" lon="9.24073" /><trkpt lat="45.47294" lon="9.24058" /><trkpt lat="45.47305" lon="9.24043" /><trkpt lat="45.47318" lon="9.24027" /><trkpt lat="45.47331" lon="9.24012" /><trkpt lat="45.47342" lon="9.23999" /><trkpt lat="45.47354" lon="9.23986" /><trkpt lat="45.47367" lon="9.23973" /><trkpt lat="45.47381" lon="9.23961" /><trkpt lat="45.47395" lon="9.23948" /><trkpt lat="45.47407" lon="9.23938" /><trkpt lat="45.47421" lon="9.23928" /><trkpt lat="45.47434" lon="9.23918" /><trkpt lat="45.47449" lon="9.23909" /><trkpt lat="45.47463" lon="9.239" /><trkpt lat="45.47477" lon="9.23892" /><trkpt lat="45.47492" lon="9.23885" /><trkpt lat="45.47505" lon="9.23879" /><trkpt lat="45.47519" lon="9.23873" /><trkpt lat="45.47533" lon="9.23867" /><trkpt lat="45.47547" lon="9.23862" /><trkpt lat="45.47562" lon="9.23858" /><trkpt lat="45.47576" lon="9.23854" /><trkpt lat="45.47591" lon="9.23851" /><trkpt lat="45.47606" lon="9.23849" /><trkpt lat="45.4762" lon="9.23847" /><trkpt lat="45.47633" lon="9.23845" /><trkpt lat="45.47645" lon="9.23844" /><trkpt lat="45.47658" lon="9.23844" /><trkpt lat="45.47671" lon="9.23844" /><trkpt lat="45.47685" lon="9.23845" /><trkpt lat="45.47744" lon="9.23847" /><trkpt lat="45.47773" lon="9.23848" /><trkpt lat="45.4781" lon="9.2385" /><trkpt lat="45.47838" lon="9.23851" /><trkpt lat="45.47863" lon="9.23852" /><trkpt lat="45.47903" lon="9.23853" /><trkpt lat="45.47945" lon="9.23848" /><trkpt lat="45.48006" lon="9.2385" /><trkpt lat="45.48023" lon="9.2385" /><trkpt lat="45.48036" lon="9.2385" /><trkpt lat="45.48049" lon="9.23849" /><trkpt lat="45.48065" lon="9.23848" /><trkpt lat="45.4808" lon="9.23845" /><trkpt lat="45.48095" lon="9.23843" /><trkpt lat="45.48247" lon="9.23814" /><trkpt lat="45.48291" lon="9.23806" /><trkpt lat="45.48305" lon="9.23803" /><trkpt lat="45.48319" lon="9.23799" /><trkpt lat="45.48332" lon="9.23796" /><trkpt lat="45.48349" lon="9.2379" /><trkpt lat="45.48366" lon="9.23785" /><trkpt lat="45.4838" lon="9.23779" /><trkpt lat="45.48394" lon="9.23773" /><trkpt lat="45.48409" lon="9.23766" /><trkpt lat="45.48422" lon="9.23759" /><trkpt lat="45.48436" lon="9.23752" /><trkpt lat="45.4845" lon="9.23744" /><trkpt lat="45.48464" lon="9.23734" /><trkpt lat="45.48479" lon="9.23724" /><trkpt lat="45.48495" lon="9.23712" /><trkpt lat="45.48508" lon="9.23703" /><trkpt lat="45.48524" lon="9.2369" /><trkpt lat="45.48539" lon="9.23678" /><trkpt lat="45.48556" lon="9.23663" /><trkpt lat="45.48704" lon="9.23528" /><trkpt lat="45.48737" lon="9.23499" /><trkpt lat="45.48773" lon="9.23466" /><trkpt lat="45.48812" lon="9.2343" /><trkpt lat="45.48861" lon="9.23386" /><trkpt lat="45.49035" lon="9.2323" /><trkpt lat="45.49075" lon="9.23194" /><trkpt lat="45.49105" lon="9.23161" /><trkpt lat="45.49145" lon="9.23125" /><trkpt lat="45.49199" lon="9.23078" /><trkpt lat="45.49228" lon="9.23048" /><trkpt lat="45.49231" lon="9.23045" /><trkpt lat="45.49264" lon="9.23011" /><trkpt lat="45.49312" lon="9.22968" /><trkpt lat="45.4937" lon="9.22915" /><trkpt lat="45.49431" lon="9.22861" /><trkpt lat="45.49445" lon="9.22847" /><trkpt lat="45.4946" lon="9.22832" /><trkpt lat="45.49471" lon="9.2282" /><trkpt lat="45.49483" lon="9.22806" /><trkpt lat="45.49502" lon="9.22783" /><trkpt lat="45.49516" lon="9.22764" /><trkpt lat="45.49531" lon="9.22744" /><trkpt lat="45.49542" lon="9.22726" /><trkpt lat="45.49553" lon="9.22709" /><trkpt lat="45.49564" lon="9.2269" /><trkpt lat="45.49574" lon="9.2267" /><trkpt lat="45.49584" lon="9.22651" /><trkpt lat="45.49593" lon="9.22632" /><trkpt lat="45.49598" lon="9.22621" /><trkpt lat="45.49604" lon="9.22606" /><trkpt lat="45.49612" lon="9.22586" /><trkpt lat="45.49621" lon="9.22564" /><trkpt lat="45.49629" lon="9.22541" /><trkpt lat="45.49638" lon="9.22514" /><trkpt lat="45.49642" lon="9.22499" /><trkpt lat="45.49647" lon="9.2248" /><trkpt lat="45.49653" lon="9.22455" /><trkpt lat="45.49659" lon="9.22427" /><trkpt lat="45.49664" lon="9.22403" /><trkpt lat="45.49668" lon="9.2238" /><trkpt lat="45.49672" lon="9.22352" /><trkpt lat="45.49675" lon="9.22328" /><trkpt lat="45.49678" lon="9.22301" /><trkpt lat="45.4968" lon="9.22272" /><trkpt lat="45.49688" lon="9.22148" /><trkpt lat="45.49692" lon="9.22081" /><trkpt lat="45.497" lon="9.21941" /><trkpt lat="45.49701" lon="9.21918" /><trkpt lat="45.49702" lon="9.21896" /><trkpt lat="45.49702" lon="9.21874" /><trkpt lat="45.49702" lon="9.21854" /><trkpt lat="45.49701" lon="9.21833" /><trkpt lat="45.49699" lon="9.21809" /><trkpt lat="45.49697" lon="9.21785" /><trkpt lat="45.49693" lon="9.21762" /><trkpt lat="45.49689" lon="9.21739" /><trkpt lat="45.49684" lon="9.21716" /><trkpt lat="45.49677" lon="9.21692" /><trkpt lat="45.49671" lon="9.21672" /><trkpt lat="45.49665" lon="9.21652" /><trkpt lat="45.49657" lon="9.21632" /><trkpt lat="45.4965" lon="9.21613" /><trkpt lat="45.49642" lon="9.21594" /><trkpt lat="45.49631" lon="9.21571" /><trkpt lat="45.4962" lon="9.2155" /><trkpt lat="45.49614" lon="9.21537" /><trkpt lat="45.49601" lon="9.21516" /><trkpt lat="45.49589" lon="9.21497" /><trkpt lat="45.49577" lon="9.21479" /><trkpt lat="45.49566" lon="9.21464" /><trkpt lat="45.49552" lon="9.21447" /><trkpt lat="45.49538" lon="9.21431" /><trkpt lat="45.49486" lon="9.21375" /><trkpt lat="45.49455" lon="9.21343" /><trkpt lat="45.49443" lon="9.2133" /><trkpt lat="45.49433" lon="9.2132" /><trkpt lat="45.49426" lon="9.2131" /><trkpt lat="45.49406" lon="9.21284" /><trkpt lat="45.49382" lon="9.21253" /><trkpt lat="45.4936" lon="9.21224" /><trkpt lat="45.49338" lon="9.21196" /><trkpt lat="45.4931" lon="9.2116" /><trkpt lat="45.49282" lon="9.21132" /><trkpt lat="45.4927" lon="9.21117" /><trkpt lat="45.4926" lon="9.21103" /><trkpt lat="45.49233" lon="9.21083" /><trkpt lat="45.49186" lon="9.21047" /><trkpt lat="45.49159" lon="9.2102" /><trkpt lat="45.4912" lon="9.20981" /><trkpt lat="45.49101" lon="9.20962" /><trkpt lat="45.49091" lon="9.20952" /><trkpt lat="45.49079" lon="9.2094" /><trkpt lat="45.49069" lon="9.20929" /><trkpt lat="45.49048" lon="9.20908" /><trkpt lat="45.49012" lon="9.20871" /><trkpt lat="45.48991" lon="9.2085" /><trkpt lat="45.48987" lon="9.20846" /><trkpt lat="45.48984" lon="9.20842" /><trkpt lat="45.48974" lon="9.20831" /><trkpt lat="45.48968" lon="9.20824" /><trkpt lat="45.48961" lon="9.20814" /><trkpt lat="45.48931" lon="9.20773" /><trkpt lat="45.48922" lon="9.20762" /><trkpt lat="45.48909" lon="9.20748" /><trkpt lat="45.48863" lon="9.20698" /><trkpt lat="45.48624" lon="9.20456" /><trkpt lat="45.48622" lon="9.20454" /><trkpt lat="45.48622" lon="9.20454" /></trkseg></trk></gpx>