<gpx version="1.1" creator="Trainlog.me"><trk><name>Trip Path</name><trkseg><trkpt lat="46.29384" lon="7.88178" /><trkpt lat="46.29384" lon="7.88168" /><trkpt lat="46.29387" lon="7.88032" /><trkpt lat="46.29387" lon="7.88019" /><trkpt lat="46.29387" lon="7.88013" /><trkpt lat="46.29387" lon="7.88007" /><trkpt lat="46.29387" lon="7.88002" /><trkpt lat="46.29386" lon="7.87997" /><trkpt lat="46.29386" lon="7.87992" /><trkpt lat="46.29385" lon="7.87989" /><trkpt lat="46.29385" lon="7.87984" /><trkpt lat="46.29384" lon="7.8798" /><trkpt lat="46.29383" lon="7.87975" /><trkpt lat="46.29382" lon="7.8797" /><trkpt lat="46.29381" lon="7.87965" /><trkpt lat="46.29378" lon="7.87958" /><trkpt lat="46.29375" lon="7.87949" /><trkpt lat="46.29371" lon="7.87938" /><trkpt lat="46.29367" lon="7.87932" /><trkpt lat="46.29362" lon="7.87925" /><trkpt lat="46.29356" lon="7.87918" /><trkpt lat="46.29349" lon="7.87911" /><trkpt lat="46.29342" lon="7.87906" /><trkpt lat="46.29337" lon="7.87902" /><trkpt lat="46.29331" lon="7.879" /><trkpt lat="46.29326" lon="7.87897" /><trkpt lat="46.29319" lon="7.87895" /><trkpt lat="46.29313" lon="7.87894" /><trkpt lat="46.29306" lon="7.87894" /><trkpt lat="46.29298" lon="7.87894" /><trkpt lat="46.29291" lon="7.87896" /><trkpt lat="46.29283" lon="7.87898" /><trkpt lat="46.29269" lon="7.87905" /><trkpt lat="46.29249" lon="7.87915" /><trkpt lat="46.2924" lon="7.87919" /><trkpt lat="46.29226" lon="7.87923" /><trkpt lat="46.29211" lon="7.87926" /><trkpt lat="46.29201" lon="7.87927" /><trkpt lat="46.29175" lon="7.87931" /><trkpt lat="46.29133" lon="7.87938" /><trkpt lat="46.29065" lon="7.87952" /><trkpt lat="46.29012" lon="7.87963" /><trkpt lat="46.28956" lon="7.87973" /><trkpt lat="46.2873" lon="7.88018" /><trkpt lat="46.28623" lon="7.88039" /><trkpt lat="46.28438" lon="7.88074" /><trkpt lat="46.28345" lon="7.88098" /><trkpt lat="46.28178" lon="7.88162" /><trkpt lat="46.27908" lon="7.88238" /><trkpt lat="46.278" lon="7.88266" /><trkpt lat="46.27755" lon="7.88271" /><trkpt lat="46.27742" lon="7.88271" /><trkpt lat="46.27713" lon="7.88268" /><trkpt lat="46.27682" lon="7.88262" /><trkpt lat="46.27603" lon="7.88237" /><trkpt lat="46.27578" lon="7.8823" /><trkpt lat="46.27545" lon="7.88219" /><trkpt lat="46.2751" lon="7.8821" /><trkpt lat="46.27486" lon="7.88205" /><trkpt lat="46.2743" lon="7.882" /><trkpt lat="46.27352" lon="7.88193" /><trkpt lat="46.27278" lon="7.8818" /><trkpt lat="46.27154" lon="7.88152" /><trkpt lat="46.27097" lon="7.88139" /><trkpt lat="46.27043" lon="7.88126" /><trkpt lat="46.2698" lon="7.88109" /><trkpt lat="46.26924" lon="7.88087" /><trkpt lat="46.26891" lon="7.88073" /><trkpt lat="46.26859" lon="7.88061" /><trkpt lat="46.26821" lon="7.88049" /><trkpt lat="46.26769" lon="7.88036" /><trkpt lat="46.26727" lon="7.88019" /><trkpt lat="46.26717" lon="7.88013" /><trkpt lat="46.26706" lon="7.88008" /><trkpt lat="46.26697" lon="7.88002" /><trkpt lat="46.26683" lon="7.87994" /><trkpt lat="46.26672" lon="7.87986" /><trkpt lat="46.26659" lon="7.87978" /><trkpt lat="46.26646" lon="7.87969" /><trkpt lat="46.26636" lon="7.87963" /><trkpt lat="46.26627" lon="7.87957" /><trkpt lat="46.26618" lon="7.87952" /><trkpt lat="46.26616" lon="7.87951" /><trkpt lat="46.26599" lon="7.87942" /><trkpt lat="46.2659" lon="7.87938" /><trkpt lat="46.26578" lon="7.87933" /><trkpt lat="46.26569" lon="7.8793" /><trkpt lat="46.2656" lon="7.87927" /><trkpt lat="46.26551" lon="7.87925" /><trkpt lat="46.26544" lon="7.87923" /><trkpt lat="46.26535" lon="7.87921" /><trkpt lat="46.26525" lon="7.8792" /><trkpt lat="46.26516" lon="7.87919" /><trkpt lat="46.26507" lon="7.87918" /><trkpt lat="46.26494" lon="7.87918" /><trkpt lat="46.26485" lon="7.87919" /><trkpt lat="46.26474" lon="7.8792" /><trkpt lat="46.2646" lon="7.87921" /><trkpt lat="46.26447" lon="7.87924" /><trkpt lat="46.2643" lon="7.87928" /><trkpt lat="46.26408" lon="7.87933" /><trkpt lat="46.26395" lon="7.87936" /><trkpt lat="46.26384" lon="7.87939" /><trkpt lat="46.26373" lon="7.87942" /><trkpt lat="46.26363" lon="7.87943" /><trkpt lat="46.26353" lon="7.87945" /><trkpt lat="46.26319" lon="7.87949" /><trkpt lat="46.26292" lon="7.87949" /><trkpt lat="46.26244" lon="7.87947" /><trkpt lat="46.26202" lon="7.87944" /><trkpt lat="46.26168" lon="7.87936" /><trkpt lat="46.2613" lon="7.87923" /><trkpt lat="46.26097" lon="7.87912" /><trkpt lat="46.26087" lon="7.87908" /><trkpt lat="46.26073" lon="7.87905" /><trkpt lat="46.26063" lon="7.87902" /><trkpt lat="46.26051" lon="7.879" /><trkpt lat="46.26039" lon="7.87898" /><trkpt lat="46.26028" lon="7.87898" /><trkpt lat="46.26016" lon="7.87897" /><trkpt lat="46.26004" lon="7.87898" /><trkpt lat="46.25979" lon="7.879" /><trkpt lat="46.25944" lon="7.87909" /><trkpt lat="46.25892" lon="7.87929" /><trkpt lat="46.25817" lon="7.87958" /><trkpt lat="46.25785" lon="7.87965" /><trkpt lat="46.25736" lon="7.87971" /><trkpt lat="46.25712" lon="7.87971" /><trkpt lat="46.25685" lon="7.87969" /><trkpt lat="46.2563" lon="7.87961" /><trkpt lat="46.25598" lon="7.87954" /><trkpt lat="46.25574" lon="7.87947" /><trkpt lat="46.25537" lon="7.87928" /><trkpt lat="46.25505" lon="7.87903" /><trkpt lat="46.25474" lon="7.8787" /><trkpt lat="46.25421" lon="7.87801" /><trkpt lat="46.25393" lon="7.87768" /><trkpt lat="46.25363" lon="7.87741" /><trkpt lat="46.25337" lon="7.87726" /><trkpt lat="46.25313" lon="7.87718" /><trkpt lat="46.25296" lon="7.87716" /><trkpt lat="46.2528" lon="7.87716" /><trkpt lat="46.25263" lon="7.87718" /><trkpt lat="46.25253" lon="7.87721" /><trkpt lat="46.25243" lon="7.87724" /><trkpt lat="46.25227" lon="7.87731" /><trkpt lat="46.2521" lon="7.87738" /><trkpt lat="46.25193" lon="7.87746" /><trkpt lat="46.25171" lon="7.87754" /><trkpt lat="46.25152" lon="7.8776" /><trkpt lat="46.25133" lon="7.87763" /><trkpt lat="46.25113" lon="7.87762" /><trkpt lat="46.25094" lon="7.87757" /><trkpt lat="46.2507" lon="7.87746" /><trkpt lat="46.25048" lon="7.8773" /><trkpt lat="46.25025" lon="7.87712" /><trkpt lat="46.24999" lon="7.87694" /><trkpt lat="46.24981" lon="7.87683" /><trkpt lat="46.2495" lon="7.8767" /><trkpt lat="46.24921" lon="7.87665" /><trkpt lat="46.24899" lon="7.87662" /><trkpt lat="46.2483" lon="7.87663" /><trkpt lat="46.24774" lon="7.87661" /><trkpt lat="46.24746" lon="7.87656" /><trkpt lat="46.24724" lon="7.8765" /><trkpt lat="46.24664" lon="7.87627" /><trkpt lat="46.24635" lon="7.87616" /><trkpt lat="46.24565" lon="7.87596" /><trkpt lat="46.24512" lon="7.87582" /><trkpt lat="46.24499" lon="7.87578" /><trkpt lat="46.24489" lon="7.87575" /><trkpt lat="46.24477" lon="7.87571" /><trkpt lat="46.24451" lon="7.87561" /><trkpt lat="46.24431" lon="7.87554" /><trkpt lat="46.24407" lon="7.87545" /><trkpt lat="46.24373" lon="7.87533" /><trkpt lat="46.24362" lon="7.87528" /><trkpt lat="46.24354" lon="7.87526" /><trkpt lat="46.24282" lon="7.87499" /><trkpt lat="46.24272" lon="7.87495" /><trkpt lat="46.2426" lon="7.87491" /><trkpt lat="46.24244" lon="7.87485" /><trkpt lat="46.24229" lon="7.87479" /><trkpt lat="46.24219" lon="7.87476" /><trkpt lat="46.24211" lon="7.87472" /><trkpt lat="46.24204" lon="7.87468" /><trkpt lat="46.242" lon="7.87466" /><trkpt lat="46.24193" lon="7.87461" /><trkpt lat="46.24187" lon="7.87457" /><trkpt lat="46.24181" lon="7.87452" /><trkpt lat="46.24175" lon="7.87448" /><trkpt lat="46.24169" lon="7.87442" /><trkpt lat="46.24164" lon="7.87436" /><trkpt lat="46.24158" lon="7.8743" /><trkpt lat="46.24153" lon="7.87424" /><trkpt lat="46.24147" lon="7.87417" /><trkpt lat="46.24135" lon="7.87403" /><trkpt lat="46.24126" lon="7.87392" /><trkpt lat="46.24122" lon="7.87387" /><trkpt lat="46.24118" lon="7.87382" /><trkpt lat="46.24105" lon="7.87367" /><trkpt lat="46.24093" lon="7.87352" /><trkpt lat="46.24081" lon="7.87338" /><trkpt lat="46.24076" lon="7.87333" /><trkpt lat="46.24071" lon="7.87328" /><trkpt lat="46.24065" lon="7.87323" /><trkpt lat="46.24059" lon="7.87318" /><trkpt lat="46.24052" lon="7.87314" /><trkpt lat="46.24045" lon="7.8731" /><trkpt lat="46.24038" lon="7.87306" /><trkpt lat="46.24018" lon="7.87298" /><trkpt lat="46.23989" lon="7.87286" /><trkpt lat="46.23944" lon="7.87269" /><trkpt lat="46.23928" lon="7.87264" /><trkpt lat="46.2391" lon="7.87263" /><trkpt lat="46.2388" lon="7.87269" /><trkpt lat="46.23844" lon="7.87277" /><trkpt lat="46.23828" lon="7.87275" /><trkpt lat="46.23817" lon="7.87272" /><trkpt lat="46.23782" lon="7.87255" /><trkpt lat="46.23765" lon="7.87251" /><trkpt lat="46.23746" lon="7.87253" /><trkpt lat="46.23731" lon="7.8726" /><trkpt lat="46.23702" lon="7.87278" /><trkpt lat="46.23686" lon="7.87281" /><trkpt lat="46.23667" lon="7.87279" /><trkpt lat="46.23652" lon="7.87276" /><trkpt lat="46.23631" lon="7.87262" /><trkpt lat="46.23585" lon="7.87222" /><trkpt lat="46.23571" lon="7.87211" /><trkpt lat="46.23557" lon="7.87201" /><trkpt lat="46.23531" lon="7.87189" /><trkpt lat="46.23507" lon="7.87183" /><trkpt lat="46.23485" lon="7.87179" /><trkpt lat="46.23465" lon="7.87181" /><trkpt lat="46.23452" lon="7.87187" /><trkpt lat="46.23394" lon="7.87226" /><trkpt lat="46.23369" lon="7.87239" /><trkpt lat="46.23352" lon="7.87242" /><trkpt lat="46.23339" lon="7.87241" /><trkpt lat="46.23327" lon="7.87238" /><trkpt lat="46.23312" lon="7.87231" /><trkpt lat="46.23297" lon="7.87227" /><trkpt lat="46.23275" lon="7.87224" /><trkpt lat="46.23253" lon="7.87214" /><trkpt lat="46.23246" lon="7.87211" /><trkpt lat="46.2324" lon="7.87207" /><trkpt lat="46.23235" lon="7.87202" /><trkpt lat="46.2323" lon="7.87197" /><trkpt lat="46.23226" lon="7.87193" /><trkpt lat="46.23221" lon="7.87187" /><trkpt lat="46.23217" lon="7.8718" /><trkpt lat="46.23211" lon="7.87171" /><trkpt lat="46.23207" lon="7.87164" /><trkpt lat="46.23204" lon="7.87158" /><trkpt lat="46.23202" lon="7.87153" /><trkpt lat="46.23199" lon="7.87147" /><trkpt lat="46.23197" lon="7.87138" /><trkpt lat="46.23195" lon="7.8713" /><trkpt lat="46.23193" lon="7.8712" /><trkpt lat="46.23191" lon="7.87104" /><trkpt lat="46.23186" lon="7.87074" /><trkpt lat="46.23185" lon="7.87061" /><trkpt lat="46.23183" lon="7.8705" /><trkpt lat="46.23181" lon="7.8704" /><trkpt lat="46.23178" lon="7.8703" /><trkpt lat="46.23176" lon="7.87023" /><trkpt lat="46.23174" lon="7.87014" /><trkpt lat="46.23172" lon="7.87007" /><trkpt lat="46.23169" lon="7.87001" /><trkpt lat="46.23166" lon="7.86993" /><trkpt lat="46.23163" lon="7.86986" /><trkpt lat="46.23159" lon="7.86979" /><trkpt lat="46.23155" lon="7.86971" /><trkpt lat="46.23152" lon="7.86965" /><trkpt lat="46.23148" lon="7.86959" /><trkpt lat="46.23144" lon="7.86953" /><trkpt lat="46.23139" lon="7.86946" /><trkpt lat="46.23134" lon="7.8694" /><trkpt lat="46.23128" lon="7.86933" /><trkpt lat="46.23123" lon="7.86928" /><trkpt lat="46.23103" lon="7.86908" /><trkpt lat="46.23094" lon="7.86898" /><trkpt lat="46.23085" lon="7.86888" /><trkpt lat="46.23079" lon="7.86881" /><trkpt lat="46.23072" lon="7.86872" /><trkpt lat="46.23068" lon="7.86867" /><trkpt lat="46.23066" lon="7.86863" /><trkpt lat="46.23061" lon="7.86857" /><trkpt lat="46.23057" lon="7.8685" /><trkpt lat="46.23032" lon="7.86808" /><trkpt lat="46.23022" lon="7.86784" /><trkpt lat="46.23017" lon="7.86754" /><trkpt lat="46.23016" lon="7.86737" /><trkpt lat="46.23017" lon="7.86719" /><trkpt lat="46.23019" lon="7.86685" /><trkpt lat="46.23016" lon="7.86647" /><trkpt lat="46.2301" lon="7.86585" /><trkpt lat="46.23008" lon="7.86555" /><trkpt lat="46.23009" lon="7.86536" /><trkpt lat="46.23011" lon="7.86518" /><trkpt lat="46.23012" lon="7.86496" /><trkpt lat="46.2301" lon="7.86475" /><trkpt lat="46.23008" lon="7.86465" /><trkpt lat="46.22998" lon="7.86437" /><trkpt lat="46.22987" lon="7.86411" /><trkpt lat="46.22976" lon="7.86397" /><trkpt lat="46.22951" lon="7.86374" /><trkpt lat="46.22938" lon="7.86359" /><trkpt lat="46.22929" lon="7.86343" /><trkpt lat="46.2292" lon="7.86322" /><trkpt lat="46.22913" lon="7.86291" /><trkpt lat="46.22904" lon="7.86261" /><trkpt lat="46.22897" lon="7.86244" /><trkpt lat="46.22884" lon="7.86223" /><trkpt lat="46.22858" lon="7.86185" /><trkpt lat="46.22848" lon="7.86166" /><trkpt lat="46.22838" lon="7.86134" /><trkpt lat="46.22819" lon="7.86058" /><trkpt lat="46.2281" lon="7.86034" /><trkpt lat="46.22796" lon="7.86008" /><trkpt lat="46.22776" lon="7.85986" /><trkpt lat="46.22755" lon="7.85963" /><trkpt lat="46.22745" lon="7.8595" /><trkpt lat="46.22736" lon="7.85931" /><trkpt lat="46.22728" lon="7.85906" /><trkpt lat="46.22724" lon="7.85878" /><trkpt lat="46.22723" lon="7.85857" /><trkpt lat="46.22725" lon="7.85819" /><trkpt lat="46.22724" lon="7.85784" /><trkpt lat="46.22721" lon="7.8576" /><trkpt lat="46.22716" lon="7.85701" /><trkpt lat="46.22711" lon="7.85655" /><trkpt lat="46.22705" lon="7.85631" /><trkpt lat="46.22697" lon="7.85611" /><trkpt lat="46.22686" lon="7.85591" /><trkpt lat="46.22669" lon="7.85564" /><trkpt lat="46.22656" lon="7.85547" /><trkpt lat="46.22641" lon="7.85533" /><trkpt lat="46.22617" lon="7.85518" /><trkpt lat="46.22605" lon="7.85509" /><trkpt lat="46.22592" lon="7.85494" /><trkpt lat="46.22581" lon="7.85473" /><trkpt lat="46.22563" lon="7.85442" /><trkpt lat="46.22552" lon="7.85428" /><trkpt lat="46.22541" lon="7.85417" /><trkpt lat="46.22497" lon="7.85376" /><trkpt lat="46.22483" lon="7.85365" /><trkpt lat="46.22474" lon="7.85359" /><trkpt lat="46.22462" lon="7.85356" /><trkpt lat="46.2244" lon="7.85356" /><trkpt lat="46.2242" lon="7.85354" /><trkpt lat="46.22405" lon="7.85348" /><trkpt lat="46.22395" lon="7.8534" /><trkpt lat="46.22386" lon="7.8533" /><trkpt lat="46.22376" lon="7.85315" /><trkpt lat="46.22368" lon="7.85294" /><trkpt lat="46.22363" lon="7.85276" /><trkpt lat="46.22349" lon="7.85205" /><trkpt lat="46.22342" lon="7.85183" /><trkpt lat="46.22335" lon="7.85166" /><trkpt lat="46.22323" lon="7.85146" /><trkpt lat="46.22308" lon="7.85123" /><trkpt lat="46.22297" lon="7.851" /><trkpt lat="46.22281" lon="7.85052" /><trkpt lat="46.22276" lon="7.85035" /><trkpt lat="46.2227" lon="7.85011" /><trkpt lat="46.22267" lon="7.84992" /><trkpt lat="46.22265" lon="7.84983" /><trkpt lat="46.22261" lon="7.84972" /><trkpt lat="46.22256" lon="7.84959" /><trkpt lat="46.2225" lon="7.84946" /><trkpt lat="46.22239" lon="7.84929" /><trkpt lat="46.22224" lon="7.84912" /><trkpt lat="46.22203" lon="7.84894" /><trkpt lat="46.22195" lon="7.84885" /><trkpt lat="46.22187" lon="7.84873" /><trkpt lat="46.22175" lon="7.84852" /><trkpt lat="46.22168" lon="7.84829" /><trkpt lat="46.22164" lon="7.84807" /><trkpt lat="46.22159" lon="7.84757" /><trkpt lat="46.22155" lon="7.84726" /><trkpt lat="46.22148" lon="7.84698" /><trkpt lat="46.22138" lon="7.84675" /><trkpt lat="46.22123" lon="7.84654" /><trkpt lat="46.22107" lon="7.8464" /><trkpt lat="46.22088" lon="7.84629" /><trkpt lat="46.22067" lon="7.84617" /><trkpt lat="46.22053" lon="7.84603" /><trkpt lat="46.22039" lon="7.84583" /><trkpt lat="46.2203" lon="7.84565" /><trkpt lat="46.22023" lon="7.84544" /><trkpt lat="46.22016" lon="7.84509" /><trkpt lat="46.22009" lon="7.84482" /><trkpt lat="46.21994" lon="7.84449" /><trkpt lat="46.21973" lon="7.8442" /><trkpt lat="46.21955" lon="7.844" /><trkpt lat="46.21937" lon="7.84384" /><trkpt lat="46.21918" lon="7.84367" /><trkpt lat="46.21904" lon="7.84353" /><trkpt lat="46.21892" lon="7.84333" /><trkpt lat="46.21883" lon="7.84314" /><trkpt lat="46.21877" lon="7.84287" /><trkpt lat="46.2187" lon="7.84251" /><trkpt lat="46.21862" lon="7.84226" /><trkpt lat="46.21854" lon="7.84209" /><trkpt lat="46.21843" lon="7.84194" /><trkpt lat="46.21827" lon="7.84174" /><trkpt lat="46.21803" lon="7.84147" /><trkpt lat="46.21797" lon="7.8414" /><trkpt lat="46.21792" lon="7.84133" /><trkpt lat="46.21786" lon="7.84125" /><trkpt lat="46.2178" lon="7.84117" /><trkpt lat="46.21775" lon="7.84109" /><trkpt lat="46.21769" lon="7.841" /><trkpt lat="46.21747" lon="7.84064" /><trkpt lat="46.21742" lon="7.84057" /><trkpt lat="46.21737" lon="7.84051" /><trkpt lat="46.21732" lon="7.84045" /><trkpt lat="46.21727" lon="7.8404" /><trkpt lat="46.2172" lon="7.84035" /><trkpt lat="46.21716" lon="7.84031" /><trkpt lat="46.21711" lon="7.84028" /><trkpt lat="46.217" lon="7.84022" /><trkpt lat="46.21694" lon="7.84018" /><trkpt lat="46.21688" lon="7.84013" /><trkpt lat="46.21682" lon="7.84008" /><trkpt lat="46.21677" lon="7.84003" /><trkpt lat="46.21672" lon="7.83997" /><trkpt lat="46.21667" lon="7.8399" /><trkpt lat="46.21663" lon="7.83983" /><trkpt lat="46.2165" lon="7.83962" /><trkpt lat="46.21644" lon="7.83953" /><trkpt lat="46.21639" lon="7.83946" /><trkpt lat="46.21634" lon="7.8394" /><trkpt lat="46.21629" lon="7.83935" /><trkpt lat="46.21623" lon="7.83931" /><trkpt lat="46.21613" lon="7.83924" /><trkpt lat="46.21603" lon="7.83918" /><trkpt lat="46.21594" lon="7.83912" /><trkpt lat="46.21588" lon="7.83907" /><trkpt lat="46.21583" lon="7.83902" /><trkpt lat="46.21579" lon="7.83897" /><trkpt lat="46.21573" lon="7.8389" /><trkpt lat="46.21568" lon="7.83882" /><trkpt lat="46.21561" lon="7.83874" /><trkpt lat="46.21558" lon="7.83869" /><trkpt lat="46.2155" lon="7.83859" /><trkpt lat="46.21507" lon="7.838" /><trkpt lat="46.21485" lon="7.8377" /><trkpt lat="46.21479" lon="7.83763" /><trkpt lat="46.21473" lon="7.83756" /><trkpt lat="46.21466" lon="7.83749" /><trkpt lat="46.21452" lon="7.83736" /><trkpt lat="46.21437" lon="7.83724" /><trkpt lat="46.21424" lon="7.83711" /><trkpt lat="46.21419" lon="7.83705" /><trkpt lat="46.21412" lon="7.83697" /><trkpt lat="46.21407" lon="7.83689" /><trkpt lat="46.21401" lon="7.83679" /><trkpt lat="46.21392" lon="7.83662" /><trkpt lat="46.21384" lon="7.8365" /><trkpt lat="46.21378" lon="7.83638" /><trkpt lat="46.21372" lon="7.83623" /><trkpt lat="46.21364" lon="7.83605" /><trkpt lat="46.2136" lon="7.83595" /><trkpt lat="46.21355" lon="7.83585" /><trkpt lat="46.21349" lon="7.83577" /><trkpt lat="46.21343" lon="7.8357" /><trkpt lat="46.21339" lon="7.83565" /><trkpt lat="46.21329" lon="7.83554" /><trkpt lat="46.2132" lon="7.83545" /><trkpt lat="46.2131" lon="7.83535" /><trkpt lat="46.21298" lon="7.83524" /><trkpt lat="46.21271" lon="7.835" /><trkpt lat="46.21183" lon="7.83425" /><trkpt lat="46.21176" lon="7.83419" /><trkpt lat="46.21169" lon="7.83411" /><trkpt lat="46.21163" lon="7.83405" /><trkpt lat="46.21157" lon="7.83399" /><trkpt lat="46.21151" lon="7.83391" /><trkpt lat="46.21146" lon="7.83383" /><trkpt lat="46.21141" lon="7.83374" /><trkpt lat="46.21136" lon="7.83364" /><trkpt lat="46.21132" lon="7.83355" /><trkpt lat="46.21126" lon="7.83342" /><trkpt lat="46.21123" lon="7.83333" /><trkpt lat="46.21117" lon="7.83316" /><trkpt lat="46.21097" lon="7.83258" /><trkpt lat="46.2107" lon="7.83186" /><trkpt lat="46.21064" lon="7.83172" /><trkpt lat="46.21058" lon="7.83156" /><trkpt lat="46.21053" lon="7.83147" /><trkpt lat="46.21048" lon="7.83137" /><trkpt lat="46.21043" lon="7.83126" /><trkpt lat="46.21038" lon="7.83118" /><trkpt lat="46.21028" lon="7.83102" /><trkpt lat="46.21024" lon="7.83097" /><trkpt lat="46.21017" lon="7.83087" /><trkpt lat="46.21008" lon="7.83075" /><trkpt lat="46.21002" lon="7.83068" /><trkpt lat="46.20995" lon="7.8306" /><trkpt lat="46.20988" lon="7.83053" /><trkpt lat="46.20981" lon="7.83047" /><trkpt lat="46.20974" lon="7.83042" /><trkpt lat="46.20966" lon="7.83038" /><trkpt lat="46.20959" lon="7.83034" /><trkpt lat="46.20953" lon="7.83032" /><trkpt lat="46.20946" lon="7.8303" /><trkpt lat="46.20937" lon="7.83028" /><trkpt lat="46.20928" lon="7.83026" /><trkpt lat="46.2092" lon="7.83025" /><trkpt lat="46.20895" lon="7.83023" /><trkpt lat="46.2089" lon="7.83022" /><trkpt lat="46.20884" lon="7.83021" /><trkpt lat="46.20877" lon="7.83019" /><trkpt lat="46.2087" lon="7.83018" /><trkpt lat="46.20862" lon="7.83014" /><trkpt lat="46.20854" lon="7.8301" /><trkpt lat="46.20847" lon="7.83006" /><trkpt lat="46.20841" lon="7.83002" /><trkpt lat="46.20833" lon="7.82995" /><trkpt lat="46.20825" lon="7.82988" /><trkpt lat="46.20819" lon="7.8298" /><trkpt lat="46.20812" lon="7.82971" /><trkpt lat="46.20803" lon="7.82959" /><trkpt lat="46.20793" lon="7.82942" /><trkpt lat="46.20785" lon="7.8293" /><trkpt lat="46.20757" lon="7.82885" /><trkpt lat="46.20729" lon="7.82843" /><trkpt lat="46.20713" lon="7.82825" /><trkpt lat="46.20693" lon="7.82808" /><trkpt lat="46.20672" lon="7.82793" /><trkpt lat="46.20646" lon="7.82774" /><trkpt lat="46.20625" lon="7.82754" /><trkpt lat="46.20607" lon="7.82728" /><trkpt lat="46.20583" lon="7.82682" /><trkpt lat="46.20543" lon="7.82608" /><trkpt lat="46.20529" lon="7.82581" /><trkpt lat="46.20513" lon="7.82559" /><trkpt lat="46.20495" lon="7.82539" /><trkpt lat="46.20472" lon="7.82526" /><trkpt lat="46.20444" lon="7.82515" /><trkpt lat="46.20429" lon="7.82507" /><trkpt lat="46.20409" lon="7.82489" /><trkpt lat="46.20374" lon="7.82449" /><trkpt lat="46.20346" lon="7.82416" /><trkpt lat="46.20321" lon="7.82387" /><trkpt lat="46.20308" lon="7.82367" /><trkpt lat="46.20299" lon="7.82345" /><trkpt lat="46.20282" lon="7.82286" /><trkpt lat="46.20273" lon="7.82264" /><trkpt lat="46.20257" lon="7.82239" /><trkpt lat="46.20228" lon="7.82205" /><trkpt lat="46.20204" lon="7.82179" /><trkpt lat="46.20177" lon="7.82156" /><trkpt lat="46.20165" lon="7.82143" /><trkpt lat="46.20159" lon="7.82134" /><trkpt lat="46.20154" lon="7.82125" /><trkpt lat="46.20141" lon="7.82097" /><trkpt lat="46.20106" lon="7.82017" /><trkpt lat="46.20085" lon="7.8198" /><trkpt lat="46.20067" lon="7.81952" /><trkpt lat="46.2005" lon="7.8193" /><trkpt lat="46.20032" lon="7.81916" /><trkpt lat="46.19995" lon="7.81898" /><trkpt lat="46.1998" lon="7.81884" /><trkpt lat="46.19967" lon="7.81868" /><trkpt lat="46.1995" lon="7.81846" /><trkpt lat="46.19925" lon="7.81827" /><trkpt lat="46.19877" lon="7.81813" /><trkpt lat="46.19856" lon="7.81806" /><trkpt lat="46.19839" lon="7.81796" /><trkpt lat="46.19823" lon="7.81779" /><trkpt lat="46.19805" lon="7.81748" /><trkpt lat="46.19788" lon="7.81724" /><trkpt lat="46.19773" lon="7.81709" /><trkpt lat="46.19751" lon="7.81695" /><trkpt lat="46.19738" lon="7.81693" /><trkpt lat="46.19726" lon="7.81693" /><trkpt lat="46.19688" lon="7.81698" /><trkpt lat="46.19666" lon="7.81694" /><trkpt lat="46.19646" lon="7.81684" /><trkpt lat="46.19628" lon="7.81665" /><trkpt lat="46.19608" lon="7.81635" /><trkpt lat="46.1959" lon="7.81614" /><trkpt lat="46.19571" lon="7.81599" /><trkpt lat="46.19555" lon="7.81586" /><trkpt lat="46.19533" lon="7.81574" /><trkpt lat="46.19516" lon="7.81561" /><trkpt lat="46.19501" lon="7.81545" /><trkpt lat="46.19483" lon="7.81536" /><trkpt lat="46.19461" lon="7.81532" /><trkpt lat="46.19429" lon="7.81533" /><trkpt lat="46.19412" lon="7.81531" /><trkpt lat="46.19394" lon="7.81523" /><trkpt lat="46.19372" lon="7.81505" /><trkpt lat="46.19345" lon="7.8148" /><trkpt lat="46.1932" lon="7.81454" /><trkpt lat="46.19309" lon="7.81444" /><trkpt lat="46.19297" lon="7.81438" /><trkpt lat="46.19285" lon="7.81433" /><trkpt lat="46.19267" lon="7.81427" /><trkpt lat="46.19255" lon="7.8142" /><trkpt lat="46.19248" lon="7.81415" /><trkpt lat="46.19243" lon="7.8141" /><trkpt lat="46.19203" lon="7.81364" /><trkpt lat="46.1919" lon="7.81349" /><trkpt lat="46.19161" lon="7.81314" /><trkpt lat="46.1913" lon="7.81276" /><trkpt lat="46.19102" lon="7.81237" /><trkpt lat="46.1908" lon="7.81203" /><trkpt lat="46.19058" lon="7.81167" /><trkpt lat="46.19048" lon="7.81148" /><trkpt lat="46.1904" lon="7.81132" /><trkpt lat="46.19014" lon="7.81076" /><trkpt lat="46.19009" lon="7.81067" /><trkpt lat="46.19006" lon="7.81061" /><trkpt lat="46.18999" lon="7.81052" /><trkpt lat="46.18993" lon="7.81045" /><trkpt lat="46.18986" lon="7.81038" /><trkpt lat="46.1898" lon="7.81033" /><trkpt lat="46.18974" lon="7.81029" /><trkpt lat="46.18959" lon="7.81021" /><trkpt lat="46.18945" lon="7.81014" /><trkpt lat="46.18933" lon="7.81005" /><trkpt lat="46.1892" lon="7.8099" /><trkpt lat="46.18906" lon="7.80969" /><trkpt lat="46.18897" lon="7.80955" /><trkpt lat="46.18882" lon="7.80936" /><trkpt lat="46.18865" lon="7.80923" /><trkpt lat="46.18828" lon="7.80908" /><trkpt lat="46.18799" lon="7.80896" /><trkpt lat="46.18764" lon="7.80882" /><trkpt lat="46.18737" lon="7.80875" /><trkpt lat="46.18711" lon="7.80871" /><trkpt lat="46.1868" lon="7.8086" /><trkpt lat="46.18638" lon="7.80836" /><trkpt lat="46.18606" lon="7.80799" /><trkpt lat="46.18574" lon="7.80739" /><trkpt lat="46.1855" lon="7.80658" /><trkpt lat="46.18536" lon="7.80623" /><trkpt lat="46.18528" lon="7.80607" /><trkpt lat="46.18522" lon="7.80596" /><trkpt lat="46.18514" lon="7.80583" /><trkpt lat="46.18505" lon="7.80572" /><trkpt lat="46.18497" lon="7.80562" /><trkpt lat="46.18486" lon="7.80551" /><trkpt lat="46.18431" lon="7.80501" /><trkpt lat="46.184" lon="7.80478" /><trkpt lat="46.18384" lon="7.80469" /><trkpt lat="46.18366" lon="7.8046" /><trkpt lat="46.18349" lon="7.80454" /><trkpt lat="46.18328" lon="7.80453" /><trkpt lat="46.18287" lon="7.8045" /><trkpt lat="46.18269" lon="7.80446" /><trkpt lat="46.18248" lon="7.80439" /><trkpt lat="46.18226" lon="7.8043" /><trkpt lat="46.18222" lon="7.80428" /><trkpt lat="46.18184" lon="7.80401" /><trkpt lat="46.18151" lon="7.8038" /><trkpt lat="46.1812" lon="7.80371" /><trkpt lat="46.18113" lon="7.8037" /><trkpt lat="46.1809" lon="7.80369" /><trkpt lat="46.1807" lon="7.8037" /><trkpt lat="46.18004" lon="7.80387" /><trkpt lat="46.17993" lon="7.80389" /><trkpt lat="46.17982" lon="7.80391" /><trkpt lat="46.17974" lon="7.80391" /><trkpt lat="46.17965" lon="7.80392" /><trkpt lat="46.17947" lon="7.80391" /><trkpt lat="46.17939" lon="7.80389" /><trkpt lat="46.17931" lon="7.80387" /><trkpt lat="46.17922" lon="7.80385" /><trkpt lat="46.17912" lon="7.80381" /><trkpt lat="46.17903" lon="7.80376" /><trkpt lat="46.17894" lon="7.80371" /><trkpt lat="46.17886" lon="7.80366" /><trkpt lat="46.17878" lon="7.8036" /><trkpt lat="46.17871" lon="7.80354" /><trkpt lat="46.17864" lon="7.80348" /><trkpt lat="46.17857" lon="7.80341" /><trkpt lat="46.1785" lon="7.80333" /><trkpt lat="46.17841" lon="7.80322" /><trkpt lat="46.17834" lon="7.80313" /><trkpt lat="46.17827" lon="7.80303" /><trkpt lat="46.1782" lon="7.80293" /><trkpt lat="46.17812" lon="7.80281" /><trkpt lat="46.1774" lon="7.8018" /><trkpt lat="46.17726" lon="7.80159" /><trkpt lat="46.1772" lon="7.8015" /><trkpt lat="46.17715" lon="7.80143" /><trkpt lat="46.17709" lon="7.80135" /><trkpt lat="46.17702" lon="7.80128" /><trkpt lat="46.17696" lon="7.80121" /><trkpt lat="46.1769" lon="7.80116" /><trkpt lat="46.17686" lon="7.80112" /><trkpt lat="46.1768" lon="7.80108" /><trkpt lat="46.1767" lon="7.80102" /><trkpt lat="46.17663" lon="7.80098" /><trkpt lat="46.17658" lon="7.80096" /><trkpt lat="46.17652" lon="7.80094" /><trkpt lat="46.17645" lon="7.80092" /><trkpt lat="46.17637" lon="7.80091" /><trkpt lat="46.17631" lon="7.8009" /><trkpt lat="46.17624" lon="7.80089" /><trkpt lat="46.17609" lon="7.80089" /><trkpt lat="46.17586" lon="7.80087" /><trkpt lat="46.1757" lon="7.80082" /><trkpt lat="46.17549" lon="7.80072" /><trkpt lat="46.17506" lon="7.80052" /><trkpt lat="46.17481" lon="7.80034" /><trkpt lat="46.17459" lon="7.80012" /><trkpt lat="46.17426" lon="7.79978" /><trkpt lat="46.17405" lon="7.7995" /><trkpt lat="46.17374" lon="7.799" /><trkpt lat="46.17363" lon="7.79886" /><trkpt lat="46.1735" lon="7.79871" /><trkpt lat="46.17326" lon="7.79846" /><trkpt lat="46.17281" lon="7.79797" /><trkpt lat="46.17244" lon="7.79758" /><trkpt lat="46.17231" lon="7.79746" /><trkpt lat="46.17219" lon="7.7974" /><trkpt lat="46.172" lon="7.79733" /><trkpt lat="46.17178" lon="7.79731" /><trkpt lat="46.17159" lon="7.79734" /><trkpt lat="46.17136" lon="7.79744" /><trkpt lat="46.1708" lon="7.79778" /><trkpt lat="46.17073" lon="7.79783" /><trkpt lat="46.17053" lon="7.79796" /><trkpt lat="46.1703" lon="7.79809" /><trkpt lat="46.17008" lon="7.79819" /><trkpt lat="46.1699" lon="7.79825" /><trkpt lat="46.16921" lon="7.79848" /><trkpt lat="46.16896" lon="7.79858" /><trkpt lat="46.16847" lon="7.79868" /><trkpt lat="46.16826" lon="7.79867" /><trkpt lat="46.16763" lon="7.79853" /><trkpt lat="46.16725" lon="7.79841" /><trkpt lat="46.16708" lon="7.7983" /><trkpt lat="46.16699" lon="7.7982" /><trkpt lat="46.16692" lon="7.79814" /><trkpt lat="46.16681" lon="7.79796" /><trkpt lat="46.16669" lon="7.79768" /><trkpt lat="46.16654" lon="7.797" /><trkpt lat="46.16649" lon="7.79682" /><trkpt lat="46.16641" lon="7.79662" /><trkpt lat="46.16631" lon="7.79644" /><trkpt lat="46.16619" lon="7.79629" /><trkpt lat="46.16606" lon="7.79617" /><trkpt lat="46.16576" lon="7.796" /><trkpt lat="46.16501" lon="7.7956" /><trkpt lat="46.16448" lon="7.79533" /><trkpt lat="46.16417" lon="7.79516" /><trkpt lat="46.16396" lon="7.79507" /><trkpt lat="46.16383" lon="7.79501" /><trkpt lat="46.16352" lon="7.79489" /><trkpt lat="46.16338" lon="7.79482" /><trkpt lat="46.16301" lon="7.79464" /><trkpt lat="46.16077" lon="7.7935" /><trkpt lat="46.16048" lon="7.79336" /><trkpt lat="46.16036" lon="7.79324" /><trkpt lat="46.1602" lon="7.79303" /><trkpt lat="46.15994" lon="7.79251" /><trkpt lat="46.15984" lon="7.79236" /><trkpt lat="46.15971" lon="7.79223" /><trkpt lat="46.15957" lon="7.79212" /><trkpt lat="46.15941" lon="7.79196" /><trkpt lat="46.15915" lon="7.7916" /><trkpt lat="46.15899" lon="7.79143" /><trkpt lat="46.1588" lon="7.7913" /><trkpt lat="46.15862" lon="7.79126" /><trkpt lat="46.1585" lon="7.79125" /><trkpt lat="46.15838" lon="7.79127" /><trkpt lat="46.15819" lon="7.79134" /><trkpt lat="46.15784" lon="7.79161" /><trkpt lat="46.15764" lon="7.79172" /><trkpt lat="46.15743" lon="7.79175" /><trkpt lat="46.15683" lon="7.79159" /><trkpt lat="46.15628" lon="7.79159" /><trkpt lat="46.15612" lon="7.7916" /><trkpt lat="46.15596" lon="7.79157" /><trkpt lat="46.15577" lon="7.79149" /><trkpt lat="46.15562" lon="7.79138" /><trkpt lat="46.15551" lon="7.79125" /><trkpt lat="46.15539" lon="7.79105" /><trkpt lat="46.1553" lon="7.79083" /><trkpt lat="46.15519" lon="7.7905" /><trkpt lat="46.15508" lon="7.79019" /><trkpt lat="46.15489" lon="7.78994" /><trkpt lat="46.15475" lon="7.78981" /><trkpt lat="46.15457" lon="7.78969" /><trkpt lat="46.15428" lon="7.78953" /><trkpt lat="46.15403" lon="7.78942" /><trkpt lat="46.15387" lon="7.78937" /><trkpt lat="46.15378" lon="7.78937" /><trkpt lat="46.15366" lon="7.78937" /><trkpt lat="46.15345" lon="7.78945" /><trkpt lat="46.15298" lon="7.78981" /><trkpt lat="46.15286" lon="7.78988" /><trkpt lat="46.15267" lon="7.78995" /><trkpt lat="46.1524" lon="7.79001" /><trkpt lat="46.15188" lon="7.7901" /><trkpt lat="46.15153" lon="7.79016" /><trkpt lat="46.15119" lon="7.7902" /><trkpt lat="46.15089" lon="7.79019" /><trkpt lat="46.15052" lon="7.79017" /><trkpt lat="46.15024" lon="7.79023" /><trkpt lat="46.14984" lon="7.79035" /><trkpt lat="46.14953" lon="7.79049" /><trkpt lat="46.14927" lon="7.79059" /><trkpt lat="46.14889" lon="7.79076" /><trkpt lat="46.14877" lon="7.79081" /><trkpt lat="46.14864" lon="7.79089" /><trkpt lat="46.14845" lon="7.79101" /><trkpt lat="46.14843" lon="7.79102" /><trkpt lat="46.14822" lon="7.79119" /><trkpt lat="46.14797" lon="7.79143" /><trkpt lat="46.14776" lon="7.79165" /><trkpt lat="46.14755" lon="7.79185" /><trkpt lat="46.14732" lon="7.79206" /><trkpt lat="46.14714" lon="7.79216" /><trkpt lat="46.14689" lon="7.79229" /><trkpt lat="46.14662" lon="7.79238" /><trkpt lat="46.14632" lon="7.79244" /><trkpt lat="46.14472" lon="7.79267" /><trkpt lat="46.14453" lon="7.7927" /><trkpt lat="46.14428" lon="7.79272" /><trkpt lat="46.14416" lon="7.79273" /><trkpt lat="46.144" lon="7.79273" /><trkpt lat="46.14388" lon="7.79273" /><trkpt lat="46.14377" lon="7.79273" /><trkpt lat="46.14365" lon="7.79273" /><trkpt lat="46.14356" lon="7.79272" /><trkpt lat="46.14347" lon="7.7927" /><trkpt lat="46.14338" lon="7.79269" /><trkpt lat="46.1433" lon="7.79267" /><trkpt lat="46.14317" lon="7.79262" /><trkpt lat="46.14305" lon="7.79257" /><trkpt lat="46.14294" lon="7.79252" /><trkpt lat="46.14285" lon="7.79246" /><trkpt lat="46.14275" lon="7.7924" /><trkpt lat="46.14266" lon="7.79233" /><trkpt lat="46.14258" lon="7.79227" /><trkpt lat="46.14245" lon="7.79216" /><trkpt lat="46.14232" lon="7.79205" /><trkpt lat="46.14227" lon="7.792" /><trkpt lat="46.14203" lon="7.79177" /><trkpt lat="46.14179" lon="7.79154" /><trkpt lat="46.14168" lon="7.79144" /><trkpt lat="46.14163" lon="7.7914" /><trkpt lat="46.14141" lon="7.79125" /><trkpt lat="46.14121" lon="7.79114" /><trkpt lat="46.14115" lon="7.79112" /><trkpt lat="46.14101" lon="7.79107" /><trkpt lat="46.14074" lon="7.79099" /><trkpt lat="46.14047" lon="7.79094" /><trkpt lat="46.14018" lon="7.79095" /><trkpt lat="46.13994" lon="7.79102" /><trkpt lat="46.13975" lon="7.7911" /><trkpt lat="46.13962" lon="7.79118" /><trkpt lat="46.13932" lon="7.79141" /><trkpt lat="46.13899" lon="7.79166" /><trkpt lat="46.13872" lon="7.79184" /><trkpt lat="46.13846" lon="7.79196" /><trkpt lat="46.1383" lon="7.79201" /><trkpt lat="46.13817" lon="7.79204" /><trkpt lat="46.13787" lon="7.79207" /><trkpt lat="46.13769" lon="7.79205" /><trkpt lat="46.13741" lon="7.792" /><trkpt lat="46.13718" lon="7.7919" /><trkpt lat="46.13681" lon="7.79167" /><trkpt lat="46.13645" lon="7.79144" /><trkpt lat="46.13628" lon="7.79135" /><trkpt lat="46.13609" lon="7.79126" /><trkpt lat="46.13581" lon="7.79118" /><trkpt lat="46.13551" lon="7.79113" /><trkpt lat="46.13515" lon="7.79108" /><trkpt lat="46.13486" lon="7.79104" /><trkpt lat="46.13458" lon="7.79107" /><trkpt lat="46.13432" lon="7.79112" /><trkpt lat="46.13389" lon="7.79128" /><trkpt lat="46.13372" lon="7.79136" /><trkpt lat="46.13354" lon="7.79142" /><trkpt lat="46.13347" lon="7.79145" /><trkpt lat="46.1334" lon="7.79147" /><trkpt lat="46.13333" lon="7.79149" /><trkpt lat="46.13326" lon="7.7915" /><trkpt lat="46.1332" lon="7.79151" /><trkpt lat="46.13313" lon="7.79152" /><trkpt lat="46.13307" lon="7.79152" /><trkpt lat="46.13293" lon="7.79152" /><trkpt lat="46.13261" lon="7.7915" /><trkpt lat="46.13257" lon="7.7915" /><trkpt lat="46.13244" lon="7.7915" /><trkpt lat="46.13237" lon="7.7915" /><trkpt lat="46.13231" lon="7.7915" /><trkpt lat="46.13228" lon="7.7915" /><trkpt lat="46.13222" lon="7.79151" /><trkpt lat="46.13215" lon="7.79152" /><trkpt lat="46.13208" lon="7.79153" /><trkpt lat="46.132" lon="7.79155" /><trkpt lat="46.13194" lon="7.79158" /><trkpt lat="46.13187" lon="7.7916" /><trkpt lat="46.13181" lon="7.79163" /><trkpt lat="46.13176" lon="7.79165" /><trkpt lat="46.1317" lon="7.79169" /><trkpt lat="46.13161" lon="7.79173" /><trkpt lat="46.13121" lon="7.79196" /><trkpt lat="46.13104" lon="7.79204" /><trkpt lat="46.13095" lon="7.79208" /><trkpt lat="46.13088" lon="7.79211" /><trkpt lat="46.13078" lon="7.79214" /><trkpt lat="46.13071" lon="7.79215" /><trkpt lat="46.13061" lon="7.79217" /><trkpt lat="46.13053" lon="7.79218" /><trkpt lat="46.13045" lon="7.79218" /><trkpt lat="46.13038" lon="7.79217" /><trkpt lat="46.13031" lon="7.79217" /><trkpt lat="46.13024" lon="7.79216" /><trkpt lat="46.13018" lon="7.79215" /><trkpt lat="46.13007" lon="7.79212" /><trkpt lat="46.12988" lon="7.79207" /><trkpt lat="46.12946" lon="7.79196" /><trkpt lat="46.12893" lon="7.79177" /><trkpt lat="46.12866" lon="7.79162" /><trkpt lat="46.12799" lon="7.79123" /><trkpt lat="46.12752" lon="7.79093" /><trkpt lat="46.12719" lon="7.79065" /><trkpt lat="46.12705" lon="7.7905" /><trkpt lat="46.1268" lon="7.79026" /><trkpt lat="46.12658" lon="7.79006" /><trkpt lat="46.12644" lon="7.78995" /><trkpt lat="46.12627" lon="7.78984" /><trkpt lat="46.12563" lon="7.78953" /><trkpt lat="46.12531" lon="7.78933" /><trkpt lat="46.1249" lon="7.78903" /><trkpt lat="46.12442" lon="7.78869" /><trkpt lat="46.12395" lon="7.78835" /><trkpt lat="46.12368" lon="7.78819" /><trkpt lat="46.12341" lon="7.78811" /><trkpt lat="46.1231" lon="7.78808" /><trkpt lat="46.12239" lon="7.78816" /><trkpt lat="46.12197" lon="7.7882" /><trkpt lat="46.12168" lon="7.78822" /><trkpt lat="46.12119" lon="7.78828" /><trkpt lat="46.1209" lon="7.78829" /><trkpt lat="46.12063" lon="7.78828" /><trkpt lat="46.12033" lon="7.78823" /><trkpt lat="46.11999" lon="7.78813" /><trkpt lat="46.11956" lon="7.78794" /><trkpt lat="46.11925" lon="7.78774" /><trkpt lat="46.11898" lon="7.78756" /><trkpt lat="46.11848" lon="7.7872" /><trkpt lat="46.11819" lon="7.78694" /><trkpt lat="46.11794" lon="7.78676" /><trkpt lat="46.11787" lon="7.78671" /><trkpt lat="46.11771" lon="7.7866" /><trkpt lat="46.11729" lon="7.78632" /><trkpt lat="46.11717" lon="7.78625" /><trkpt lat="46.11703" lon="7.7862" /><trkpt lat="46.11679" lon="7.78618" /><trkpt lat="46.11668" lon="7.78619" /><trkpt lat="46.11633" lon="7.78629" /><trkpt lat="46.11621" lon="7.78636" /><trkpt lat="46.11604" lon="7.78652" /><trkpt lat="46.1159" lon="7.78673" /><trkpt lat="46.11577" lon="7.78693" /><trkpt lat="46.11567" lon="7.78715" /><trkpt lat="46.11549" lon="7.78759" /><trkpt lat="46.11533" lon="7.78794" /><trkpt lat="46.11528" lon="7.78806" /><trkpt lat="46.11518" lon="7.78819" /><trkpt lat="46.11507" lon="7.78832" /><trkpt lat="46.11494" lon="7.78842" /><trkpt lat="46.1148" lon="7.78851" /><trkpt lat="46.11469" lon="7.78855" /><trkpt lat="46.11458" lon="7.78858" /><trkpt lat="46.11437" lon="7.78857" /><trkpt lat="46.11406" lon="7.7885" /><trkpt lat="46.1136" lon="7.78827" /><trkpt lat="46.11337" lon="7.7882" /><trkpt lat="46.11264" lon="7.7881" /><trkpt lat="46.11196" lon="7.78795" /><trkpt lat="46.11159" lon="7.78788" /><trkpt lat="46.11131" lon="7.78771" /><trkpt lat="46.11106" lon="7.78751" /><trkpt lat="46.1105" lon="7.78687" /><trkpt lat="46.11022" lon="7.78655" /><trkpt lat="46.10932" lon="7.78554" /><trkpt lat="46.10906" lon="7.78529" /><trkpt lat="46.10825" lon="7.78464" /><trkpt lat="46.10719" lon="7.78378" /><trkpt lat="46.10703" lon="7.78366" /><trkpt lat="46.10691" lon="7.78357" /><trkpt lat="46.10678" lon="7.78346" /><trkpt lat="46.10647" lon="7.78325" /><trkpt lat="46.10616" lon="7.78305" /><trkpt lat="46.10555" lon="7.78266" /><trkpt lat="46.10516" lon="7.78243" /><trkpt lat="46.10484" lon="7.7822" /><trkpt lat="46.10461" lon="7.78195" /><trkpt lat="46.10447" lon="7.78181" /><trkpt lat="46.1043" lon="7.78156" /><trkpt lat="46.10409" lon="7.78124" /><trkpt lat="46.1039" lon="7.78094" /><trkpt lat="46.10377" lon="7.78077" /><trkpt lat="46.10363" lon="7.78062" /><trkpt lat="46.10349" lon="7.78049" /><trkpt lat="46.10323" lon="7.78031" /><trkpt lat="46.10294" lon="7.78021" /><trkpt lat="46.10275" lon="7.78017" /><trkpt lat="46.10266" lon="7.78016" /><trkpt lat="46.10258" lon="7.78016" /><trkpt lat="46.1025" lon="7.78017" /><trkpt lat="46.10242" lon="7.78018" /><trkpt lat="46.10234" lon="7.78019" /><trkpt lat="46.10198" lon="7.7803" /><trkpt lat="46.10181" lon="7.78035" /><trkpt lat="46.10168" lon="7.78039" /><trkpt lat="46.10111" lon="7.78056" /><trkpt lat="46.10082" lon="7.78066" /><trkpt lat="46.10066" lon="7.78072" /><trkpt lat="46.10061" lon="7.78075" /><trkpt lat="46.10055" lon="7.78079" /><trkpt lat="46.10045" lon="7.78087" /><trkpt lat="46.10026" lon="7.78103" /><trkpt lat="46.09993" lon="7.78133" /><trkpt lat="46.09957" lon="7.78165" /><trkpt lat="46.09945" lon="7.78175" /><trkpt lat="46.09937" lon="7.78182" /><trkpt lat="46.09931" lon="7.78186" /><trkpt lat="46.09925" lon="7.7819" /><trkpt lat="46.09916" lon="7.78196" /><trkpt lat="46.0991" lon="7.782" /><trkpt lat="46.09903" lon="7.78204" /><trkpt lat="46.09896" lon="7.78207" /><trkpt lat="46.09889" lon="7.7821" /><trkpt lat="46.09882" lon="7.78212" /><trkpt lat="46.09875" lon="7.78214" /><trkpt lat="46.09868" lon="7.78216" /><trkpt lat="46.09859" lon="7.78217" /><trkpt lat="46.09851" lon="7.78218" /><trkpt lat="46.09843" lon="7.78218" /><trkpt lat="46.09835" lon="7.78218" /><trkpt lat="46.09825" lon="7.78217" /><trkpt lat="46.09817" lon="7.78216" /><trkpt lat="46.09809" lon="7.78214" /><trkpt lat="46.09797" lon="7.7821" /><trkpt lat="46.09781" lon="7.78203" /><trkpt lat="46.09763" lon="7.78193" /><trkpt lat="46.09745" lon="7.7818" /><trkpt lat="46.09732" lon="7.7817" /><trkpt lat="46.09685" lon="7.78135" /><trkpt lat="46.09669" lon="7.78123" /><trkpt lat="46.09651" lon="7.78113" /><trkpt lat="46.09617" lon="7.78099" /><trkpt lat="46.09586" lon="7.78087" /><trkpt lat="46.0956" lon="7.78077" /><trkpt lat="46.09509" lon="7.78057" /><trkpt lat="46.09473" lon="7.78043" /><trkpt lat="46.09426" lon="7.78024" /><trkpt lat="46.09365" lon="7.78" /><trkpt lat="46.09251" lon="7.77956" /><trkpt lat="46.09217" lon="7.77943" /><trkpt lat="46.09177" lon="7.77929" /><trkpt lat="46.09158" lon="7.77922" /><trkpt lat="46.09138" lon="7.77917" /><trkpt lat="46.09117" lon="7.77913" /><trkpt lat="46.09097" lon="7.77911" /><trkpt lat="46.09041" lon="7.77907" /><trkpt lat="46.09031" lon="7.77907" /><trkpt lat="46.08925" lon="7.77902" /><trkpt lat="46.08854" lon="7.77895" /><trkpt lat="46.08804" lon="7.77892" /><trkpt lat="46.08787" lon="7.7789" /><trkpt lat="46.08767" lon="7.77888" /><trkpt lat="46.08756" lon="7.77887" /><trkpt lat="46.08743" lon="7.77884" /><trkpt lat="46.08705" lon="7.77874" /><trkpt lat="46.08674" lon="7.77865" /><trkpt lat="46.08644" lon="7.77857" /><trkpt lat="46.08619" lon="7.77852" /><trkpt lat="46.08589" lon="7.7785" /><trkpt lat="46.08537" lon="7.77852" /><trkpt lat="46.08496" lon="7.77854" /><trkpt lat="46.0832" lon="7.77864" /><trkpt lat="46.08273" lon="7.77864" /><trkpt lat="46.08239" lon="7.77859" /><trkpt lat="46.08206" lon="7.77853" /><trkpt lat="46.08176" lon="7.77844" /><trkpt lat="46.08159" lon="7.77838" /><trkpt lat="46.08129" lon="7.77827" /><trkpt lat="46.0809" lon="7.77807" /><trkpt lat="46.08022" lon="7.77772" /><trkpt lat="46.07939" lon="7.77728" /><trkpt lat="46.07883" lon="7.77698" /><trkpt lat="46.07702" lon="7.77603" /><trkpt lat="46.07629" lon="7.77564" /><trkpt lat="46.07469" lon="7.7748" /><trkpt lat="46.07457" lon="7.77474" /><trkpt lat="46.07372" lon="7.77429" /><trkpt lat="46.0734" lon="7.77417" /><trkpt lat="46.07314" lon="7.7741" /><trkpt lat="46.07298" lon="7.77407" /><trkpt lat="46.07256" lon="7.77403" /><trkpt lat="46.07214" lon="7.77399" /><trkpt lat="46.07179" lon="7.77396" /><trkpt lat="46.07161" lon="7.77395" /><trkpt lat="46.07143" lon="7.77395" /><trkpt lat="46.07119" lon="7.77397" /><trkpt lat="46.07101" lon="7.77401" /><trkpt lat="46.0707" lon="7.77409" /><trkpt lat="46.07028" lon="7.7742" /><trkpt lat="46.07009" lon="7.77425" /><trkpt lat="46.06996" lon="7.77428" /><trkpt lat="46.06986" lon="7.7743" /><trkpt lat="46.06977" lon="7.77432" /><trkpt lat="46.06966" lon="7.77435" /><trkpt lat="46.06956" lon="7.77436" /><trkpt lat="46.06944" lon="7.77439" /><trkpt lat="46.06932" lon="7.77441" /><trkpt lat="46.06922" lon="7.77442" /><trkpt lat="46.06911" lon="7.77444" /><trkpt lat="46.06902" lon="7.77445" /><trkpt lat="46.06892" lon="7.77445" /><trkpt lat="46.06877" lon="7.77446" /><trkpt lat="46.06864" lon="7.77447" /><trkpt lat="46.06843" lon="7.77447" /><trkpt lat="46.06763" lon="7.77445" /><trkpt lat="46.06751" lon="7.77445" /><trkpt lat="46.06743" lon="7.77445" /><trkpt lat="46.06736" lon="7.77445" /><trkpt lat="46.06728" lon="7.77446" /><trkpt lat="46.0672" lon="7.77447" /><trkpt lat="46.06714" lon="7.77448" /><trkpt lat="46.06706" lon="7.7745" /><trkpt lat="46.06699" lon="7.77453" /><trkpt lat="46.06694" lon="7.77455" /><trkpt lat="46.06688" lon="7.77457" /><trkpt lat="46.0668" lon="7.77461" /><trkpt lat="46.06673" lon="7.77466" /><trkpt lat="46.06665" lon="7.77471" /><trkpt lat="46.06657" lon="7.77477" /><trkpt lat="46.06642" lon="7.77489" /><trkpt lat="46.06624" lon="7.77503" /><trkpt lat="46.06614" lon="7.77511" /><trkpt lat="46.06601" lon="7.77521" /><trkpt lat="46.06591" lon="7.77529" /><trkpt lat="46.0658" lon="7.77537" /><trkpt lat="46.06575" lon="7.77541" /><trkpt lat="46.06568" lon="7.77545" /><trkpt lat="46.06564" lon="7.77547" /><trkpt lat="46.0656" lon="7.77549" /><trkpt lat="46.06556" lon="7.77551" /><trkpt lat="46.06547" lon="7.77555" /><trkpt lat="46.06541" lon="7.77557" /><trkpt lat="46.06537" lon="7.77559" /><trkpt lat="46.0653" lon="7.77561" /><trkpt lat="46.06506" lon="7.77564" /><trkpt lat="46.06488" lon="7.77564" /><trkpt lat="46.06482" lon="7.77564" /><trkpt lat="46.06472" lon="7.77562" /><trkpt lat="46.06454" lon="7.77557" /><trkpt lat="46.06448" lon="7.77555" /><trkpt lat="46.0644" lon="7.77551" /><trkpt lat="46.06433" lon="7.77548" /><trkpt lat="46.06425" lon="7.77544" /><trkpt lat="46.06418" lon="7.77539" /><trkpt lat="46.06409" lon="7.77534" /><trkpt lat="46.06365" lon="7.77504" /><trkpt lat="46.063" lon="7.77462" /><trkpt lat="46.06253" lon="7.7743" /><trkpt lat="46.0621" lon="7.77401" /><trkpt lat="46.06175" lon="7.77381" /><trkpt lat="46.06136" lon="7.77366" /><trkpt lat="46.06095" lon="7.77358" /><trkpt lat="46.06053" lon="7.77356" /><trkpt lat="46.06011" lon="7.7736" /><trkpt lat="46.05962" lon="7.77374" /><trkpt lat="46.05897" lon="7.77396" /><trkpt lat="46.05849" lon="7.77415" /><trkpt lat="46.05838" lon="7.77419" /><trkpt lat="46.05824" lon="7.77423" /><trkpt lat="46.05812" lon="7.77426" /><trkpt lat="46.058" lon="7.77427" /><trkpt lat="46.0579" lon="7.77429" /><trkpt lat="46.05778" lon="7.77429" /><trkpt lat="46.05768" lon="7.77428" /><trkpt lat="46.05758" lon="7.77427" /><trkpt lat="46.05751" lon="7.77425" /><trkpt lat="46.05745" lon="7.77424" /><trkpt lat="46.05738" lon="7.77422" /><trkpt lat="46.05733" lon="7.7742" /><trkpt lat="46.05728" lon="7.77418" /><trkpt lat="46.0572" lon="7.77414" /><trkpt lat="46.05713" lon="7.77411" /><trkpt lat="46.05707" lon="7.77407" /><trkpt lat="46.05701" lon="7.77403" /><trkpt lat="46.05692" lon="7.77398" /><trkpt lat="46.05682" lon="7.77391" /><trkpt lat="46.05674" lon="7.77385" /><trkpt lat="46.05663" lon="7.77377" /><trkpt lat="46.05654" lon="7.7737" /><trkpt lat="46.05646" lon="7.77364" /><trkpt lat="46.05638" lon="7.77359" /><trkpt lat="46.05628" lon="7.77354" /><trkpt lat="46.05619" lon="7.7735" /><trkpt lat="46.05608" lon="7.77345" /><trkpt lat="46.05598" lon="7.77341" /><trkpt lat="46.05586" lon="7.77337" /><trkpt lat="46.05569" lon="7.77332" /><trkpt lat="46.05558" lon="7.77328" /><trkpt lat="46.05545" lon="7.77323" /><trkpt lat="46.05535" lon="7.77318" /><trkpt lat="46.05527" lon="7.77314" /><trkpt lat="46.05519" lon="7.77309" /><trkpt lat="46.05512" lon="7.77303" /><trkpt lat="46.05501" lon="7.77295" /><trkpt lat="46.05493" lon="7.77288" /><trkpt lat="46.05484" lon="7.77279" /><trkpt lat="46.05475" lon="7.77268" /><trkpt lat="46.05467" lon="7.77258" /><trkpt lat="46.05458" lon="7.77247" /><trkpt lat="46.05436" lon="7.77218" /><trkpt lat="46.05406" lon="7.77178" /><trkpt lat="46.05396" lon="7.77165" /><trkpt lat="46.0538" lon="7.77143" /><trkpt lat="46.05366" lon="7.77125" /><trkpt lat="46.05355" lon="7.77109" /><trkpt lat="46.05351" lon="7.77104" /><trkpt lat="46.0533" lon="7.77075" /><trkpt lat="46.0532" lon="7.77062" /><trkpt lat="46.05295" lon="7.77036" /><trkpt lat="46.05268" lon="7.77016" /><trkpt lat="46.05235" lon="7.77003" /><trkpt lat="46.0517" lon="7.76983" /><trkpt lat="46.05118" lon="7.76964" /><trkpt lat="46.05051" lon="7.76933" /><trkpt lat="46.04994" lon="7.76897" /><trkpt lat="46.04948" lon="7.76863" /><trkpt lat="46.04929" lon="7.76853" /><trkpt lat="46.04911" lon="7.76847" /><trkpt lat="46.04876" lon="7.76842" /><trkpt lat="46.04857" lon="7.76843" /><trkpt lat="46.04841" lon="7.76848" /><trkpt lat="46.04823" lon="7.7686" /><trkpt lat="46.04803" lon="7.76875" /><trkpt lat="46.04782" lon="7.76888" /><trkpt lat="46.04767" lon="7.76891" /><trkpt lat="46.04751" lon="7.7689" /><trkpt lat="46.04737" lon="7.76886" /><trkpt lat="46.04726" lon="7.76881" /><trkpt lat="46.04709" lon="7.76865" /><trkpt lat="46.04678" lon="7.76832" /><trkpt lat="46.04661" lon="7.76818" /><trkpt lat="46.04651" lon="7.76812" /><trkpt lat="46.04635" lon="7.76805" /><trkpt lat="46.04625" lon="7.768" /><trkpt lat="46.04589" lon="7.76782" /><trkpt lat="46.0458" lon="7.76778" /><trkpt lat="46.04572" lon="7.76773" /><trkpt lat="46.04565" lon="7.76768" /><trkpt lat="46.04558" lon="7.76763" /><trkpt lat="46.04549" lon="7.76756" /><trkpt lat="46.04543" lon="7.76749" /><trkpt lat="46.04535" lon="7.76741" /><trkpt lat="46.04526" lon="7.76728" /><trkpt lat="46.04519" lon="7.76717" /><trkpt lat="46.04513" lon="7.76707" /><trkpt lat="46.04506" lon="7.76695" /><trkpt lat="46.045" lon="7.76684" /><trkpt lat="46.04494" lon="7.76673" /><trkpt lat="46.04489" lon="7.76662" /><trkpt lat="46.04484" lon="7.7665" /><trkpt lat="46.0448" lon="7.76636" /><trkpt lat="46.04477" lon="7.76625" /><trkpt lat="46.04474" lon="7.7661" /><trkpt lat="46.04469" lon="7.76591" /><trkpt lat="46.04465" lon="7.7658" /><trkpt lat="46.04461" lon="7.76571" /><trkpt lat="46.04456" lon="7.76561" /><trkpt lat="46.0445" lon="7.7655" /><trkpt lat="46.04445" lon="7.76544" /><trkpt lat="46.04438" lon="7.76536" /><trkpt lat="46.0443" lon="7.76528" /><trkpt lat="46.04423" lon="7.7652" /><trkpt lat="46.04411" lon="7.76511" /><trkpt lat="46.04409" lon="7.7651" /><trkpt lat="46.04386" lon="7.76494" /><trkpt lat="46.04371" lon="7.76488" /><trkpt lat="46.04348" lon="7.76481" /><trkpt lat="46.04331" lon="7.76477" /><trkpt lat="46.04314" lon="7.76467" /><trkpt lat="46.04295" lon="7.76454" /><trkpt lat="46.04281" lon="7.76438" /><trkpt lat="46.04267" lon="7.76418" /><trkpt lat="46.04256" lon="7.76395" /><trkpt lat="46.0424" lon="7.76372" /><trkpt lat="46.04209" lon="7.76337" /><trkpt lat="46.04191" lon="7.76315" /><trkpt lat="46.04178" lon="7.76291" /><trkpt lat="46.04169" lon="7.76264" /><trkpt lat="46.04157" lon="7.76235" /><trkpt lat="46.04146" lon="7.76214" /><trkpt lat="46.04134" lon="7.76201" /><trkpt lat="46.04123" lon="7.76193" /><trkpt lat="46.04109" lon="7.76188" /><trkpt lat="46.04084" lon="7.76184" /><trkpt lat="46.0406" lon="7.7618" /><trkpt lat="46.04041" lon="7.76175" /><trkpt lat="46.04027" lon="7.76167" /><trkpt lat="46.04013" lon="7.76155" /><trkpt lat="46.04001" lon="7.76137" /><trkpt lat="46.03988" lon="7.76113" /><trkpt lat="46.03973" lon="7.76088" /><trkpt lat="46.03961" lon="7.76077" /><trkpt lat="46.03944" lon="7.76069" /><trkpt lat="46.03916" lon="7.7606" /><trkpt lat="46.03873" lon="7.76047" /><trkpt lat="46.03857" lon="7.76045" /><trkpt lat="46.03841" lon="7.76045" /><trkpt lat="46.03828" lon="7.76048" /><trkpt lat="46.03815" lon="7.76052" /><trkpt lat="46.03786" lon="7.7606" /><trkpt lat="46.03765" lon="7.76058" /><trkpt lat="46.03743" lon="7.7605" /><trkpt lat="46.03723" lon="7.76036" /><trkpt lat="46.03661" lon="7.75992" /><trkpt lat="46.03633" lon="7.75971" /><trkpt lat="46.03612" lon="7.75943" /><trkpt lat="46.03595" lon="7.75914" /><trkpt lat="46.03576" lon="7.75886" /><trkpt lat="46.03563" lon="7.75873" /><trkpt lat="46.03552" lon="7.75864" /><trkpt lat="46.03532" lon="7.75852" /><trkpt lat="46.03506" lon="7.7584" /><trkpt lat="46.03495" lon="7.75837" /><trkpt lat="46.03483" lon="7.75835" /><trkpt lat="46.03461" lon="7.75837" /><trkpt lat="46.034" lon="7.75848" /><trkpt lat="46.03378" lon="7.75846" /><trkpt lat="46.03357" lon="7.75836" /><trkpt lat="46.0334" lon="7.75821" /><trkpt lat="46.03317" lon="7.75793" /><trkpt lat="46.03296" lon="7.75773" /><trkpt lat="46.03281" lon="7.75765" /><trkpt lat="46.0326" lon="7.75753" /><trkpt lat="46.03243" lon="7.75735" /><trkpt lat="46.03234" lon="7.75721" /><trkpt lat="46.03225" lon="7.75702" /><trkpt lat="46.03216" lon="7.75676" /><trkpt lat="46.03207" lon="7.75653" /><trkpt lat="46.03193" lon="7.75628" /><trkpt lat="46.03172" lon="7.75598" /><trkpt lat="46.03152" lon="7.75575" /><trkpt lat="46.03082" lon="7.75472" /><trkpt lat="46.03062" lon="7.75443" /><trkpt lat="46.03054" lon="7.75431" /><trkpt lat="46.03047" lon="7.75423" /><trkpt lat="46.03042" lon="7.75418" /><trkpt lat="46.03037" lon="7.75412" /><trkpt lat="46.03032" lon="7.75408" /><trkpt lat="46.03025" lon="7.75402" /><trkpt lat="46.03019" lon="7.75398" /><trkpt lat="46.03013" lon="7.75394" /><trkpt lat="46.03007" lon="7.75391" /><trkpt lat="46.02999" lon="7.75388" /><trkpt lat="46.02981" lon="7.75383" /><trkpt lat="46.02966" lon="7.75382" /><trkpt lat="46.02945" lon="7.75382" /><trkpt lat="46.02929" lon="7.75381" /><trkpt lat="46.02914" lon="7.75373" /><trkpt lat="46.02909" lon="7.75369" /><trkpt lat="46.02904" lon="7.75364" /><trkpt lat="46.02898" lon="7.75357" /><trkpt lat="46.02894" lon="7.75351" /><trkpt lat="46.02889" lon="7.75345" /><trkpt lat="46.02886" lon="7.75339" /><trkpt lat="46.02882" lon="7.75328" /><trkpt lat="46.02878" lon="7.7532" /><trkpt lat="46.02874" lon="7.75306" /><trkpt lat="46.02869" lon="7.7529" /><trkpt lat="46.02864" lon="7.75276" /><trkpt lat="46.02858" lon="7.75262" /><trkpt lat="46.02853" lon="7.7525" /><trkpt lat="46.02847" lon="7.75235" /><trkpt lat="46.02841" lon="7.75223" /><trkpt lat="46.02834" lon="7.75208" /><trkpt lat="46.02827" lon="7.75196" /><trkpt lat="46.02822" lon="7.75187" /><trkpt lat="46.02818" lon="7.75181" /><trkpt lat="46.02812" lon="7.75172" /><trkpt lat="46.028" lon="7.75154" /><trkpt lat="46.02779" lon="7.75128" /><trkpt lat="46.02656" lon="7.74985" /><trkpt lat="46.02654" lon="7.74982" /><trkpt lat="46.02638" lon="7.74963" /><trkpt lat="46.02628" lon="7.74953" /><trkpt lat="46.02617" lon="7.74942" /><trkpt lat="46.026" lon="7.74925" /><trkpt lat="46.02584" lon="7.7491" /><trkpt lat="46.02571" lon="7.74897" /><trkpt lat="46.02555" lon="7.74882" /><trkpt lat="46.02549" lon="7.74876" /><trkpt lat="46.02546" lon="7.74873" /><trkpt lat="46.02541" lon="7.74868" /><trkpt lat="46.02535" lon="7.74864" /><trkpt lat="46.0251" lon="7.74846" /><trkpt lat="46.02459" lon="7.74808" /><trkpt lat="46.02459" lon="7.74808" /></trkseg></trk></gpx>