<gpx version="1.1" creator="Trainlog.me"><trk><name>Trip Path</name><trkseg><trkpt lat="46.63262" lon="7.89996" /><trkpt lat="46.63244" lon="7.9001" /><trkpt lat="46.63233" lon="7.9002" /><trkpt lat="46.63227" lon="7.90026" /><trkpt lat="46.63217" lon="7.90037" /><trkpt lat="46.6321" lon="7.90045" /><trkpt lat="46.63205" lon="7.90052" /><trkpt lat="46.63201" lon="7.90057" /><trkpt lat="46.63198" lon="7.90062" /><trkpt lat="46.63194" lon="7.90068" /><trkpt lat="46.63191" lon="7.90074" /><trkpt lat="46.63188" lon="7.90081" /><trkpt lat="46.63183" lon="7.9009" /><trkpt lat="46.6318" lon="7.901" /><trkpt lat="46.63176" lon="7.90114" /><trkpt lat="46.63174" lon="7.90123" /><trkpt lat="46.63171" lon="7.90137" /><trkpt lat="46.63169" lon="7.90151" /><trkpt lat="46.63166" lon="7.90174" /><trkpt lat="46.63165" lon="7.90212" /><trkpt lat="46.63163" lon="7.90249" /><trkpt lat="46.6316" lon="7.90316" /><trkpt lat="46.63159" lon="7.90354" /><trkpt lat="46.63159" lon="7.90369" /><trkpt lat="46.63158" lon="7.90405" /><trkpt lat="46.63158" lon="7.90435" /><trkpt lat="46.63158" lon="7.90448" /><trkpt lat="46.63158" lon="7.90505" /><trkpt lat="46.63157" lon="7.90522" /><trkpt lat="46.63157" lon="7.90543" /><trkpt lat="46.63156" lon="7.90562" /><trkpt lat="46.63152" lon="7.90623" /><trkpt lat="46.63148" lon="7.9068" /><trkpt lat="46.63145" lon="7.90722" /><trkpt lat="46.63143" lon="7.90737" /><trkpt lat="46.63139" lon="7.90751" /><trkpt lat="46.63136" lon="7.90765" /><trkpt lat="46.63119" lon="7.90817" /><trkpt lat="46.63116" lon="7.9083" /><trkpt lat="46.63113" lon="7.90839" /><trkpt lat="46.6311" lon="7.90852" /><trkpt lat="46.63108" lon="7.90865" /><trkpt lat="46.63106" lon="7.90878" /><trkpt lat="46.63105" lon="7.9089" /><trkpt lat="46.63105" lon="7.90903" /><trkpt lat="46.63104" lon="7.90917" /><trkpt lat="46.63105" lon="7.9093" /><trkpt lat="46.63106" lon="7.90943" /><trkpt lat="46.63107" lon="7.90956" /><trkpt lat="46.63109" lon="7.90969" /><trkpt lat="46.63112" lon="7.90983" /><trkpt lat="46.63116" lon="7.91" /><trkpt lat="46.63132" lon="7.91059" /><trkpt lat="46.63135" lon="7.91073" /><trkpt lat="46.63139" lon="7.91089" /><trkpt lat="46.63142" lon="7.91103" /><trkpt lat="46.63144" lon="7.91118" /><trkpt lat="46.63146" lon="7.91136" /><trkpt lat="46.63147" lon="7.91153" /><trkpt lat="46.63148" lon="7.91168" /><trkpt lat="46.63148" lon="7.91186" /><trkpt lat="46.63147" lon="7.91202" /><trkpt lat="46.63146" lon="7.91219" /><trkpt lat="46.63144" lon="7.91236" /><trkpt lat="46.63138" lon="7.91288" /><trkpt lat="46.63134" lon="7.91323" /><trkpt lat="46.63132" lon="7.91344" /><trkpt lat="46.6313" lon="7.91359" /><trkpt lat="46.6313" lon="7.91373" /><trkpt lat="46.6313" lon="7.91391" /><trkpt lat="46.6313" lon="7.91406" /><trkpt lat="46.63131" lon="7.91424" /><trkpt lat="46.63133" lon="7.91442" /><trkpt lat="46.63136" lon="7.91458" /><trkpt lat="46.6314" lon="7.91477" /><trkpt lat="46.63145" lon="7.915" /><trkpt lat="46.6315" lon="7.9152" /><trkpt lat="46.63157" lon="7.91541" /><trkpt lat="46.63162" lon="7.91557" /><trkpt lat="46.63167" lon="7.91569" /><trkpt lat="46.63173" lon="7.91583" /><trkpt lat="46.6318" lon="7.91598" /><trkpt lat="46.63197" lon="7.91633" /><trkpt lat="46.63204" lon="7.9165" /><trkpt lat="46.63212" lon="7.91667" /><trkpt lat="46.63216" lon="7.91681" /><trkpt lat="46.63221" lon="7.91697" /><trkpt lat="46.63226" lon="7.91715" /><trkpt lat="46.63231" lon="7.91739" /><trkpt lat="46.63262" lon="7.91881" /><trkpt lat="46.63277" lon="7.91951" /><trkpt lat="46.63289" lon="7.92009" /><trkpt lat="46.63344" lon="7.92265" /><trkpt lat="46.63453" lon="7.92678" /><trkpt lat="46.63489" lon="7.92796" /><trkpt lat="46.635" lon="7.92825" /><trkpt lat="46.63508" lon="7.92844" /><trkpt lat="46.63523" lon="7.92872" /><trkpt lat="46.63532" lon="7.92889" /><trkpt lat="46.63542" lon="7.9291" /><trkpt lat="46.63549" lon="7.9293" /><trkpt lat="46.63556" lon="7.9295" /><trkpt lat="46.6356" lon="7.92969" /><trkpt lat="46.63565" lon="7.92991" /><trkpt lat="46.63568" lon="7.93011" /><trkpt lat="46.6357" lon="7.93035" /><trkpt lat="46.63571" lon="7.93046" /><trkpt lat="46.63573" lon="7.93058" /><trkpt lat="46.63574" lon="7.93065" /><trkpt lat="46.63577" lon="7.93087" /><trkpt lat="46.63579" lon="7.93101" /><trkpt lat="46.63582" lon="7.93116" /><trkpt lat="46.63584" lon="7.93125" /><trkpt lat="46.63585" lon="7.93131" /><trkpt lat="46.6359" lon="7.93146" /><trkpt lat="46.63594" lon="7.93158" /><trkpt lat="46.6361" lon="7.93202" /><trkpt lat="46.63614" lon="7.93213" /><trkpt lat="46.63618" lon="7.93224" /><trkpt lat="46.63621" lon="7.93237" /><trkpt lat="46.63624" lon="7.93248" /><trkpt lat="46.63627" lon="7.93261" /><trkpt lat="46.6363" lon="7.93274" /><trkpt lat="46.63632" lon="7.93286" /><trkpt lat="46.63633" lon="7.933" /><trkpt lat="46.63634" lon="7.93315" /><trkpt lat="46.63635" lon="7.93332" /><trkpt lat="46.63637" lon="7.93404" /><trkpt lat="46.63637" lon="7.93423" /><trkpt lat="46.63637" lon="7.9344" /><trkpt lat="46.63636" lon="7.93463" /><trkpt lat="46.63635" lon="7.93494" /><trkpt lat="46.63624" lon="7.93676" /><trkpt lat="46.6362" lon="7.93742" /><trkpt lat="46.63616" lon="7.9381" /><trkpt lat="46.63615" lon="7.93843" /><trkpt lat="46.63609" lon="7.93935" /><trkpt lat="46.63605" lon="7.94007" /><trkpt lat="46.63604" lon="7.94022" /><trkpt lat="46.63604" lon="7.9404" /><trkpt lat="46.63603" lon="7.94054" /><trkpt lat="46.63603" lon="7.9407" /><trkpt lat="46.63604" lon="7.94087" /><trkpt lat="46.63605" lon="7.94101" /><trkpt lat="46.63606" lon="7.94119" /><trkpt lat="46.63608" lon="7.94137" /><trkpt lat="46.6361" lon="7.94148" /><trkpt lat="46.63611" lon="7.94156" /><trkpt lat="46.63615" lon="7.94181" /><trkpt lat="46.63624" lon="7.94242" /><trkpt lat="46.63625" lon="7.94246" /><trkpt lat="46.63632" lon="7.94294" /><trkpt lat="46.63637" lon="7.94328" /><trkpt lat="46.63638" lon="7.94332" /><trkpt lat="46.63651" lon="7.94415" /><trkpt lat="46.63657" lon="7.94458" /><trkpt lat="46.63659" lon="7.9448" /><trkpt lat="46.63662" lon="7.94503" /><trkpt lat="46.63667" lon="7.94554" /><trkpt lat="46.63677" lon="7.94664" /><trkpt lat="46.63679" lon="7.9469" /><trkpt lat="46.63681" lon="7.94715" /><trkpt lat="46.63684" lon="7.9474" /><trkpt lat="46.63684" lon="7.94744" /><trkpt lat="46.63685" lon="7.94756" /><trkpt lat="46.63687" lon="7.94769" /><trkpt lat="46.63689" lon="7.9478" /><trkpt lat="46.63696" lon="7.94816" /><trkpt lat="46.63702" lon="7.94848" /><trkpt lat="46.63708" lon="7.94876" /><trkpt lat="46.63712" lon="7.94895" /><trkpt lat="46.63715" lon="7.94908" /><trkpt lat="46.63719" lon="7.94924" /><trkpt lat="46.63724" lon="7.94943" /><trkpt lat="46.63727" lon="7.94952" /><trkpt lat="46.63729" lon="7.94961" /><trkpt lat="46.63733" lon="7.94981" /><trkpt lat="46.63736" lon="7.94995" /><trkpt lat="46.63738" lon="7.95003" /><trkpt lat="46.6374" lon="7.95008" /><trkpt lat="46.63743" lon="7.9502" /><trkpt lat="46.63752" lon="7.95046" /><trkpt lat="46.63776" lon="7.95127" /><trkpt lat="46.63781" lon="7.95141" /><trkpt lat="46.63783" lon="7.95151" /><trkpt lat="46.63786" lon="7.95162" /><trkpt lat="46.63789" lon="7.95176" /><trkpt lat="46.63792" lon="7.95192" /><trkpt lat="46.63794" lon="7.95203" /><trkpt lat="46.63796" lon="7.95211" /><trkpt lat="46.63798" lon="7.95226" /><trkpt lat="46.63799" lon="7.95239" /><trkpt lat="46.638" lon="7.95254" /><trkpt lat="46.63801" lon="7.9527" /><trkpt lat="46.63801" lon="7.95275" /><trkpt lat="46.63802" lon="7.95293" /><trkpt lat="46.63801" lon="7.95328" /><trkpt lat="46.63801" lon="7.95345" /><trkpt lat="46.638" lon="7.95363" /><trkpt lat="46.63798" lon="7.95379" /><trkpt lat="46.63796" lon="7.95396" /><trkpt lat="46.63792" lon="7.95414" /><trkpt lat="46.63788" lon="7.95432" /><trkpt lat="46.63784" lon="7.95448" /><trkpt lat="46.63779" lon="7.95466" /><trkpt lat="46.63772" lon="7.95486" /><trkpt lat="46.6376" lon="7.95515" /><trkpt lat="46.6375" lon="7.9554" /><trkpt lat="46.63744" lon="7.95555" /><trkpt lat="46.63741" lon="7.95566" /><trkpt lat="46.63737" lon="7.95578" /><trkpt lat="46.63736" lon="7.95587" /><trkpt lat="46.63733" lon="7.956" /><trkpt lat="46.63732" lon="7.95613" /><trkpt lat="46.63727" lon="7.95654" /><trkpt lat="46.63722" lon="7.9569" /><trkpt lat="46.6372" lon="7.95708" /><trkpt lat="46.63718" lon="7.95722" /><trkpt lat="46.63718" lon="7.95733" /><trkpt lat="46.63718" lon="7.95744" /><trkpt lat="46.63718" lon="7.95755" /><trkpt lat="46.6372" lon="7.95764" /><trkpt lat="46.63721" lon="7.95775" /><trkpt lat="46.63723" lon="7.95784" /><trkpt lat="46.63733" lon="7.95835" /><trkpt lat="46.63745" lon="7.95892" /><trkpt lat="46.63749" lon="7.9591" /><trkpt lat="46.63751" lon="7.95922" /><trkpt lat="46.63754" lon="7.95932" /><trkpt lat="46.63759" lon="7.95946" /><trkpt lat="46.63765" lon="7.95956" /><trkpt lat="46.63771" lon="7.95969" /><trkpt lat="46.63785" lon="7.95996" /><trkpt lat="46.6379" lon="7.96006" /><trkpt lat="46.63794" lon="7.96015" /><trkpt lat="46.63797" lon="7.96023" /><trkpt lat="46.638" lon="7.96034" /><trkpt lat="46.63802" lon="7.96044" /><trkpt lat="46.63804" lon="7.96057" /><trkpt lat="46.63806" lon="7.96069" /><trkpt lat="46.63807" lon="7.9608" /><trkpt lat="46.63811" lon="7.96228" /><trkpt lat="46.63811" lon="7.96234" /><trkpt lat="46.63813" lon="7.96299" /><trkpt lat="46.63817" lon="7.96413" /><trkpt lat="46.63817" lon="7.9643" /><trkpt lat="46.63817" lon="7.96445" /><trkpt lat="46.63816" lon="7.96455" /><trkpt lat="46.63814" lon="7.96469" /><trkpt lat="46.63813" lon="7.96476" /><trkpt lat="46.6381" lon="7.96489" /><trkpt lat="46.63753" lon="7.96707" /><trkpt lat="46.6375" lon="7.9672" /><trkpt lat="46.63747" lon="7.96732" /><trkpt lat="46.63746" lon="7.9674" /><trkpt lat="46.63745" lon="7.9675" /><trkpt lat="46.63744" lon="7.96761" /><trkpt lat="46.63744" lon="7.96771" /><trkpt lat="46.63743" lon="7.96793" /><trkpt lat="46.63743" lon="7.96803" /><trkpt lat="46.63742" lon="7.96812" /><trkpt lat="46.63741" lon="7.96822" /><trkpt lat="46.63739" lon="7.96834" /><trkpt lat="46.63738" lon="7.96842" /><trkpt lat="46.63734" lon="7.96854" /><trkpt lat="46.63731" lon="7.96863" /><trkpt lat="46.63728" lon="7.96871" /><trkpt lat="46.63724" lon="7.96882" /><trkpt lat="46.63718" lon="7.96892" /><trkpt lat="46.63712" lon="7.96902" /><trkpt lat="46.63697" lon="7.96925" /><trkpt lat="46.63692" lon="7.96935" /><trkpt lat="46.63687" lon="7.96945" /><trkpt lat="46.63683" lon="7.96955" /><trkpt lat="46.63679" lon="7.96965" /><trkpt lat="46.63676" lon="7.96977" /><trkpt lat="46.63673" lon="7.96989" /><trkpt lat="46.63671" lon="7.97001" /><trkpt lat="46.6367" lon="7.97013" /><trkpt lat="46.63669" lon="7.97025" /><trkpt lat="46.6367" lon="7.97038" /><trkpt lat="46.6367" lon="7.97047" /><trkpt lat="46.63671" lon="7.97056" /><trkpt lat="46.63672" lon="7.97069" /><trkpt lat="46.63675" lon="7.971" /><trkpt lat="46.63676" lon="7.97112" /><trkpt lat="46.63676" lon="7.97126" /><trkpt lat="46.63675" lon="7.97139" /><trkpt lat="46.63674" lon="7.97152" /><trkpt lat="46.63672" lon="7.97163" /><trkpt lat="46.63669" lon="7.97175" /><trkpt lat="46.63665" lon="7.97188" /><trkpt lat="46.6362" lon="7.97325" /><trkpt lat="46.63615" lon="7.9734" /><trkpt lat="46.63611" lon="7.97358" /><trkpt lat="46.63608" lon="7.97369" /><trkpt lat="46.63605" lon="7.97382" /><trkpt lat="46.63601" lon="7.97402" /><trkpt lat="46.636" lon="7.97411" /><trkpt lat="46.63599" lon="7.97421" /><trkpt lat="46.63598" lon="7.97431" /><trkpt lat="46.63597" lon="7.97466" /><trkpt lat="46.63597" lon="7.9748" /><trkpt lat="46.63595" lon="7.97493" /><trkpt lat="46.63594" lon="7.97508" /><trkpt lat="46.63591" lon="7.97522" /><trkpt lat="46.63584" lon="7.97562" /><trkpt lat="46.63579" lon="7.9759" /><trkpt lat="46.63574" lon="7.97617" /><trkpt lat="46.6356" lon="7.97686" /><trkpt lat="46.63556" lon="7.9771" /><trkpt lat="46.63554" lon="7.97723" /><trkpt lat="46.63552" lon="7.97733" /><trkpt lat="46.63551" lon="7.97748" /><trkpt lat="46.6355" lon="7.97765" /><trkpt lat="46.6355" lon="7.97783" /><trkpt lat="46.6355" lon="7.97802" /><trkpt lat="46.63554" lon="7.98039" /><trkpt lat="46.63571" lon="7.99034" /><trkpt lat="46.63573" lon="7.99114" /><trkpt lat="46.63572" lon="7.99159" /><trkpt lat="46.6357" lon="7.99189" /><trkpt lat="46.63566" lon="7.99219" /><trkpt lat="46.63563" lon="7.99247" /><trkpt lat="46.63559" lon="7.99274" /><trkpt lat="46.63553" lon="7.99301" /><trkpt lat="46.63547" lon="7.99328" /><trkpt lat="46.6354" lon="7.99357" /><trkpt lat="46.63533" lon="7.99378" /><trkpt lat="46.63525" lon="7.99404" /><trkpt lat="46.63507" lon="7.99452" /><trkpt lat="46.63433" lon="7.99629" /><trkpt lat="46.63426" lon="7.99645" /><trkpt lat="46.63418" lon="7.99662" /><trkpt lat="46.63406" lon="7.99682" /><trkpt lat="46.63391" lon="7.99704" /><trkpt lat="46.63372" lon="7.99733" /><trkpt lat="46.63356" lon="7.9976" /><trkpt lat="46.63342" lon="7.99786" /><trkpt lat="46.63325" lon="7.99822" /><trkpt lat="46.63275" lon="7.99935" /><trkpt lat="46.6327" lon="7.99945" /><trkpt lat="46.63239" lon="8.00011" /><trkpt lat="46.63211" lon="8.0007" /><trkpt lat="46.63159" lon="8.00158" /><trkpt lat="46.63093" lon="8.00245" /><trkpt lat="46.6303" lon="8.00328" /><trkpt lat="46.63" lon="8.00367" /><trkpt lat="46.62973" lon="8.00403" /><trkpt lat="46.6296" lon="8.00419" /><trkpt lat="46.62946" lon="8.00433" /><trkpt lat="46.62933" lon="8.00445" /><trkpt lat="46.62908" lon="8.00471" /><trkpt lat="46.62894" lon="8.00488" /><trkpt lat="46.62883" lon="8.00508" /><trkpt lat="46.62873" lon="8.00538" /><trkpt lat="46.6287" lon="8.0056" /><trkpt lat="46.62869" lon="8.00583" /><trkpt lat="46.62869" lon="8.00599" /><trkpt lat="46.62875" lon="8.00648" /><trkpt lat="46.62877" lon="8.00666" /><trkpt lat="46.62877" lon="8.00682" /><trkpt lat="46.62874" lon="8.00712" /><trkpt lat="46.62868" lon="8.00745" /><trkpt lat="46.62861" lon="8.00774" /><trkpt lat="46.62852" lon="8.00806" /><trkpt lat="46.62838" lon="8.00835" /><trkpt lat="46.62825" lon="8.00849" /><trkpt lat="46.62814" lon="8.00859" /><trkpt lat="46.62756" lon="8.00891" /><trkpt lat="46.62732" lon="8.00915" /><trkpt lat="46.62716" lon="8.00935" /><trkpt lat="46.62647" lon="8.01019" /><trkpt lat="46.62639" lon="8.01035" /><trkpt lat="46.62631" lon="8.01055" /><trkpt lat="46.62624" lon="8.01084" /><trkpt lat="46.6262" lon="8.01111" /><trkpt lat="46.62621" lon="8.01142" /><trkpt lat="46.62624" lon="8.0117" /><trkpt lat="46.62631" lon="8.01238" /><trkpt lat="46.62631" lon="8.01289" /><trkpt lat="46.62628" lon="8.01315" /><trkpt lat="46.62624" lon="8.01339" /><trkpt lat="46.62618" lon="8.01366" /><trkpt lat="46.62593" lon="8.0146" /><trkpt lat="46.62568" lon="8.01555" /><trkpt lat="46.62559" lon="8.01591" /><trkpt lat="46.62554" lon="8.01617" /><trkpt lat="46.62552" lon="8.01636" /><trkpt lat="46.62552" lon="8.01666" /><trkpt lat="46.62553" lon="8.01693" /><trkpt lat="46.62553" lon="8.01708" /><trkpt lat="46.62554" lon="8.01784" /><trkpt lat="46.62555" lon="8.01802" /><trkpt lat="46.62557" lon="8.01817" /><trkpt lat="46.6256" lon="8.01832" /><trkpt lat="46.62564" lon="8.01846" /><trkpt lat="46.62571" lon="8.01864" /><trkpt lat="46.62579" lon="8.01883" /><trkpt lat="46.6259" lon="8.01916" /><trkpt lat="46.62593" lon="8.01928" /><trkpt lat="46.62594" lon="8.01938" /><trkpt lat="46.62596" lon="8.01946" /><trkpt lat="46.62596" lon="8.0196" /><trkpt lat="46.62596" lon="8.01976" /><trkpt lat="46.62596" lon="8.01988" /><trkpt lat="46.62595" lon="8.01996" /><trkpt lat="46.62592" lon="8.02021" /><trkpt lat="46.62591" lon="8.02034" /><trkpt lat="46.62591" lon="8.02047" /><trkpt lat="46.62591" lon="8.02059" /><trkpt lat="46.62592" lon="8.02069" /><trkpt lat="46.62594" lon="8.0208" /><trkpt lat="46.62596" lon="8.02092" /><trkpt lat="46.626" lon="8.02106" /><trkpt lat="46.62608" lon="8.02127" /><trkpt lat="46.62619" lon="8.02149" /><trkpt lat="46.62628" lon="8.02166" /><trkpt lat="46.62635" lon="8.02178" /><trkpt lat="46.62637" lon="8.02184" /><trkpt lat="46.62641" lon="8.02193" /><trkpt lat="46.62644" lon="8.02203" /><trkpt lat="46.62649" lon="8.0222" /><trkpt lat="46.62652" lon="8.02237" /><trkpt lat="46.62654" lon="8.02253" /><trkpt lat="46.62654" lon="8.02271" /><trkpt lat="46.62654" lon="8.02279" /><trkpt lat="46.62654" lon="8.02286" /><trkpt lat="46.62652" lon="8.02303" /><trkpt lat="46.62649" lon="8.02319" /><trkpt lat="46.62643" lon="8.02337" /><trkpt lat="46.62633" lon="8.02362" /><trkpt lat="46.62626" lon="8.02381" /><trkpt lat="46.62619" lon="8.02406" /><trkpt lat="46.62592" lon="8.02522" /><trkpt lat="46.62569" lon="8.02622" /><trkpt lat="46.62567" lon="8.02637" /><trkpt lat="46.62565" lon="8.02652" /><trkpt lat="46.62565" lon="8.02669" /><trkpt lat="46.62566" lon="8.02689" /><trkpt lat="46.62569" lon="8.0271" /><trkpt lat="46.62576" lon="8.02744" /><trkpt lat="46.6258" lon="8.0276" /><trkpt lat="46.62583" lon="8.02779" /><trkpt lat="46.62585" lon="8.02798" /><trkpt lat="46.62585" lon="8.02814" /><trkpt lat="46.62585" lon="8.02833" /><trkpt lat="46.62579" lon="8.02862" /><trkpt lat="46.6254" lon="8.03019" /><trkpt lat="46.62538" lon="8.03029" /><trkpt lat="46.62534" lon="8.03039" /><trkpt lat="46.6253" lon="8.03051" /><trkpt lat="46.62527" lon="8.0306" /><trkpt lat="46.62521" lon="8.03072" /><trkpt lat="46.62516" lon="8.03082" /><trkpt lat="46.62511" lon="8.03091" /><trkpt lat="46.62502" lon="8.03106" /><trkpt lat="46.62498" lon="8.03113" /><trkpt lat="46.6249" lon="8.03129" /><trkpt lat="46.62487" lon="8.03137" /><trkpt lat="46.62483" lon="8.03146" /><trkpt lat="46.6248" lon="8.03154" /><trkpt lat="46.62476" lon="8.03165" /><trkpt lat="46.62472" lon="8.03176" /><trkpt lat="46.62469" lon="8.03188" /><trkpt lat="46.62467" lon="8.03198" /><trkpt lat="46.62464" lon="8.03212" /><trkpt lat="46.62462" lon="8.03223" /><trkpt lat="46.6246" lon="8.03238" /><trkpt lat="46.62458" lon="8.03252" /><trkpt lat="46.62457" lon="8.03255" /><trkpt lat="46.62457" lon="8.03255" /></trkseg></trk></gpx>