<gpx version="1.1" creator="Trainlog.me"><trk><name>Trip Path</name><trkseg><trkpt lat="46.40097" lon="6.59177" /><trkpt lat="46.40069" lon="6.59166" /><trkpt lat="46.40045" lon="6.59156" /><trkpt lat="46.40011" lon="6.59146" /><trkpt lat="46.4" lon="6.59143" /><trkpt lat="46.39982" lon="6.59139" /><trkpt lat="46.39971" lon="6.59137" /><trkpt lat="46.39959" lon="6.59137" /><trkpt lat="46.39953" lon="6.59138" /><trkpt lat="46.39943" lon="6.59139" /><trkpt lat="46.39929" lon="6.59142" /><trkpt lat="46.39922" lon="6.59145" /><trkpt lat="46.39915" lon="6.59149" /><trkpt lat="46.39906" lon="6.59153" /><trkpt lat="46.39889" lon="6.59165" /><trkpt lat="46.39879" lon="6.59171" /><trkpt lat="46.39859" lon="6.59184" /><trkpt lat="46.39854" lon="6.59186" /><trkpt lat="46.39831" lon="6.59195" /><trkpt lat="46.39817" lon="6.59201" /><trkpt lat="46.39805" lon="6.59207" /><trkpt lat="46.39787" lon="6.59216" /><trkpt lat="46.39773" lon="6.59223" /><trkpt lat="46.39747" lon="6.5924" /><trkpt lat="46.39739" lon="6.59246" /><trkpt lat="46.39722" lon="6.59255" /><trkpt lat="46.39711" lon="6.5926" /><trkpt lat="46.39699" lon="6.59263" /><trkpt lat="46.39684" lon="6.59266" /><trkpt lat="46.39672" lon="6.59267" /><trkpt lat="46.39638" lon="6.59266" /><trkpt lat="46.39608" lon="6.59265" /><trkpt lat="46.39569" lon="6.59264" /><trkpt lat="46.39564" lon="6.59264" /><trkpt lat="46.39509" lon="6.59261" /><trkpt lat="46.39475" lon="6.5926" /><trkpt lat="46.39439" lon="6.59258" /><trkpt lat="46.39429" lon="6.59258" /><trkpt lat="46.39429" lon="6.59258" /></trkseg></trk></gpx>